{"type": "FeatureCollection", "features": [{"type": "Feature", "properties": {"name": "ЗКМ", "source": "track21.gpx", "points": 2080}, "geometry": {"type": "LineString", "coordinates": [[37.587213, 55.842715], [37.587364, 55.842758], [37.587535, 55.842694], [37.589187, 55.843187], [37.589917, 55.842908], [37.58996, 55.842715], [37.590024, 55.841514], [37.590089, 55.841385], [37.590282, 55.841256], [37.592664, 55.840505], [37.593028, 55.840333], [37.593179, 55.840205], [37.593329, 55.839904], [37.593522, 55.839218], [37.59393, 55.838016], [37.593973, 55.837501], [37.595346, 55.836407], [37.598693, 55.83439], [37.598607, 55.833918], [37.597942, 55.833553], [37.600324, 55.832158], [37.601333, 55.831321], [37.602019, 55.83115], [37.604487, 55.831665], [37.605324, 55.832072], [37.608263, 55.833982], [37.610173, 55.835119], [37.611375, 55.83602], [37.611954, 55.836557], [37.611847, 55.836664], [37.611675, 55.837608], [37.611418, 55.838166], [37.611203, 55.838338], [37.611139, 55.838853], [37.61131, 55.839003], [37.613263, 55.839861], [37.614336, 55.840033], [37.615559, 55.84014], [37.617812, 55.840505], [37.619657, 55.84102], [37.620151, 55.841042], [37.621782, 55.84087], [37.623219, 55.841449], [37.62367, 55.841278], [37.62397, 55.840913], [37.624035, 55.840569], [37.624893, 55.840527], [37.625236, 55.840913], [37.628584, 55.841492], [37.630837, 55.841621], [37.631824, 55.841771], [37.632983, 55.842114], [37.633798, 55.842265], [37.634764, 55.842801], [37.635965, 55.84308], [37.636223, 55.84308], [37.636502, 55.843209], [37.637596, 55.843252], [37.637703, 55.842951], [37.637725, 55.842737], [37.63854, 55.84235], [37.640235, 55.842265], [37.64133, 55.842157], [37.643282, 55.84205], [37.643411, 55.841921], [37.643325, 55.841707], [37.643239, 55.841321], [37.643218, 55.840999], [37.643497, 55.840913], [37.643561, 55.840162], [37.643926, 55.839389], [37.643905, 55.839282], [37.644591, 55.83911], [37.64708, 55.838295], [37.648432, 55.837737], [37.648604, 55.83763], [37.648969, 55.837737], [37.649226, 55.837737], [37.649548, 55.837823], [37.649891, 55.837973], [37.650277, 55.838037], [37.650471, 55.837801], [37.650449, 55.837415], [37.650986, 55.836836], [37.652294, 55.835892], [37.652681, 55.83572], [37.652767, 55.835591], [37.65311, 55.83542], [37.653196, 55.835033], [37.653754, 55.834411], [37.654054, 55.833767], [37.654741, 55.83321], [37.658324, 55.83175], [37.658882, 55.831944], [37.658238, 55.831686], [37.656929, 55.830549], [37.656951, 55.830163], [37.654097, 55.827459], [37.653625, 55.827652], [37.653625, 55.827824], [37.653904, 55.828253], [37.654226, 55.828575], [37.654655, 55.828832], [37.655256, 55.828682], [37.656264, 55.828339], [37.657895, 55.827995], [37.659547, 55.827759], [37.660599, 55.827695], [37.662508, 55.827309], [37.665448, 55.826622], [37.666736, 55.826214], [37.667594, 55.8263], [37.668259, 55.82585], [37.669225, 55.825635], [37.669268, 55.824948], [37.669933, 55.824562], [37.670963, 55.824476], [37.672121, 55.823554], [37.672744, 55.822803], [37.674095, 55.821837], [37.674782, 55.821258], [37.675125, 55.820635], [37.676306, 55.819906], [37.676799, 55.819691], [37.677657, 55.820206], [37.677915, 55.820592], [37.677872, 55.820743], [37.678816, 55.821558], [37.682915, 55.821901], [37.68476, 55.821944], [37.684653, 55.822631], [37.6883, 55.823639], [37.689824, 55.823296], [37.690189, 55.823124], [37.691583, 55.824648], [37.69182, 55.824648], [37.692528, 55.824219], [37.692935, 55.824176], [37.693193, 55.824562], [37.694287, 55.825463], [37.694652, 55.825678], [37.695317, 55.825699], [37.695339, 55.82585], [37.695553, 55.825957], [37.69566, 55.82615], [37.695532, 55.826386], [37.695575, 55.826536], [37.695896, 55.826708], [37.696154, 55.826965], [37.696369, 55.827116], [37.697034, 55.827094], [37.697549, 55.827266], [37.697506, 55.827738], [37.697677, 55.827802], [37.698986, 55.827909], [37.699866, 55.82718], [37.699952, 55.827008], [37.70139, 55.827073], [37.702076, 55.827266], [37.702892, 55.827201], [37.702956, 55.827137], [37.703664, 55.826858], [37.704115, 55.826837], [37.704587, 55.826601], [37.704952, 55.826343], [37.705209, 55.826257], [37.705767, 55.826214], [37.705939, 55.826021], [37.705767, 55.825313], [37.706303, 55.825227], [37.706475, 55.82512], [37.706518, 55.824884], [37.707162, 55.824498], [37.708127, 55.824498], [37.707999, 55.824197], [37.708793, 55.823833], [37.709329, 55.822459], [37.709479, 55.821665], [37.709586, 55.820378], [37.709994, 55.820292], [37.71038, 55.819863], [37.711046, 55.819648], [37.710981, 55.819348], [37.712011, 55.818661], [37.712591, 55.818382], [37.713106, 55.818275], [37.712719, 55.81806], [37.717097, 55.815764], [37.717032, 55.815722], [37.725336, 55.811451], [37.724972, 55.811172], [37.72568, 55.8107], [37.725744, 55.809949], [37.725572, 55.809778], [37.726924, 55.809177], [37.727611, 55.808962], [37.727847, 55.808984], [37.728963, 55.809628], [37.729328, 55.809413], [37.728577, 55.809005], [37.729628, 55.808404], [37.730486, 55.808404], [37.731173, 55.808319], [37.732353, 55.807589], [37.733083, 55.807203], [37.73304, 55.80701], [37.732761, 55.806581], [37.732761, 55.806409], [37.732546, 55.805186], [37.732375, 55.804885], [37.731044, 55.803555], [37.731023, 55.803083], [37.731795, 55.802225], [37.732332, 55.802353], [37.732911, 55.80171], [37.733941, 55.801817], [37.734563, 55.801044], [37.737417, 55.801173], [37.73776, 55.801002], [37.738168, 55.800959], [37.738318, 55.800808], [37.738705, 55.80068], [37.739048, 55.80068], [37.739541, 55.800487], [37.739971, 55.800572], [37.740078, 55.800465], [37.740443, 55.800508], [37.740636, 55.800079], [37.741279, 55.800143], [37.741859, 55.800014], [37.742052, 55.799585], [37.742352, 55.799499], [37.742696, 55.799542], [37.742782, 55.798985], [37.74291, 55.798834], [37.743125, 55.79744], [37.743039, 55.796495], [37.742202, 55.796023], [37.742846, 55.795616], [37.742846, 55.795337], [37.744455, 55.795101], [37.743769, 55.793105], [37.74409, 55.793062], [37.744112, 55.792912], [37.746773, 55.792612], [37.746816, 55.792697], [37.746644, 55.792719], [37.747009, 55.793556], [37.752759, 55.792976], [37.75233, 55.791775], [37.752588, 55.791753], [37.754562, 55.791303], [37.755077, 55.791646], [37.755484, 55.791453], [37.756665, 55.791152], [37.757974, 55.790187], [37.75866, 55.789908], [37.760484, 55.789886], [37.763188, 55.790401], [37.763617, 55.790788], [37.763789, 55.790766], [37.763896, 55.790874], [37.764411, 55.790938], [37.76499, 55.79068], [37.765999, 55.790509], [37.76705, 55.790466], [37.767436, 55.790509], [37.768659, 55.791195], [37.768938, 55.791603], [37.76911, 55.792354], [37.770569, 55.792354], [37.775226, 55.792504], [37.775655, 55.79244], [37.776706, 55.792504], [37.776964, 55.792118], [37.777543, 55.792182], [37.778294, 55.790423], [37.779024, 55.788899], [37.779002, 55.788427], [37.779131, 55.788148], [37.779667, 55.787912], [37.779689, 55.787805], [37.779989, 55.787805], [37.779989, 55.787633], [37.779689, 55.787612], [37.77986, 55.786389], [37.77971, 55.786346], [37.779517, 55.786131], [37.779281, 55.785123], [37.779024, 55.784715], [37.779174, 55.784608], [37.779839, 55.783277], [37.779217, 55.782698], [37.779281, 55.782355], [37.779024, 55.781926], [37.779131, 55.781861], [37.777586, 55.780745], [37.777243, 55.780574], [37.776921, 55.780338], [37.776513, 55.780145], [37.776406, 55.779844], [37.776234, 55.77905], [37.775912, 55.778814], [37.774925, 55.776905], [37.774689, 55.776647], [37.774453, 55.776154], [37.774496, 55.775939], [37.774603, 55.775789], [37.774904, 55.775553], [37.776406, 55.775038], [37.777543, 55.774587], [37.781405, 55.7736], [37.784281, 55.773729], [37.789066, 55.77375], [37.792177, 55.771841], [37.79531, 55.77006], [37.796082, 55.769738], [37.797241, 55.768879], [37.798679, 55.768021], [37.799365, 55.768085], [37.799687, 55.768279], [37.800009, 55.768128], [37.800696, 55.768107], [37.800996, 55.76757], [37.80149, 55.767764], [37.801704, 55.767699], [37.801962, 55.767506], [37.801661, 55.766819], [37.801769, 55.766326], [37.802584, 55.76624], [37.806017, 55.766026], [37.806125, 55.765854], [37.805996, 55.765639], [37.807562, 55.765446], [37.810716, 55.764931], [37.809386, 55.762228], [37.81136, 55.761562], [37.811446, 55.761627], [37.811789, 55.761627], [37.812433, 55.761541], [37.813141, 55.761369], [37.814472, 55.761455], [37.815609, 55.761798], [37.816295, 55.762077], [37.816939, 55.762249], [37.81784, 55.762399], [37.819128, 55.762721], [37.819471, 55.762871], [37.819772, 55.763236], [37.82166, 55.762056], [37.821724, 55.761884], [37.822389, 55.761691], [37.822733, 55.761519], [37.824406, 55.760532], [37.824728, 55.76021], [37.824728, 55.759889], [37.8252, 55.759545], [37.825415, 55.759331], [37.8252, 55.758794], [37.82417, 55.756734], [37.821767, 55.751198], [37.821574, 55.75122], [37.820158, 55.748044], [37.817304, 55.745641], [37.817304, 55.745491], [37.817669, 55.744868], [37.817862, 55.744675], [37.818785, 55.744804], [37.819235, 55.744203], [37.820136, 55.74431], [37.820437, 55.743967], [37.817819, 55.743302], [37.818012, 55.74313], [37.816081, 55.74268], [37.815909, 55.742744], [37.814407, 55.742401], [37.812412, 55.740233], [37.810309, 55.740148], [37.809064, 55.740405], [37.808421, 55.74019], [37.80767, 55.740105], [37.806811, 55.739718], [37.804558, 55.739268], [37.802648, 55.738731], [37.802842, 55.738517], [37.802498, 55.738109], [37.802262, 55.737658], [37.801683, 55.736865], [37.801597, 55.736543], [37.801618, 55.73635], [37.800224, 55.735041], [37.800374, 55.734805], [37.800588, 55.734654], [37.800374, 55.733732], [37.800181, 55.733646], [37.80164, 55.733367], [37.802198, 55.732273], [37.802691, 55.730728], [37.802434, 55.730449], [37.802648, 55.730213], [37.801275, 55.728839], [37.80061, 55.728024], [37.79988, 55.727337], [37.799752, 55.726286], [37.799816, 55.725878], [37.801168, 55.725234], [37.799666, 55.724226], [37.799365, 55.724097], [37.798078, 55.724076], [37.797906, 55.723539], [37.797456, 55.723561], [37.797198, 55.723647], [37.797391, 55.723475], [37.797563, 55.723239], [37.797413, 55.723046], [37.797692, 55.722939], [37.797348, 55.722595], [37.797005, 55.722702], [37.796726, 55.722509], [37.794795, 55.717875], [37.794452, 55.717917], [37.79398, 55.717596], [37.793422, 55.717681], [37.793293, 55.717467], [37.792756, 55.717553], [37.792542, 55.717166], [37.792756, 55.717145], [37.792585, 55.716845], [37.792778, 55.716415], [37.791126, 55.714463], [37.790096, 55.713368], [37.790267, 55.713197], [37.789237, 55.712317], [37.787735, 55.711158], [37.786598, 55.71133], [37.786147, 55.711115], [37.785182, 55.71103], [37.78501, 55.71118], [37.78456, 55.711287], [37.783358, 55.710965], [37.779946, 55.710493], [37.780847, 55.710021], [37.781684, 55.709871], [37.782156, 55.709163], [37.782156, 55.708948], [37.781577, 55.70897], [37.78147, 55.708734], [37.781169, 55.708755], [37.781041, 55.70824], [37.780332, 55.70721], [37.780375, 55.706738], [37.779946, 55.705794], [37.779775, 55.705193], [37.779131, 55.704034], [37.780504, 55.703884], [37.780161, 55.703348], [37.779839, 55.703197], [37.779474, 55.703219], [37.778959, 55.703047], [37.778187, 55.701889], [37.778058, 55.701138], [37.777779, 55.700773], [37.777607, 55.7], [37.777307, 55.698992], [37.777178, 55.698734], [37.777736, 55.69867], [37.777629, 55.698391], [37.777457, 55.698369], [37.776878, 55.698412], [37.776556, 55.697576], [37.776792, 55.69749], [37.777157, 55.696803], [37.779603, 55.695258], [37.781191, 55.693992], [37.782221, 55.693606], [37.783873, 55.693434], [37.785418, 55.693112], [37.786383, 55.69279], [37.787692, 55.692061], [37.787993, 55.691739], [37.788293, 55.691524], [37.788229, 55.691353], [37.788508, 55.691138], [37.788958, 55.690924], [37.788787, 55.690859], [37.788916, 55.690773], [37.788572, 55.690537], [37.786448, 55.690537], [37.786083, 55.690323], [37.785761, 55.690065], [37.785504, 55.689701], [37.785525, 55.688606], [37.785568, 55.688477], [37.78574, 55.688306], [37.789323, 55.686525], [37.790761, 55.686139], [37.791576, 55.686182], [37.792392, 55.686418], [37.793271, 55.686868], [37.79458, 55.687061], [37.796705, 55.687769], [37.798293, 55.688113], [37.799966, 55.688113], [37.80179, 55.687855], [37.804386, 55.687405], [37.804837, 55.687233], [37.80503, 55.686739], [37.806361, 55.686654], [37.807391, 55.68631], [37.807841, 55.686031], [37.809665, 55.686031], [37.814128, 55.685559], [37.8146, 55.685602], [37.81518, 55.685967], [37.815931, 55.686224], [37.816338, 55.686289], [37.816725, 55.686246], [37.816918, 55.686117], [37.817411, 55.686482], [37.817669, 55.686418], [37.819621, 55.686396], [37.820887, 55.686053], [37.821574, 55.685924], [37.823076, 55.685409], [37.827282, 55.684744], [37.830329, 55.683177], [37.82829, 55.681482], [37.828119, 55.68116], [37.828462, 55.680345], [37.828677, 55.680088], [37.828805, 55.679573], [37.829106, 55.679294], [37.829213, 55.67895], [37.830264, 55.678092], [37.830307, 55.677556], [37.83123, 55.676869], [37.830393, 55.676182], [37.830565, 55.675281], [37.830114, 55.674551], [37.8302, 55.673994], [37.829106, 55.673414], [37.828526, 55.672513], [37.826788, 55.672427], [37.826788, 55.671762], [37.827089, 55.670839], [37.827046, 55.66996], [37.827754, 55.669595], [37.82814, 55.668972], [37.828376, 55.668372], [37.828762, 55.666784], [37.828634, 55.66644], [37.828913, 55.665282], [37.830071, 55.66157], [37.830157, 55.661012], [37.829943, 55.660561], [37.828677, 55.659982], [37.826574, 55.65981], [37.825887, 55.659703], [37.825522, 55.659574], [37.824406, 55.659789], [37.823527, 55.659746], [37.822711, 55.659917], [37.822046, 55.65981], [37.821681, 55.659832], [37.820673, 55.659638], [37.820115, 55.659359], [37.819536, 55.659467], [37.817991, 55.659123], [37.817798, 55.659123], [37.81724, 55.65893], [37.817025, 55.65893], [37.816789, 55.658866], [37.816424, 55.65893], [37.816124, 55.659059], [37.815351, 55.659102], [37.814901, 55.659016], [37.813291, 55.659295], [37.812497, 55.659746], [37.810566, 55.6629], [37.810674, 55.66305], [37.810352, 55.663265], [37.809429, 55.665775], [37.809021, 55.666269], [37.809021, 55.666462], [37.809107, 55.666934], [37.808764, 55.667706], [37.808678, 55.668694], [37.809493, 55.672148], [37.809987, 55.672534], [37.809901, 55.672942], [37.807219, 55.673221], [37.805889, 55.673049], [37.799945, 55.674079], [37.799365, 55.674273], [37.798593, 55.674702], [37.798207, 55.674444], [37.796748, 55.673307], [37.797091, 55.672942], [37.797134, 55.672749], [37.79619, 55.671504], [37.794773, 55.67026], [37.791791, 55.66702], [37.79104, 55.667084], [37.790761, 55.666355], [37.78913, 55.665539], [37.787049, 55.66481], [37.786898, 55.664574], [37.786598, 55.664509], [37.786105, 55.664574], [37.785225, 55.663951], [37.784366, 55.663179], [37.783916, 55.662921], [37.783508, 55.662964], [37.782864, 55.663372], [37.7825, 55.663458], [37.782242, 55.663351], [37.781813, 55.663544], [37.781684, 55.663372], [37.781405, 55.663479], [37.780311, 55.66202], [37.77941, 55.662149], [37.779281, 55.661269], [37.778809, 55.661076], [37.778551, 55.660904], [37.777371, 55.66114], [37.776556, 55.659102], [37.777843, 55.658673], [37.777607, 55.657149], [37.77883, 55.657128], [37.779345, 55.655004], [37.77883, 55.653287], [37.778315, 55.653158], [37.775891, 55.651978], [37.77308, 55.650798], [37.772393, 55.650669], [37.772007, 55.65054], [37.772307, 55.649854], [37.771964, 55.649274], [37.771299, 55.648952], [37.770376, 55.648695], [37.770505, 55.648266], [37.768509, 55.648223], [37.767351, 55.648159], [37.764561, 55.647365], [37.764497, 55.647257], [37.764175, 55.647214], [37.761342, 55.645798], [37.761299, 55.645669], [37.761128, 55.645712], [37.759712, 55.645112], [37.760012, 55.644854], [37.750528, 55.642], [37.747738, 55.641314], [37.747609, 55.6417], [37.747288, 55.641657], [37.748468, 55.638932], [37.748532, 55.638953], [37.748511, 55.63906], [37.747738, 55.638932], [37.747266, 55.638932], [37.746386, 55.638631], [37.745828, 55.638524], [37.745442, 55.638588], [37.744648, 55.638524], [37.743704, 55.638352], [37.743404, 55.638674], [37.743018, 55.638545], [37.741408, 55.638202], [37.741001, 55.637923], [37.740443, 55.637794], [37.739498, 55.637752], [37.739005, 55.637988], [37.738404, 55.638631], [37.738447, 55.638932], [37.738318, 55.638953], [37.738275, 55.639125], [37.729714, 55.63949], [37.729456, 55.63964], [37.728319, 55.639361], [37.728255, 55.638395], [37.727632, 55.638352], [37.726838, 55.638116], [37.725594, 55.638159], [37.724864, 55.637966], [37.725208, 55.637237], [37.725637, 55.637108], [37.725787, 55.636979], [37.72568, 55.636443], [37.725594, 55.636335], [37.725615, 55.635949], [37.72553, 55.635477], [37.727182, 55.635413], [37.727311, 55.634747], [37.72804, 55.634061], [37.72834, 55.633374], [37.728577, 55.63316], [37.729177, 55.632838], [37.729456, 55.632602], [37.729843, 55.631979], [37.729993, 55.631958], [37.729757, 55.631186], [37.729006, 55.63052], [37.728104, 55.629812], [37.727032, 55.629555], [37.725873, 55.629683], [37.725165, 55.629576], [37.724349, 55.629319], [37.723727, 55.629297], [37.723727, 55.629383], [37.72244, 55.629662], [37.718599, 55.630027], [37.71714, 55.630456], [37.716389, 55.630198], [37.715874, 55.629834], [37.715058, 55.629641], [37.714522, 55.629276], [37.713814, 55.629147], [37.713299, 55.628804], [37.71229, 55.628568], [37.711925, 55.628568], [37.711625, 55.628632], [37.711303, 55.62889], [37.710574, 55.629233], [37.707527, 55.62949], [37.706582, 55.629061], [37.706389, 55.62889], [37.706025, 55.628718], [37.705166, 55.62846], [37.704952, 55.628289], [37.704072, 55.628375], [37.702849, 55.628611], [37.700467, 55.628289], [37.699501, 55.628375], [37.698235, 55.628224], [37.696712, 55.628375], [37.695896, 55.628353], [37.695575, 55.628224], [37.694909, 55.627388], [37.693086, 55.626808], [37.692377, 55.62713], [37.692227, 55.627602], [37.691948, 55.627624], [37.691626, 55.626722], [37.690918, 55.6264], [37.690167, 55.626272], [37.688815, 55.626572], [37.688537, 55.626551], [37.686906, 55.626164], [37.686241, 55.626164], [37.685039, 55.625714], [37.68461, 55.625263], [37.68476, 55.624963], [37.685575, 55.624705], [37.685253, 55.624341], [37.684867, 55.624169], [37.685511, 55.624126], [37.685983, 55.623933], [37.685919, 55.623868], [37.685447, 55.623804], [37.685082, 55.623654], [37.68461, 55.623589], [37.682979, 55.623075], [37.682443, 55.622989], [37.68137, 55.622731], [37.680919, 55.62198], [37.681262, 55.621744], [37.681799, 55.621637], [37.681928, 55.621658], [37.682206, 55.621465], [37.682721, 55.621444], [37.683322, 55.621208], [37.684631, 55.621165], [37.68461, 55.6211], [37.686133, 55.620371], [37.686155, 55.620113], [37.686219, 55.619963], [37.686005, 55.619791], [37.686155, 55.619706], [37.685447, 55.619448], [37.683194, 55.618418], [37.682743, 55.618311], [37.681455, 55.618311], [37.680704, 55.618397], [37.680683, 55.61683], [37.680812, 55.616659], [37.68079, 55.616272], [37.680361, 55.616315], [37.680061, 55.616294], [37.679717, 55.615843], [37.679717, 55.615586], [37.679481, 55.615371], [37.678838, 55.615178], [37.678752, 55.614942], [37.679202, 55.614513], [37.679396, 55.614084], [37.679396, 55.613397], [37.679589, 55.612989], [37.679803, 55.612775], [37.680704, 55.612195], [37.680898, 55.611938], [37.681005, 55.610801], [37.681091, 55.610543], [37.681219, 55.610393], [37.682271, 55.610114], [37.683945, 55.609299], [37.684202, 55.609234], [37.685189, 55.609385], [37.685318, 55.609342], [37.685447, 55.609191], [37.685618, 55.608505], [37.686241, 55.608204], [37.687657, 55.608204], [37.689159, 55.60814], [37.690339, 55.608333], [37.691369, 55.608226], [37.69197, 55.608033], [37.692163, 55.607882], [37.692356, 55.607861], [37.693214, 55.607904], [37.693236, 55.607818], [37.693043, 55.607561], [37.692656, 55.607303], [37.692549, 55.607131], [37.692613, 55.606938], [37.693128, 55.606338], [37.693686, 55.606144], [37.693772, 55.606037], [37.694051, 55.605887], [37.694352, 55.605865], [37.694566, 55.60578], [37.694759, 55.60578], [37.695188, 55.605372], [37.696025, 55.60475], [37.69654, 55.604557], [37.697055, 55.604042], [37.697184, 55.603548], [37.697441, 55.603012], [37.697849, 55.602797], [37.699051, 55.602561], [37.699888, 55.602604], [37.700617, 55.60254], [37.700553, 55.602368], [37.700338, 55.602218], [37.69948, 55.601853], [37.699437, 55.601531], [37.699845, 55.601016], [37.701218, 55.5999], [37.701411, 55.599557], [37.70199, 55.599321], [37.702248, 55.599171], [37.701776, 55.598613], [37.705467, 55.597604], [37.706625, 55.597604], [37.70772, 55.597368], [37.70875, 55.596832], [37.709093, 55.596424], [37.707827, 55.595308], [37.704823, 55.594321], [37.70345, 55.593785], [37.70184, 55.593356], [37.701218, 55.592969], [37.70051, 55.592347], [37.699523, 55.590588], [37.69918, 55.590287], [37.698493, 55.590008], [37.698171, 55.589665], [37.697956, 55.589579], [37.69669, 55.588635], [37.69654, 55.587991], [37.696626, 55.587605], [37.69639, 55.587369], [37.696304, 55.58709], [37.696004, 55.586983], [37.69227, 55.587133], [37.686863, 55.587412], [37.686841, 55.587626], [37.686627, 55.587734], [37.686241, 55.587841], [37.685189, 55.587862], [37.684545, 55.588099], [37.68373, 55.58827], [37.682979, 55.588721], [37.682485, 55.588807], [37.681713, 55.589214], [37.681498, 55.589515], [37.68064, 55.589879], [37.680447, 55.590673], [37.680232, 55.590995], [37.680125, 55.591231], [37.679953, 55.59224], [37.679589, 55.592776], [37.68034, 55.592926], [37.680383, 55.592991], [37.680232, 55.593163], [37.680104, 55.593184], [37.681026, 55.59327], [37.681455, 55.59342], [37.682721, 55.59372], [37.683086, 55.59372], [37.683279, 55.593871], [37.683279, 55.594192], [37.682164, 55.595051], [37.679696, 55.595051], [37.67961, 55.59681], [37.679438, 55.596918], [37.677872, 55.596896], [37.677894, 55.596746], [37.677593, 55.596617], [37.677164, 55.596896], [37.677185, 55.598591], [37.674975, 55.598613], [37.674975, 55.597239], [37.675125, 55.597046], [37.675061, 55.596875], [37.672787, 55.596832], [37.672829, 55.596252], [37.672722, 55.596145], [37.672572, 55.596124], [37.672486, 55.596403], [37.671714, 55.59636], [37.671413, 55.59621], [37.665491, 55.595716], [37.664225, 55.596081], [37.662551, 55.595973], [37.662058, 55.595587], [37.66165, 55.595416], [37.657101, 55.594836], [37.657165, 55.59445], [37.65708, 55.594407], [37.657101, 55.59415], [37.65665, 55.59372], [37.656908, 55.593313], [37.653153, 55.592583], [37.646479, 55.590974], [37.64605, 55.590738], [37.645986, 55.590867], [37.644226, 55.590566], [37.644119, 55.590652], [37.643561, 55.590588], [37.643432, 55.590888], [37.642188, 55.590738], [37.641995, 55.591274], [37.640943, 55.59121], [37.640579, 55.592004], [37.640171, 55.592004], [37.639913, 55.592991], [37.639227, 55.593077], [37.63839, 55.594364], [37.638368, 55.594858], [37.637832, 55.595265], [37.63736, 55.595695], [37.637553, 55.595931], [37.637768, 55.596016], [37.637982, 55.596446], [37.638111, 55.596982], [37.638047, 55.597368], [37.638326, 55.597647], [37.638497, 55.600029], [37.638733, 55.600716], [37.638883, 55.601316], [37.638733, 55.60166], [37.637403, 55.601767], [37.637296, 55.602067], [37.636909, 55.602067], [37.636781, 55.602497], [37.636587, 55.602776], [37.636309, 55.603012], [37.633111, 55.604084], [37.63294, 55.603913], [37.632832, 55.603913], [37.631931, 55.603076], [37.631652, 55.603183], [37.630901, 55.602561], [37.628219, 55.601166], [37.62779, 55.601467], [37.627318, 55.601638], [37.626545, 55.60254], [37.626331, 55.602604], [37.62588, 55.603312], [37.624872, 55.603248], [37.624357, 55.603398], [37.624163, 55.603248], [37.623885, 55.603248], [37.623412, 55.603441], [37.623026, 55.603484], [37.622897, 55.603076], [37.622468, 55.60314], [37.622361, 55.603054], [37.622254, 55.603033], [37.622468, 55.603548], [37.621567, 55.603655], [37.619786, 55.603569], [37.619357, 55.603591], [37.617447, 55.603419], [37.616632, 55.603269], [37.61204, 55.60402], [37.61116, 55.603891], [37.611632, 55.604621], [37.60865, 55.605093], [37.608006, 55.606273], [37.608306, 55.606938], [37.608135, 55.60696], [37.608027, 55.606788], [37.606718, 55.606981], [37.606547, 55.606681], [37.606289, 55.606531], [37.606246, 55.60638], [37.605903, 55.606466], [37.604186, 55.606702], [37.604015, 55.606445], [37.601869, 55.606788], [37.601676, 55.607003], [37.601311, 55.607067], [37.600796, 55.606123], [37.600195, 55.606166], [37.599766, 55.606016], [37.598371, 55.60578], [37.59717, 55.605823], [37.59629, 55.605629], [37.594874, 55.605715], [37.5935, 55.605651], [37.592599, 55.605672], [37.591677, 55.605887], [37.59084, 55.606295], [37.590647, 55.606338], [37.590003, 55.60638], [37.589917, 55.606316], [37.58805, 55.606531], [37.5879, 55.606402], [37.587621, 55.60638], [37.587449, 55.606295], [37.587449, 55.606101], [37.587514, 55.605844], [37.587149, 55.605844], [37.585926, 55.605565], [37.585647, 55.605629], [37.585497, 55.605758], [37.585153, 55.605844], [37.584081, 55.605522], [37.581591, 55.604621], [37.580733, 55.604471], [37.579918, 55.604492], [37.577922, 55.604814], [37.577171, 55.604878], [37.57657, 55.605114], [37.575047, 55.605587], [37.574124, 55.605587], [37.573309, 55.605823], [37.57288, 55.605994], [37.571914, 55.606016], [37.571227, 55.606831], [37.56964, 55.607282], [37.569275, 55.607432], [37.568931, 55.607475], [37.569296, 55.607925], [37.569253, 55.608569], [37.569318, 55.608762], [37.569468, 55.608805], [37.570262, 55.60947], [37.566142, 55.61417], [37.56612, 55.614298], [37.565906, 55.614406], [37.565048, 55.614706], [37.564854, 55.615114], [37.564189, 55.615393], [37.561078, 55.615929], [37.559168, 55.616337], [37.557731, 55.617023], [37.556851, 55.617667], [37.556679, 55.617925], [37.55713, 55.618933], [37.557301, 55.62007], [37.556915, 55.620907], [37.55595, 55.622002], [37.55522, 55.622602], [37.554619, 55.622946], [37.552924, 55.623396], [37.552667, 55.623675], [37.55183, 55.624083], [37.551401, 55.624147], [37.549062, 55.624276], [37.54874, 55.624491], [37.547881, 55.624512], [37.547431, 55.624619], [37.546851, 55.624855], [37.54565, 55.626079], [37.543096, 55.626164], [37.542388, 55.6261], [37.542302, 55.626379], [37.541466, 55.627924], [37.541144, 55.62816], [37.540886, 55.628267], [37.540264, 55.628224], [37.540221, 55.628096], [37.539899, 55.627924], [37.539749, 55.627559], [37.538311, 55.626529], [37.53756, 55.6264], [37.536337, 55.625971], [37.534814, 55.625821], [37.53432, 55.625499], [37.533805, 55.625456], [37.533612, 55.625478], [37.533376, 55.62537], [37.533011, 55.625306], [37.532604, 55.625156], [37.532582, 55.624426], [37.530866, 55.624019], [37.528913, 55.623396], [37.528162, 55.623332], [37.527754, 55.623332], [37.526553, 55.623611], [37.525608, 55.623482], [37.522583, 55.62419], [37.521489, 55.624362], [37.519536, 55.624813], [37.5193, 55.624984], [37.518592, 55.625199], [37.516274, 55.62537], [37.514601, 55.625585], [37.513678, 55.625735], [37.513335, 55.62595], [37.51091, 55.623654], [37.505073, 55.618762], [37.505717, 55.619405], [37.504322, 55.620006], [37.50488, 55.620864], [37.504494, 55.620972], [37.503893, 55.621401], [37.501404, 55.622388], [37.500567, 55.622323], [37.499065, 55.622538], [37.498593, 55.622817], [37.498379, 55.62301], [37.498078, 55.623139], [37.497091, 55.62374], [37.496834, 55.623783], [37.496404, 55.624126], [37.493765, 55.625049], [37.4934, 55.625285], [37.493293, 55.625521], [37.493057, 55.625821], [37.492628, 55.626014], [37.492478, 55.627173], [37.491619, 55.627495], [37.491233, 55.627559], [37.490933, 55.627774], [37.49104, 55.628053], [37.491062, 55.628975], [37.491233, 55.629748], [37.491662, 55.630284], [37.492113, 55.630692], [37.491984, 55.630778], [37.492199, 55.630971], [37.49222, 55.631336], [37.492521, 55.632473], [37.492671, 55.632838], [37.493765, 55.634404], [37.493937, 55.634383], [37.49428, 55.634576], [37.493937, 55.634812], [37.494023, 55.635134], [37.494151, 55.635305], [37.494151, 55.636207], [37.494366, 55.636765], [37.494516, 55.636915], [37.494967, 55.637001], [37.495739, 55.63685], [37.495482, 55.637151], [37.495653, 55.637237], [37.495825, 55.637623], [37.495396, 55.63773], [37.494967, 55.637923], [37.493014, 55.637902], [37.492606, 55.638073], [37.492456, 55.638481], [37.492177, 55.63876], [37.491877, 55.638953], [37.491469, 55.639404], [37.490504, 55.639082], [37.489602, 55.638889], [37.489259, 55.638631], [37.488186, 55.638288], [37.487435, 55.637923], [37.487221, 55.637859], [37.486834, 55.637945], [37.486598, 55.637923], [37.485719, 55.638181], [37.485332, 55.638052], [37.484238, 55.637902], [37.483423, 55.637945], [37.4828, 55.638052], [37.481963, 55.638095], [37.480783, 55.637923], [37.480182, 55.637752], [37.47956, 55.63773], [37.479238, 55.637988], [37.479002, 55.638052], [37.478895, 55.638224], [37.478809, 55.638545], [37.478423, 55.638846], [37.477157, 55.639103], [37.474797, 55.639339], [37.473874, 55.63964], [37.47323, 55.639704], [37.472694, 55.639833], [37.471385, 55.639962], [37.470569, 55.640198], [37.470291, 55.640369], [37.469325, 55.641378], [37.469947, 55.641657], [37.470891, 55.641871], [37.471363, 55.642022], [37.471578, 55.642215], [37.471814, 55.642279], [37.471685, 55.642537], [37.470205, 55.64288], [37.469797, 55.643223], [37.47175, 55.64406], [37.472265, 55.644232], [37.472629, 55.644468], [37.471428, 55.645305], [37.472372, 55.645755], [37.470934, 55.64524], [37.469926, 55.64582], [37.469582, 55.645841], [37.46911, 55.646056], [37.468552, 55.646034], [37.468166, 55.645584], [37.467737, 55.645691], [37.467952, 55.646013], [37.467801, 55.646013], [37.465463, 55.645412], [37.463724, 55.64524], [37.463188, 55.64509], [37.460806, 55.645176], [37.459476, 55.645476], [37.455764, 55.646764], [37.457158, 55.648952], [37.458789, 55.650455], [37.458575, 55.650669], [37.457759, 55.651012], [37.457652, 55.651206], [37.45806, 55.652879], [37.458188, 55.653952], [37.458832, 55.654059], [37.459304, 55.654295], [37.45969, 55.654188], [37.459669, 55.653974], [37.460227, 55.65451], [37.460377, 55.655647], [37.460291, 55.656334], [37.460635, 55.656806], [37.461579, 55.657192], [37.462694, 55.657943], [37.463295, 55.658158], [37.463231, 55.658372], [37.463059, 55.658608], [37.463531, 55.658887], [37.462437, 55.659789], [37.462094, 55.659767], [37.461536, 55.659617], [37.460699, 55.660282], [37.46042, 55.660904], [37.460441, 55.661441], [37.460205, 55.661655], [37.459712, 55.661784], [37.459197, 55.662642], [37.460077, 55.662857], [37.459562, 55.662986], [37.459819, 55.663329], [37.459969, 55.663651], [37.460313, 55.663801], [37.460377, 55.664102], [37.459819, 55.664638], [37.459562, 55.665496], [37.459798, 55.665754], [37.459648, 55.665947], [37.459948, 55.666312], [37.460162, 55.66687], [37.460441, 55.66687], [37.460506, 55.66732], [37.460034, 55.667878], [37.459755, 55.667964], [37.45969, 55.6682], [37.459884, 55.668372], [37.459862, 55.668608], [37.459433, 55.669101], [37.45866, 55.669702], [37.457931, 55.670002], [37.457952, 55.670324], [37.45748, 55.670324], [37.456965, 55.670131], [37.456257, 55.67011], [37.455699, 55.670217], [37.455034, 55.670539], [37.455077, 55.670818], [37.455034, 55.671397], [37.45512, 55.671655], [37.455764, 55.671934], [37.455892, 55.672255], [37.458103, 55.673221], [37.457459, 55.67365], [37.456965, 55.673414], [37.456772, 55.673436], [37.456193, 55.673371], [37.455849, 55.673457], [37.455785, 55.673672], [37.456214, 55.674616], [37.456922, 55.675109], [37.457394, 55.675324], [37.457867, 55.675667], [37.458939, 55.676075], [37.459025, 55.676204], [37.459776, 55.676976], [37.45954, 55.67747], [37.459369, 55.678307], [37.458961, 55.678478], [37.458939, 55.678586], [37.45909, 55.67865], [37.459454, 55.67895], [37.459776, 55.679015], [37.460055, 55.679229], [37.460012, 55.679337], [37.460549, 55.679573], [37.460613, 55.679658], [37.460377, 55.67998], [37.460549, 55.680152], [37.460785, 55.680216], [37.460978, 55.680495], [37.460656, 55.680581], [37.460978, 55.68101], [37.460956, 55.681289], [37.46263, 55.68189], [37.462931, 55.682598], [37.463939, 55.681954], [37.464583, 55.681933], [37.464948, 55.681632], [37.466557, 55.680796], [37.467286, 55.680796], [37.46778, 55.68056], [37.468381, 55.680538], [37.468767, 55.680388], [37.46778, 55.679615], [37.469797, 55.6785], [37.470248, 55.678071], [37.472007, 55.678907], [37.4722, 55.679272], [37.472758, 55.679637], [37.472844, 55.680066], [37.473059, 55.680324], [37.473531, 55.680667], [37.474282, 55.680581], [37.474518, 55.680431], [37.47426, 55.67998], [37.47426, 55.679594], [37.474089, 55.679015], [37.474325, 55.678822], [37.474518, 55.678779], [37.475698, 55.678779], [37.476299, 55.678564], [37.475998, 55.678135], [37.477007, 55.677792], [37.477586, 55.677448], [37.478123, 55.676719], [37.478294, 55.676697], [37.479668, 55.677298], [37.479796, 55.677427], [37.479968, 55.678564], [37.479989, 55.679272], [37.480633, 55.679272], [37.480783, 55.679186], [37.481749, 55.679208], [37.482135, 55.679573], [37.482629, 55.67968], [37.483122, 55.678929], [37.485418, 55.679379], [37.486341, 55.679852], [37.487779, 55.680667], [37.487864, 55.681418], [37.489967, 55.682147], [37.490139, 55.682083], [37.49104, 55.682062], [37.491555, 55.682276], [37.492156, 55.682641], [37.492006, 55.683027], [37.492714, 55.683113], [37.492885, 55.683092], [37.49413, 55.683692], [37.495203, 55.683413], [37.496404, 55.683478], [37.497971, 55.683735], [37.500589, 55.683027], [37.502134, 55.682834], [37.501168, 55.682233], [37.502348, 55.681718], [37.502992, 55.681482], [37.503056, 55.68101], [37.503657, 55.680881], [37.503829, 55.681139], [37.503764, 55.681525], [37.504837, 55.683886], [37.503228, 55.684851], [37.504001, 55.686117], [37.504065, 55.686782], [37.504365, 55.687426], [37.504666, 55.687576], [37.504601, 55.687684], [37.504258, 55.687834], [37.504129, 55.688027], [37.503657, 55.68837], [37.504086, 55.688563], [37.504194, 55.688799], [37.502134, 55.690258], [37.502434, 55.690473], [37.503121, 55.690709], [37.504365, 55.690988], [37.504837, 55.691138], [37.505352, 55.691632], [37.505953, 55.691846], [37.50503, 55.692147], [37.504816, 55.692276], [37.508356, 55.694164], [37.514107, 55.697146], [37.514257, 55.697254], [37.514279, 55.697511], [37.514214, 55.697812], [37.514257, 55.69852], [37.51415, 55.698949], [37.514214, 55.699163], [37.514429, 55.699507], [37.514493, 55.699743], [37.514407, 55.699979], [37.514536, 55.700408], [37.514322, 55.701052], [37.516703, 55.702382], [37.516832, 55.702554], [37.517369, 55.70279], [37.517884, 55.702897], [37.518077, 55.702983], [37.521403, 55.701116], [37.529557, 55.705751], [37.52975, 55.705622], [37.53005, 55.705794], [37.531423, 55.705], [37.532239, 55.705408], [37.53344, 55.704742], [37.535844, 55.706008], [37.535329, 55.706266], [37.536402, 55.70691], [37.536101, 55.707038], [37.540457, 55.709463], [37.540715, 55.709334], [37.541315, 55.709721], [37.541294, 55.709914], [37.541101, 55.710085], [37.54123, 55.710128], [37.542732, 55.709678], [37.540994, 55.711566], [37.539019, 55.713004], [37.538762, 55.713669], [37.537968, 55.71472], [37.537732, 55.715471], [37.537968, 55.715922], [37.537861, 55.716866], [37.537839, 55.71751], [37.53874, 55.718389], [37.539234, 55.718454], [37.539513, 55.718819], [37.539341, 55.719913], [37.539599, 55.722574], [37.5405, 55.724441], [37.541723, 55.725964], [37.542839, 55.726994], [37.543182, 55.727209], [37.542817, 55.727895], [37.54168, 55.727874], [37.541466, 55.727702], [37.541294, 55.727488], [37.541058, 55.727595], [37.540994, 55.727766], [37.540521, 55.727831], [37.53917, 55.727573], [37.537925, 55.727209], [37.537882, 55.727123], [37.536208, 55.726479], [37.535693, 55.726779], [37.535908, 55.72693], [37.534942, 55.727702], [37.534492, 55.727938], [37.533741, 55.727917], [37.533741, 55.728024], [37.534599, 55.728131], [37.534921, 55.728861], [37.535179, 55.729011], [37.535157, 55.72929], [37.53505, 55.72944], [37.534256, 55.729569], [37.533805, 55.72959], [37.53314, 55.729376], [37.530973, 55.729161], [37.530393, 55.729247], [37.530522, 55.72959], [37.530243, 55.73002], [37.530286, 55.730513], [37.530243, 55.730792], [37.530093, 55.730942], [37.529385, 55.731135], [37.528462, 55.7312], [37.527025, 55.730878], [37.525587, 55.730427], [37.525329, 55.730256], [37.525029, 55.730234], [37.520072, 55.72899], [37.518978, 55.728389], [37.518484, 55.728067], [37.518334, 55.727724], [37.518656, 55.726715], [37.518678, 55.726157], [37.518742, 55.725749], [37.518892, 55.72517], [37.51872, 55.72502], [37.51709, 55.723968], [37.516296, 55.72384], [37.516188, 55.723775], [37.516253, 55.723561], [37.516167, 55.723411], [37.514, 55.723947], [37.513571, 55.723947], [37.512927, 55.723861], [37.512004, 55.723518], [37.511189, 55.72311], [37.509987, 55.722874], [37.509301, 55.722939], [37.508421, 55.72281], [37.506575, 55.722424], [37.506425, 55.72208], [37.50694, 55.721565], [37.506618, 55.720793], [37.507477, 55.720128], [37.506103, 55.720299], [37.505352, 55.720192], [37.504794, 55.719698], [37.504408, 55.718797], [37.504537, 55.718261], [37.503893, 55.718389], [37.502069, 55.719205], [37.501061, 55.72017], [37.500245, 55.721222], [37.499173, 55.722359], [37.498228, 55.723518], [37.498357, 55.723647], [37.497477, 55.724848], [37.496362, 55.725685], [37.497027, 55.726307], [37.496018, 55.727423], [37.50267, 55.729955], [37.504172, 55.728646], [37.505481, 55.730062], [37.50694, 55.730363], [37.507884, 55.730513], [37.508936, 55.730878], [37.509515, 55.731629], [37.509258, 55.73253], [37.507756, 55.733024], [37.506339, 55.733045], [37.505524, 55.73444], [37.505181, 55.734461], [37.504859, 55.734697], [37.504065, 55.734569], [37.503421, 55.735298], [37.502863, 55.735191], [37.501962, 55.735877], [37.497113, 55.734569], [37.496984, 55.734697], [37.497177, 55.734912], [37.496662, 55.73547], [37.494709, 55.73489], [37.494581, 55.735062], [37.49413, 55.734976], [37.489474, 55.740319], [37.488401, 55.741456], [37.488165, 55.741414], [37.485096, 55.744418], [37.48544, 55.744525], [37.485354, 55.744632], [37.485311, 55.74489], [37.487221, 55.746649], [37.488208, 55.747057], [37.488594, 55.747379], [37.487564, 55.747937], [37.486448, 55.748645], [37.486062, 55.748623], [37.485633, 55.748709], [37.485568, 55.749053], [37.484281, 55.75004], [37.484152, 55.750555], [37.478273, 55.750447], [37.478144, 55.750061], [37.478123, 55.749374], [37.47735, 55.748452], [37.477307, 55.748194], [37.476256, 55.746778], [37.475419, 55.746006], [37.474904, 55.745855], [37.474389, 55.745812], [37.474131, 55.745834], [37.473788, 55.745426], [37.472973, 55.744697], [37.469625, 55.743495], [37.467801, 55.74268], [37.466042, 55.74225], [37.465634, 55.741564], [37.463059, 55.74077], [37.462566, 55.740448], [37.460892, 55.739954], [37.46027, 55.739826], [37.457566, 55.739697], [37.457223, 55.739504], [37.456922, 55.73959], [37.456558, 55.739633], [37.455292, 55.740062], [37.452009, 55.740019], [37.450335, 55.740169], [37.447674, 55.741006], [37.446494, 55.74107], [37.4454, 55.741435], [37.445056, 55.741349], [37.444692, 55.741456], [37.444177, 55.741821], [37.44128, 55.74328], [37.438791, 55.744825], [37.438469, 55.744847], [37.438319, 55.744954], [37.438319, 55.74504], [37.436688, 55.746027], [37.435486, 55.746799], [37.434928, 55.747572], [37.435465, 55.749117], [37.435829, 55.749632], [37.43761, 55.750597], [37.439241, 55.751327], [37.4407, 55.751756], [37.443554, 55.752443], [37.444327, 55.7527], [37.4454, 55.753151], [37.448447, 55.753838], [37.452953, 55.754739], [37.455914, 55.755983], [37.458167, 55.757335], [37.460077, 55.758837], [37.462072, 55.760747], [37.461965, 55.761133], [37.4613, 55.761219], [37.460871, 55.761198], [37.46042, 55.761283], [37.460162, 55.761434], [37.459926, 55.762013], [37.459562, 55.762549], [37.459347, 55.763322], [37.459175, 55.764159], [37.458918, 55.764545], [37.457287, 55.765854], [37.45512, 55.767227], [37.454133, 55.768386], [37.453253, 55.769738], [37.452459, 55.770703], [37.451386, 55.771519], [37.450077, 55.772871], [37.449584, 55.773214], [37.446601, 55.774051], [37.442117, 55.774458], [37.44128, 55.773772], [37.440529, 55.7736], [37.439713, 55.773622], [37.438919, 55.77375], [37.438319, 55.773622], [37.437954, 55.773922], [37.436623, 55.773514], [37.434993, 55.773214], [37.433941, 55.773107], [37.430765, 55.773085], [37.430165, 55.773192], [37.427525, 55.77345], [37.425423, 55.773493], [37.424779, 55.773343], [37.424285, 55.773149], [37.42377, 55.773085], [37.423234, 55.773214], [37.422719, 55.773278], [37.422225, 55.773493], [37.420487, 55.773557], [37.419522, 55.77345], [37.419157, 55.773536], [37.418234, 55.773879], [37.417204, 55.773858], [37.415595, 55.774072], [37.41538, 55.773815], [37.415016, 55.773514], [37.414436, 55.7733], [37.413256, 55.773364], [37.412526, 55.773343], [37.411647, 55.773107], [37.411196, 55.77257], [37.410574, 55.772398], [37.409501, 55.772356], [37.408492, 55.772205], [37.407892, 55.771862], [37.404995, 55.771733], [37.404651, 55.77169], [37.404673, 55.771476], [37.401798, 55.771347], [37.399888, 55.771175], [37.400038, 55.770854], [37.399995, 55.770725], [37.399266, 55.770532], [37.399137, 55.77036], [37.39963, 55.769609], [37.39933, 55.769373], [37.399309, 55.769094], [37.399223, 55.769051], [37.399351, 55.768794], [37.399266, 55.768665], [37.399373, 55.7686], [37.399738, 55.768643], [37.40021, 55.768643], [37.400918, 55.767463], [37.400596, 55.767313], [37.40021, 55.767292], [37.400017, 55.767141], [37.399587, 55.766948], [37.396498, 55.767141], [37.39491, 55.767528], [37.394202, 55.767914], [37.393901, 55.767978], [37.39373, 55.768085], [37.393172, 55.7683], [37.392034, 55.768901], [37.391713, 55.768965], [37.391455, 55.769094], [37.391305, 55.769244], [37.391219, 55.77066], [37.39109, 55.770789], [37.390275, 55.771197], [37.389867, 55.771883], [37.389009, 55.77257], [37.387485, 55.773514], [37.387206, 55.773793], [37.387249, 55.774394], [37.387206, 55.776711], [37.387335, 55.776969], [37.391004, 55.777269], [37.392957, 55.778857], [37.392721, 55.778943], [37.393815, 55.779887], [37.394759, 55.780102], [37.395339, 55.780745], [37.39727, 55.78332], [37.399158, 55.784672], [37.39948, 55.784801], [37.401132, 55.784179], [37.40257, 55.7839], [37.403922, 55.784286], [37.406432, 55.787054], [37.407591, 55.788685], [37.408643, 55.79141], [37.409158, 55.792032], [37.409243, 55.792547], [37.409587, 55.792719], [37.410209, 55.793491], [37.410745, 55.793749], [37.411668, 55.793942], [37.412076, 55.793835], [37.412419, 55.793642], [37.412805, 55.793341], [37.414157, 55.793363], [37.415874, 55.793234], [37.416475, 55.793019], [37.41817, 55.792569], [37.417955, 55.792891], [37.418191, 55.793234], [37.417762, 55.793749], [37.417848, 55.793963], [37.41817, 55.793985], [37.419951, 55.793835], [37.420573, 55.793556], [37.421303, 55.793491], [37.422869, 55.792848], [37.423813, 55.792697], [37.424671, 55.79274], [37.424736, 55.792955], [37.423963, 55.792891], [37.412827, 55.797032], [37.41302, 55.797568], [37.416024, 55.799993], [37.417097, 55.800615], [37.418256, 55.801602], [37.418856, 55.801817], [37.423534, 55.802954], [37.425616, 55.80319], [37.426324, 55.803426], [37.428899, 55.803576], [37.431474, 55.803984], [37.432375, 55.803963], [37.433555, 55.804285], [37.435744, 55.804606], [37.437332, 55.804606], [37.438791, 55.804285], [37.439349, 55.804242], [37.440014, 55.804242], [37.440464, 55.804306], [37.440679, 55.804413], [37.443855, 55.804521], [37.443898, 55.804993], [37.443812, 55.8051], [37.449992, 55.805272], [37.449927, 55.805143], [37.449477, 55.805057], [37.449348, 55.805164], [37.449326, 55.805572], [37.449412, 55.805701], [37.44967, 55.805787], [37.451086, 55.805808], [37.451022, 55.806023], [37.451086, 55.806344], [37.451408, 55.806881], [37.451429, 55.80804], [37.451837, 55.808426], [37.451944, 55.808984], [37.452245, 55.80952], [37.449777, 55.809456], [37.447889, 55.809585], [37.448511, 55.811923], [37.449004, 55.812117], [37.449348, 55.812546], [37.449412, 55.812932], [37.449305, 55.813254], [37.449348, 55.813511], [37.44982, 55.813619], [37.450056, 55.813597], [37.450399, 55.81349], [37.451043, 55.814391], [37.451129, 55.814584], [37.451129, 55.814885], [37.451794, 55.816043], [37.452996, 55.817739], [37.453554, 55.817996], [37.453897, 55.818318], [37.453832, 55.818468], [37.45321, 55.81864], [37.453596, 55.819112], [37.458296, 55.825613], [37.458939, 55.826429], [37.459283, 55.826622], [37.459798, 55.827008], [37.460162, 55.826729], [37.461021, 55.825957], [37.461922, 55.825077], [37.462265, 55.82497], [37.462823, 55.824991], [37.465141, 55.825292], [37.465999, 55.825978], [37.467351, 55.826429], [37.468273, 55.827116], [37.468552, 55.826922], [37.469025, 55.826987], [37.469818, 55.826901], [37.47072, 55.826879], [37.471106, 55.82703], [37.471557, 55.826901], [37.471621, 55.826815], [37.472071, 55.826858], [37.472157, 55.826815], [37.472501, 55.826837], [37.472544, 55.826665], [37.472501, 55.826622], [37.473488, 55.824712], [37.473595, 55.823811], [37.473574, 55.821365], [37.473852, 55.820828], [37.474239, 55.819562], [37.473702, 55.818575], [37.473445, 55.818275], [37.473874, 55.81776], [37.474217, 55.815979], [37.473938, 55.81555], [37.474067, 55.815035], [37.475183, 55.815121], [37.476041, 55.814949], [37.476942, 55.815507], [37.477307, 55.815936], [37.477243, 55.816129], [37.478316, 55.816816], [37.478402, 55.817567], [37.479153, 55.817803], [37.48044, 55.818039], [37.480612, 55.818382], [37.481084, 55.818833], [37.482307, 55.819305], [37.48177, 55.819841], [37.481749, 55.820271], [37.4822, 55.820442], [37.482672, 55.820442], [37.483551, 55.820528], [37.48456, 55.820571], [37.484968, 55.820549], [37.485289, 55.820378], [37.485912, 55.820828], [37.487049, 55.821923], [37.487864, 55.82336], [37.487693, 55.82439], [37.487993, 55.824734], [37.485783, 55.825206], [37.48471, 55.825592], [37.483165, 55.825957], [37.482843, 55.826579], [37.482822, 55.826944], [37.482586, 55.827416], [37.4825, 55.829004], [37.483787, 55.830291], [37.483938, 55.831429], [37.486663, 55.832094], [37.486641, 55.832201], [37.487285, 55.832351], [37.486985, 55.83278], [37.496791, 55.835076], [37.49707, 55.835398], [37.498679, 55.835784], [37.498722, 55.835827], [37.501254, 55.836407], [37.501855, 55.836493], [37.504515, 55.83705], [37.504494, 55.837308], [37.504902, 55.837286], [37.505202, 55.837458], [37.505481, 55.837737], [37.506361, 55.83763], [37.507391, 55.83763], [37.508378, 55.837823], [37.508914, 55.837759], [37.509215, 55.837801], [37.509451, 55.837995], [37.509451, 55.838188], [37.508807, 55.83881], [37.508936, 55.839046], [37.509322, 55.839239], [37.51091, 55.840333], [37.509773, 55.840677], [37.51076, 55.841492], [37.511446, 55.841835], [37.513163, 55.842286], [37.514129, 55.84293], [37.514129, 55.843338], [37.513978, 55.843552], [37.513656, 55.843745], [37.512326, 55.843853], [37.510459, 55.845076], [37.510373, 55.845269], [37.51106, 55.846148], [37.511382, 55.846363], [37.511725, 55.846535], [37.512562, 55.846685], [37.513399, 55.846706], [37.514322, 55.84647], [37.515459, 55.845805], [37.515695, 55.845076], [37.516167, 55.844174], [37.516403, 55.843917], [37.517261, 55.843552], [37.517068, 55.843166], [37.51724, 55.842994], [37.517605, 55.842908], [37.518077, 55.842951], [37.520501, 55.842393], [37.520308, 55.842072], [37.519922, 55.841599], [37.519493, 55.841578], [37.519386, 55.841514], [37.518506, 55.841299], [37.518592, 55.841192], [37.518763, 55.841235], [37.518914, 55.841084], [37.519815, 55.841106], [37.520652, 55.840977], [37.522626, 55.839711], [37.52254, 55.839432], [37.52224, 55.839368], [37.522111, 55.839282], [37.521918, 55.838939], [37.521939, 55.838788], [37.522111, 55.838595], [37.52239, 55.83851], [37.522261, 55.838467], [37.522433, 55.838338], [37.521403, 55.836364], [37.52063, 55.83469], [37.520652, 55.834604], [37.520566, 55.834497], [37.520587, 55.834368], [37.520952, 55.834347], [37.523248, 55.83351], [37.523119, 55.833424], [37.523227, 55.833381], [37.522089, 55.832373], [37.52608, 55.831579], [37.526789, 55.831407], [37.52711, 55.831214], [37.528462, 55.83072], [37.529042, 55.830635], [37.528806, 55.83027], [37.530393, 55.82969], [37.530501, 55.829755], [37.530651, 55.830077], [37.530629, 55.829948], [37.531423, 55.829884], [37.531831, 55.82969], [37.532153, 55.829712], [37.532282, 55.829497], [37.533011, 55.829648], [37.532775, 55.830677], [37.534857, 55.831085], [37.536359, 55.83145], [37.536788, 55.831493], [37.537131, 55.831278], [37.537131, 55.830892], [37.53696, 55.830635], [37.535908, 55.829905], [37.534964, 55.827244], [37.535179, 55.826922], [37.535543, 55.826815], [37.536788, 55.826665], [37.537024, 55.826536], [37.538526, 55.824905], [37.539835, 55.824197], [37.540586, 55.824069], [37.540822, 55.824176], [37.541079, 55.82409], [37.541916, 55.824154], [37.543933, 55.824691], [37.543762, 55.824884], [37.543011, 55.825356], [37.545435, 55.826601], [37.552624, 55.830034], [37.550478, 55.832888], [37.550628, 55.832909], [37.550499, 55.833081], [37.550864, 55.833124], [37.550907, 55.83321], [37.56891, 55.836879], [37.56964, 55.83572], [37.569854, 55.835699], [37.570476, 55.834712], [37.571657, 55.834926], [37.571742, 55.834754], [37.571936, 55.834754], [37.572086, 55.834561], [37.572815, 55.834733], [37.573738, 55.835441], [37.575068, 55.836085], [37.574832, 55.836364], [37.576399, 55.837501], [37.575712, 55.837801], [37.577858, 55.83896], [37.577686, 55.839003], [37.577965, 55.839411], [37.579574, 55.840205], [37.579896, 55.840505], [37.581527, 55.841299], [37.581613, 55.841256], [37.581763, 55.84087], [37.582171, 55.840655], [37.582643, 55.840934], [37.583179, 55.840591], [37.584123, 55.841063], [37.584381, 55.841321], [37.585003, 55.841707], [37.58569, 55.842072], [37.586441, 55.842436], [37.587128, 55.842672], [37.587213, 55.842715]]}}]}