{"type": "FeatureCollection", "features": [{"type": "Feature", "properties": {"name": "Балашиха 01", "source": "/gps/velo/balashiha.01.gpx", "points": 748}, "geometry": {"type": "LineString", "coordinates": [[37.948213, 55.809652], [37.948144, 55.809602], [37.947594, 55.80929], [37.947282, 55.809347], [37.947326, 55.809445], [37.947349, 55.80954], [37.947426, 55.809859], [37.947453, 55.810008], [37.947627, 55.81069], [37.947658, 55.810864], [37.947709, 55.811145], [37.947769, 55.811474], [37.947989, 55.812558], [37.948045, 55.812846], [37.948135, 55.81328], [37.948207, 55.813629], [37.948235, 55.813764], [37.948271, 55.813936], [37.948434, 55.814724], [37.948471, 55.814901], [37.948712, 55.816044], [37.949047, 55.817624], [37.949053, 55.817653], [37.949264, 55.818661], [37.949507, 55.820215], [37.949542, 55.820472], [37.949103, 55.820519], [37.948318, 55.820602], [37.944868, 55.820992], [37.944682, 55.821013], [37.943164, 55.821171], [37.939779, 55.821549], [37.936398, 55.821931], [37.934528, 55.822142], [37.933881, 55.822214], [37.933609, 55.822245], [37.931707, 55.822463], [37.930756, 55.82257], [37.93039, 55.822611], [37.929901, 55.822664], [37.929447, 55.822708], [37.929108, 55.822744], [37.928714, 55.822775], [37.926792, 55.822988], [37.925384, 55.82313], [37.924872, 55.823181], [37.923748, 55.823295], [37.922718, 55.823398], [37.921642, 55.823501], [37.921182, 55.823627], [37.920817, 55.823813], [37.918843, 55.825106], [37.918525, 55.825312], [37.917481, 55.825989], [37.917206, 55.826139], [37.917023, 55.826197], [37.916768, 55.82623], [37.913262, 55.826343], [37.91238, 55.826371], [37.908404, 55.826494], [37.908351, 55.826496], [37.90605, 55.82659], [37.900302, 55.82682], [37.899517, 55.826852], [37.898843, 55.826879], [37.898663, 55.826886], [37.898404, 55.826899], [37.898239, 55.826873], [37.897458, 55.826741], [37.891461, 55.825804], [37.891389, 55.825795], [37.89086, 55.825713], [37.888187, 55.825288], [37.884985, 55.824765], [37.885331, 55.825221], [37.885726, 55.826559], [37.885637, 55.826659], [37.885474, 55.826709], [37.885374, 55.82674], [37.885069, 55.8268], [37.884601, 55.826979], [37.884268, 55.827054], [37.883724, 55.827075], [37.880223, 55.83272], [37.879765, 55.833546], [37.879933, 55.836048], [37.879946, 55.836228], [37.87996, 55.83643], [37.880052, 55.837724], [37.880314, 55.843952], [37.880687, 55.850224], [37.880986, 55.856761], [37.881153, 55.859556], [37.881264, 55.860576], [37.881366, 55.860934], [37.881602, 55.861395], [37.882078, 55.861969], [37.882743, 55.86256], [37.884602, 55.864053], [37.894413, 55.871438], [37.904799, 55.879262], [37.90497, 55.879186], [37.905221, 55.879233], [37.907039, 55.879572], [37.909133, 55.879788], [37.909851, 55.879976], [37.911437, 55.880175], [37.912857, 55.880238], [37.913342, 55.880313], [37.913939, 55.88028], [37.914825, 55.8803], [37.915069, 55.880746], [37.915292, 55.880956], [37.915494, 55.881331], [37.915637, 55.881482], [37.915852, 55.881617], [37.915885, 55.881674], [37.916452, 55.882012], [37.916773, 55.882109], [37.916496, 55.883474], [37.916243, 55.883643], [37.916058, 55.883702], [37.914951, 55.883716], [37.914081, 55.88381], [37.913687, 55.883915], [37.913379, 55.884047], [37.91306, 55.884273], [37.912381, 55.884589], [37.911732, 55.88495], [37.911509, 55.885432], [37.911332, 55.88554], [37.910865, 55.885671], [37.910672, 55.885752], [37.910522, 55.88605], [37.909814, 55.886453], [37.909154, 55.886748], [37.908642, 55.886838], [37.908187, 55.887008], [37.908141, 55.887159], [37.907931, 55.887168], [37.907713, 55.887177], [37.907616, 55.887461], [37.907229, 55.88807], [37.906586, 55.888727], [37.905732, 55.889374], [37.904299, 55.890164], [37.902412, 55.891037], [37.901023, 55.891679], [37.898311, 55.892926], [37.89752, 55.893298], [37.897419, 55.893345], [37.89585, 55.893947], [37.89406, 55.894324], [37.890807, 55.894853], [37.889997, 55.894928], [37.885955, 55.895562], [37.885372, 55.895663], [37.882366, 55.896178], [37.875535, 55.897305], [37.875006, 55.897687], [37.874225, 55.897974], [37.87335, 55.897948], [37.872759, 55.89776], [37.871128, 55.898029], [37.870069, 55.898205], [37.861444, 55.899659], [37.859317, 55.89998], [37.858362, 55.900125], [37.858347, 55.900331], [37.858232, 55.900398], [37.858133, 55.900421], [37.857865, 55.90032], [37.857659, 55.900321], [37.857351, 55.900258], [37.857075, 55.900256], [37.850925, 55.901257], [37.845945, 55.902092], [37.845342, 55.902192], [37.843302, 55.90254], [37.843161, 55.90258], [37.84289, 55.902743], [37.841839, 55.904452], [37.840689, 55.906325], [37.840253, 55.906911], [37.839793, 55.907699], [37.839584, 55.908047], [37.836517, 55.91287], [37.836473, 55.912945], [37.837104, 55.913071], [37.837732, 55.913241], [37.837959, 55.913255], [37.839235, 55.913616], [37.839553, 55.913662], [37.840201, 55.91368], [37.841871, 55.913678], [37.842049, 55.913678], [37.843749, 55.91372], [37.844328, 55.913738], [37.845195, 55.913759], [37.845923, 55.913776], [37.846338, 55.913784], [37.846849, 55.913801], [37.84729, 55.913834], [37.848094, 55.913867], [37.848102, 55.91395], [37.848138, 55.914099], [37.850008, 55.913918], [37.851462, 55.913777], [37.851529, 55.914088], [37.851817, 55.915193], [37.852022, 55.915978], [37.852037, 55.916034], [37.85268, 55.916025], [37.854342, 55.916], [37.854688, 55.915996], [37.856323, 55.915972], [37.856568, 55.915969], [37.856798, 55.915965], [37.858837, 55.915912], [37.86027, 55.915872], [37.860422, 55.915868], [37.860557, 55.915864], [37.862555, 55.915809], [37.863297, 55.915788], [37.864005, 55.915768], [37.864178, 55.915764], [37.864494, 55.915759], [37.865556, 55.915711], [37.866334, 55.915676], [37.867426, 55.915626], [37.867548, 55.915622], [37.867494, 55.915288], [37.867426, 55.914862], [37.867619, 55.914856], [37.867833, 55.914883], [37.868051, 55.914943], [37.868446, 55.915139], [37.868952, 55.915448], [37.869715, 55.915828], [37.870272, 55.916087], [37.87108, 55.916419], [37.87136, 55.916534], [37.871769, 55.916679], [37.873094, 55.917136], [37.874681, 55.917708], [37.876719, 55.918405], [37.876882, 55.918444], [37.877758, 55.91856], [37.877767, 55.91864], [37.877776, 55.918724], [37.878164, 55.9188], [37.878769, 55.918842], [37.879494, 55.918834], [37.880181, 55.918736], [37.881364, 55.918526], [37.881811, 55.918446], [37.882148, 55.918838], [37.884803, 55.918135], [37.885237, 55.918654], [37.885981, 55.919528], [37.886268, 55.919846], [37.888339, 55.919232], [37.888429, 55.919203], [37.890216, 55.918445], [37.891986, 55.917651], [37.892786, 55.917299], [37.893155, 55.917095], [37.893368, 55.917079], [37.894053, 55.916826], [37.895389, 55.916255], [37.896852, 55.915693], [37.897863, 55.915374], [37.89865, 55.91513], [37.901024, 55.914686], [37.901421, 55.914611], [37.904288, 55.91408], [37.908892, 55.914333], [37.909101, 55.914234], [37.909263, 55.913009], [37.914516, 55.913266], [37.916058, 55.913342], [37.916213, 55.913367], [37.916297, 55.913407], [37.916342, 55.913557], [37.916224, 55.914265], [37.916143, 55.914721], [37.916131, 55.914805], [37.916007, 55.915627], [37.915936, 55.916047], [37.915729, 55.917197], [37.915704, 55.917359], [37.915444, 55.918716], [37.915387, 55.919011], [37.915274, 55.919563], [37.91517, 55.920069], [37.915029, 55.920762], [37.91501, 55.920856], [37.914865, 55.921591], [37.914822, 55.921809], [37.914661, 55.922687], [37.914621, 55.922878], [37.914418, 55.923854], [37.914217, 55.924923], [37.914192, 55.925052], [37.914142, 55.92531], [37.914093, 55.925565], [37.91402, 55.925843], [37.913916, 55.925928], [37.913722, 55.925952], [37.913409, 55.925927], [37.912566, 55.925867], [37.912351, 55.925876], [37.912148, 55.925912], [37.912044, 55.925972], [37.911972, 55.926056], [37.911928, 55.926227], [37.911959, 55.926408], [37.912057, 55.926485], [37.912262, 55.926536], [37.91338, 55.92663], [37.913393, 55.926631], [37.913603, 55.926649], [37.913803, 55.926666], [37.913984, 55.926681], [37.914173, 55.926697], [37.915394, 55.926798], [37.916287, 55.926873], [37.917345, 55.926961], [37.917591, 55.926982], [37.917774, 55.926997], [37.918004, 55.927017], [37.918364, 55.927047], [37.920167, 55.927199], [37.923283, 55.927452], [37.926641, 55.927707], [37.928445, 55.927852], [37.928693, 55.927871], [37.929512, 55.927935], [37.92987, 55.927963], [37.93119, 55.928089], [37.931646, 55.928127], [37.932961, 55.928238], [37.934376, 55.928359], [37.935981, 55.928496], [37.937792, 55.928649], [37.93868, 55.928682], [37.93963, 55.928689], [37.940008, 55.928687], [37.940952, 55.928662], [37.941195, 55.928656], [37.94223, 55.928629], [37.942602, 55.92862], [37.943325, 55.928601], [37.944354, 55.928576], [37.944844, 55.928562], [37.94527, 55.928554], [37.94538, 55.92855], [37.94625, 55.928518], [37.946764, 55.928502], [37.946997, 55.928494], [37.947645, 55.928473], [37.948288, 55.928451], [37.948805, 55.928433], [37.950029, 55.928391], [37.95134, 55.928348], [37.951617, 55.928337], [37.952419, 55.928312], [37.952472, 55.92831], [37.953171, 55.928285], [37.95345, 55.928273], [37.954115, 55.928224], [37.954315, 55.928197], [37.95444, 55.928328], [37.954564, 55.928396], [37.955472, 55.92874], [37.957799, 55.929573], [37.959669, 55.930211], [37.959182, 55.930557], [37.959522, 55.930822], [37.960111, 55.93128], [37.960466, 55.931476], [37.960985, 55.931689], [37.961737, 55.931936], [37.962484, 55.932256], [37.962935, 55.932372], [37.963209, 55.93239], [37.963848, 55.932393], [37.964121, 55.932351], [37.964653, 55.932333], [37.965356, 55.932433], [37.965883, 55.932566], [37.965977, 55.932592], [37.966107, 55.932629], [37.966684, 55.932766], [37.966872, 55.932816], [37.967256, 55.93231], [37.967893, 55.931715], [37.968848, 55.930888], [37.970257, 55.929855], [37.971089, 55.929415], [37.974078, 55.927945], [37.976944, 55.926994], [37.979514, 55.926134], [37.979933, 55.925917], [37.980094, 55.925749], [37.980319, 55.925617], [37.980848, 55.925193], [37.98083, 55.925146], [37.980815, 55.925113], [37.98067, 55.924768], [37.980659, 55.92474], [37.981578, 55.924733], [37.983069, 55.924653], [37.986629, 55.924342], [37.987034, 55.92429], [37.986629, 55.924342], [37.986721, 55.924045], [37.987055, 55.923941], [37.986908, 55.923658], [37.98669, 55.923174], [37.986674, 55.923133], [37.98661, 55.923139], [37.986529, 55.923058], [37.98583, 55.922388], [37.985572, 55.922141], [37.985093, 55.921689], [37.984721, 55.92132], [37.984585, 55.921194], [37.98431, 55.921285], [37.983734, 55.921476], [37.983252, 55.921636], [37.982996, 55.921721], [37.982549, 55.92187], [37.9824, 55.92192], [37.98236, 55.921882], [37.982313, 55.921835], [37.981459, 55.920999], [37.981049, 55.920599], [37.98059, 55.920138], [37.98027, 55.91984], [37.980152, 55.919725], [37.98041, 55.919642], [37.980732, 55.919537], [37.980994, 55.919411], [37.981567, 55.919224], [37.982326, 55.919008], [37.982883, 55.918826], [37.983313, 55.918678], [37.983771, 55.9185], [37.983954, 55.918429], [37.986024, 55.917755], [37.986449, 55.917615], [37.987075, 55.91741], [37.987185, 55.917374], [37.987397, 55.917304], [37.987617, 55.917232], [37.987985, 55.917112], [37.988534, 55.916891], [37.989404, 55.916439], [37.990132, 55.916045], [37.990264, 55.916005], [37.990166, 55.915792], [37.990223, 55.915763], [37.990305, 55.915718], [37.990351, 55.915693], [37.990453, 55.915753], [37.990567, 55.915689], [37.990779, 55.915563], [37.990941, 55.915462], [37.991105, 55.915365], [37.991269, 55.915268], [37.992313, 55.914634], [37.992659, 55.914433], [37.992611, 55.914403], [37.992432, 55.914244], [37.992533, 55.914175], [37.992638, 55.914108], [37.993053, 55.913845], [37.992872, 55.913504], [37.992523, 55.913056], [37.992595, 55.913017], [37.993012, 55.912807], [37.993219, 55.912711], [37.99306, 55.912587], [37.993104, 55.912564], [37.993125, 55.912425], [37.993131, 55.912377], [37.993238, 55.912342], [37.993329, 55.912268], [37.993345, 55.912118], [37.993143, 55.911006], [37.993023, 55.910346], [37.9928, 55.909284], [37.992699, 55.908853], [37.992621, 55.908516], [37.99245, 55.907885], [37.992293, 55.907579], [37.992141, 55.907367], [37.99184, 55.906957], [37.991803, 55.90691], [37.991061, 55.906001], [37.990783, 55.905712], [37.990494, 55.905471], [37.988296, 55.904022], [37.987573, 55.903545], [37.987119, 55.903247], [37.986842, 55.903065], [37.985551, 55.902085], [37.984362, 55.901078], [37.984004, 55.900756], [37.983383, 55.900183], [37.982872, 55.899723], [37.982652, 55.899521], [37.982056, 55.898972], [37.981835, 55.89877], [37.981298, 55.898275], [37.980652, 55.897657], [37.980627, 55.897615], [37.980532, 55.897441], [37.980528, 55.897431], [37.980512, 55.897375], [37.980496, 55.897197], [37.980508, 55.896955], [37.980583, 55.896344], [37.980708, 55.895972], [37.981058, 55.895594], [37.981886, 55.895063], [37.985142, 55.893079], [37.987245, 55.891754], [37.987818, 55.891356], [37.988317, 55.89093], [37.98881, 55.890487], [37.989168, 55.890178], [37.98988, 55.889552], [37.990423, 55.889094], [37.992638, 55.887265], [37.993735, 55.886421], [37.994707, 55.885767], [37.996039, 55.884932], [37.997047, 55.884357], [37.997814, 55.883956], [38.00312, 55.881237], [38.003318, 55.881048], [38.003356, 55.880951], [38.003333, 55.880772], [38.003199, 55.880459], [38.003164, 55.88043], [38.003123, 55.880394], [38.002882, 55.880166], [38.002801, 55.880087], [38.002398, 55.879701], [38.002021, 55.879352], [38.000928, 55.878338], [38.000632, 55.878064], [37.999607, 55.877124], [37.999041, 55.876607], [37.998627, 55.876207], [37.997153, 55.874818], [37.996748, 55.874318], [37.99622, 55.87357], [37.995758, 55.872916], [37.995647, 55.872754], [37.995263, 55.872224], [37.994814, 55.871604], [37.994526, 55.871209], [37.994295, 55.870889], [37.994003, 55.870494], [37.993648, 55.869996], [37.993416, 55.869671], [37.992995, 55.869069], [37.9927, 55.868668], [37.992678, 55.868637], [37.992657, 55.868607], [37.992635, 55.868575], [37.991926, 55.867559], [37.991192, 55.866255], [37.990593, 55.865108], [37.990292, 55.864681], [37.989954, 55.864315], [37.989165, 55.863666], [37.988547, 55.86315], [37.987546, 55.862312], [37.987194, 55.862017], [37.986975, 55.86183], [37.986875, 55.861867], [37.986806, 55.861895], [37.986616, 55.861733], [37.986211, 55.861387], [37.985028, 55.861826], [37.984351, 55.862048], [37.984264, 55.862029], [37.98383, 55.861754], [37.981667, 55.860072], [37.981318, 55.859696], [37.981201, 55.859579], [37.981168, 55.859555], [37.980633, 55.85928], [37.980297, 55.859036], [37.977462, 55.857506], [37.976197, 55.856881], [37.976309, 55.856765], [37.976138, 55.856675], [37.97267, 55.854845], [37.972495, 55.85478], [37.972445, 55.854652], [37.971914, 55.85448], [37.971657, 55.854353], [37.971461, 55.85429], [37.971392, 55.854266], [37.971503, 55.854058], [37.971467, 55.853924], [37.971297, 55.853629], [37.97124, 55.853542], [37.970878, 55.852886], [37.970796, 55.852451], [37.970848, 55.852386], [37.97118, 55.852158], [37.97011, 55.851589], [37.969976, 55.85152], [37.969768, 55.851412], [37.969548, 55.851298], [37.967908, 55.850442], [37.967422, 55.850172], [37.967279, 55.850093], [37.967205, 55.850049], [37.96703, 55.84996], [37.966174, 55.84952], [37.961218, 55.846969], [37.960669, 55.846682], [37.958118, 55.845341], [37.957877, 55.845214], [37.957655, 55.845098], [37.957225, 55.844874], [37.955242, 55.843842], [37.954358, 55.843382], [37.955972, 55.842466], [37.953679, 55.84113], [37.954622, 55.840635], [37.955618, 55.840092], [37.954757, 55.839578], [37.953481, 55.838834], [37.952786, 55.838454], [37.952626, 55.838185], [37.952614, 55.837446], [37.952765, 55.836719], [37.952775, 55.836671], [37.952777, 55.836651], [37.952631, 55.836262], [37.95223, 55.835782], [37.952206, 55.835719], [37.952401, 55.835635], [37.952864, 55.835552], [37.953279, 55.835536], [37.95337, 55.835548], [37.953985, 55.83563], [37.954136, 55.835634], [37.955462, 55.835443], [37.955577, 55.835427], [37.955889, 55.835382], [37.956098, 55.835352], [37.956075, 55.835305], [37.955682, 55.834476], [37.955265, 55.833596], [37.955303, 55.83359], [37.955133, 55.833235], [37.954467, 55.833382], [37.954423, 55.833374], [37.954328, 55.83323], [37.95381, 55.832408], [37.953531, 55.831967], [37.953436, 55.831816], [37.953138, 55.831855], [37.952805, 55.831894], [37.952199, 55.831553], [37.951903, 55.83136], [37.951016, 55.830764], [37.950907, 55.830686], [37.951174, 55.830546], [37.951777, 55.830232], [37.953242, 55.829486], [37.953467, 55.829366], [37.953806, 55.829151], [37.954222, 55.828839], [37.954609, 55.828417], [37.954649, 55.82837], [37.954673, 55.828323], [37.954732, 55.828196], [37.954774, 55.828091], [37.95482, 55.827843], [37.954824, 55.827357], [37.954805, 55.827228], [37.954767, 55.827048], [37.954727, 55.826858], [37.95471, 55.826783], [37.954566, 55.826818], [37.953527, 55.827071], [37.952805, 55.826856], [37.953156, 55.826615], [37.953337, 55.826427], [37.953078, 55.826336], [37.952958, 55.826298], [37.953147, 55.826067], [37.953167, 55.825986], [37.95312, 55.825775], [37.952449, 55.825061], [37.95232, 55.82491], [37.952086, 55.824674], [37.951654, 55.824257], [37.951333, 55.823837], [37.951267, 55.823628], [37.951245, 55.823562], [37.951238, 55.823538], [37.950988, 55.822756], [37.950968, 55.822693], [37.950927, 55.82257], [37.950804, 55.822204], [37.950756, 55.822049], [37.950685, 55.821819], [37.950435, 55.82101], [37.950292, 55.820546], [37.950244, 55.82039], [37.949667, 55.820458], [37.949542, 55.820472], [37.949507, 55.820215], [37.949264, 55.818661], [37.949053, 55.817653], [37.949047, 55.817624], [37.948712, 55.816044], [37.948471, 55.814901], [37.948434, 55.814724], [37.948271, 55.813936], [37.948235, 55.813764], [37.948207, 55.813629], [37.948135, 55.81328], [37.948045, 55.812846], [37.947989, 55.812558], [37.947769, 55.811474], [37.947709, 55.811145], [37.947658, 55.810864], [37.947627, 55.81069], [37.947453, 55.810008], [37.947426, 55.809859], [37.947349, 55.80954], [37.947326, 55.809445], [37.947282, 55.809347], [37.947594, 55.80929], [37.948144, 55.809602], [37.948213, 55.809652]]}}]}