{"type": "FeatureCollection", "features": [{"type": "Feature", "properties": {"name": "Балашиха 02", "source": "/gps/velo/balashiha.02.gpx", "points": 726}, "geometry": {"type": "LineString", "coordinates": [[37.818166, 55.744706], [37.817822, 55.744701], [37.817374, 55.74468], [37.817008, 55.744771], [37.816892, 55.745087], [37.81748, 55.745701], [37.817205, 55.746025], [37.81725, 55.746693], [37.817369, 55.746976], [37.817951, 55.748379], [37.818212, 55.74902], [37.818117, 55.749085], [37.817081, 55.749229], [37.816516, 55.749307], [37.816361, 55.749407], [37.816626, 55.749987], [37.816841, 55.750473], [37.81698, 55.75078], [37.817268, 55.751443], [37.817379, 55.751699], [37.817464, 55.751899], [37.817586, 55.752172], [37.817925, 55.752936], [37.818178, 55.753543], [37.818306, 55.754276], [37.818262, 55.754601], [37.818744, 55.755727], [37.818966, 55.756246], [37.819123, 55.756613], [37.819386, 55.757227], [37.819465, 55.757427], [37.820038, 55.758644], [37.820472, 55.759657], [37.82194, 55.762923], [37.822471, 55.764623], [37.822514, 55.765122], [37.822454, 55.765966], [37.822419, 55.766348], [37.8227, 55.766991], [37.822853, 55.767291], [37.822974, 55.767572], [37.822832, 55.767852], [37.822257, 55.768291], [37.82139, 55.768944], [37.821097, 55.769497], [37.820958, 55.769834], [37.820664, 55.770529], [37.820447, 55.771186], [37.820231, 55.771775], [37.820084, 55.772305], [37.819995, 55.772839], [37.819826, 55.77381], [37.819676, 55.775016], [37.819579, 55.775408], [37.81943, 55.775281], [37.819286, 55.774523], [37.817143, 55.774838], [37.816247, 55.775027], [37.81573, 55.775065], [37.814992, 55.775021], [37.814207, 55.775101], [37.812797, 55.77509], [37.812629, 55.774987], [37.811769, 55.775227], [37.812629, 55.774987], [37.812797, 55.77509], [37.814207, 55.775101], [37.814992, 55.775021], [37.81573, 55.775065], [37.816247, 55.775027], [37.817143, 55.774838], [37.819286, 55.774523], [37.81943, 55.775281], [37.819778, 55.77311], [37.819995, 55.772839], [37.820814, 55.773048], [37.822294, 55.773398], [37.823943, 55.773789], [37.824358, 55.773887], [37.826093, 55.774298], [37.828772, 55.774932], [37.830045, 55.775233], [37.83109, 55.775481], [37.832152, 55.775732], [37.83407, 55.776186], [37.835181, 55.776393], [37.835348, 55.776121], [37.835178, 55.775986], [37.835228, 55.775531], [37.835184, 55.775468], [37.835335, 55.775276], [37.835529, 55.775193], [37.836782, 55.77548], [37.837585, 55.775652], [37.841902, 55.776639], [37.847111, 55.777824], [37.851477, 55.778905], [37.852653, 55.779184], [37.853287, 55.779333], [37.860789, 55.781075], [37.867438, 55.782661], [37.869346, 55.783109], [37.874059, 55.784217], [37.876077, 55.784691], [37.881873, 55.786056], [37.884607, 55.786729], [37.88899, 55.788095], [37.892362, 55.789092], [37.893558, 55.789432], [37.899162, 55.79115], [37.900355, 55.791529], [37.900609, 55.791609], [37.904758, 55.792901], [37.906448, 55.793304], [37.907993, 55.793475], [37.921215, 55.793529], [37.923779, 55.793584], [37.926895, 55.793586], [37.931502, 55.79375], [37.934106, 55.793836], [37.934843, 55.793872], [37.936154, 55.793939], [37.937526, 55.793912], [37.937527, 55.793818], [37.937931, 55.793852], [37.940307, 55.793976], [37.940831, 55.794029], [37.942036, 55.794114], [37.942115, 55.793874], [37.94211, 55.793486], [37.941994, 55.793465], [37.941861, 55.793303], [37.942136, 55.793175], [37.942363, 55.793238], [37.942989, 55.793365], [37.943802, 55.793401], [37.944309, 55.79347], [37.944334, 55.793956], [37.944533, 55.794057], [37.945312, 55.794102], [37.945826, 55.794125], [37.946046, 55.794139], [37.946812, 55.794197], [37.947232, 55.794156], [37.947622, 55.793964], [37.948009, 55.793764], [37.948403, 55.793561], [37.94884, 55.793654], [37.948879, 55.793806], [37.948878, 55.794332], [37.949352, 55.794595], [37.953273, 55.795029], [37.954521, 55.79517], [37.954666, 55.795186], [37.954857, 55.795446], [37.954476, 55.795645], [37.954367, 55.795688], [37.952358, 55.795855], [37.951869, 55.795796], [37.951348, 55.795791], [37.951068, 55.796357], [37.950592, 55.797318], [37.950554, 55.797395], [37.950055, 55.79747], [37.94994, 55.797554], [37.949674, 55.798028], [37.946401, 55.799227], [37.945918, 55.799646], [37.946728, 55.800488], [37.947357, 55.800508], [37.946728, 55.800488], [37.945918, 55.799646], [37.946401, 55.799227], [37.949674, 55.798028], [37.94994, 55.797554], [37.950055, 55.79747], [37.954694, 55.797965], [37.954802, 55.79788], [37.955237, 55.796544], [37.955907, 55.796426], [37.957265, 55.796376], [37.957974, 55.796249], [37.957542, 55.795984], [37.955046, 55.795712], [37.95511, 55.795238], [37.955568, 55.794125], [37.955781, 55.793583], [37.953849, 55.793087], [37.954048, 55.79272], [37.954048, 55.79272], [37.953849, 55.793087], [37.955781, 55.793583], [37.956227, 55.793342], [37.956745, 55.792698], [37.957004, 55.792353], [37.957516, 55.791418], [37.958077, 55.790288], [37.958283, 55.790325], [37.958844, 55.790428], [37.960139, 55.789991], [37.960226, 55.789841], [37.961455, 55.789798], [37.96193, 55.789852], [37.962578, 55.789915], [37.964039, 55.790059], [37.965372, 55.790198], [37.965919, 55.790205], [37.966206, 55.79008], [37.966665, 55.789643], [37.967311, 55.789092], [37.968214, 55.789121], [37.969785, 55.78936], [37.970926, 55.789536], [37.972042, 55.789775], [37.972723, 55.789972], [37.973012, 55.790062], [37.974855, 55.790785], [37.976055, 55.791329], [37.976367, 55.791487], [37.976553, 55.790933], [37.976778, 55.79093], [37.977163, 55.790896], [37.97759, 55.790632], [37.978204, 55.790303], [37.978598, 55.790265], [37.980461, 55.790434], [37.981082, 55.790417], [37.983587, 55.79069], [37.984791, 55.790793], [37.985832, 55.790923], [37.99205, 55.791462], [37.996721, 55.791914], [38.0007, 55.792272], [38.001134, 55.792094], [38.003093, 55.791914], [38.004166, 55.791878], [38.00571, 55.791486], [38.006435, 55.791241], [38.007276, 55.790921], [38.0081, 55.79126], [38.008542, 55.791027], [38.008917, 55.791022], [38.009204, 55.791126], [38.009202, 55.79158], [38.008888, 55.792645], [38.009463, 55.793166], [38.009887, 55.793247], [38.011087, 55.793348], [38.011441, 55.793378], [38.013197, 55.793527], [38.014342, 55.793621], [38.01477, 55.793655], [38.017314, 55.793855], [38.017836, 55.793898], [38.018135, 55.793917], [38.025221, 55.794466], [38.031923, 55.795015], [38.032095, 55.79495], [38.03572, 55.795251], [38.041224, 55.795686], [38.047805, 55.796257], [38.048323, 55.796411], [38.048645, 55.796461], [38.049152, 55.796595], [38.049723, 55.796676], [38.050344, 55.797132], [38.05133, 55.796931], [38.051987, 55.796526], [38.052618, 55.796456], [38.05276, 55.796794], [38.053044, 55.797042], [38.054911, 55.798022], [38.056348, 55.797395], [38.056743, 55.797184], [38.057144, 55.796981], [38.058942, 55.796716], [38.061405, 55.796841], [38.063725, 55.796861], [38.068118, 55.797262], [38.068871, 55.797162], [38.068863, 55.795441], [38.068876, 55.795218], [38.068939, 55.794499], [38.070715, 55.794273], [38.072783, 55.794026], [38.073062, 55.793938], [38.07725, 55.793274], [38.084241, 55.792527], [38.084869, 55.792577], [38.085008, 55.794821], [38.085206, 55.79547], [38.088013, 55.794264], [38.090057, 55.793656], [38.092291, 55.793532], [38.093541, 55.793634], [38.095593, 55.794273], [38.097403, 55.794358], [38.100236, 55.793948], [38.100554, 55.795686], [38.100775, 55.799686], [38.100764, 55.80014], [38.101022, 55.806085], [38.100126, 55.806783], [38.10319, 55.806624], [38.111408, 55.80595], [38.112852, 55.805968], [38.113963, 55.803956], [38.114558, 55.803248], [38.116839, 55.801211], [38.118205, 55.801365], [38.119951, 55.801479], [38.124737, 55.801814], [38.128009, 55.802055], [38.1317, 55.802277], [38.132553, 55.802475], [38.134261, 55.802509], [38.135928, 55.802576], [38.137143, 55.802662], [38.138012, 55.803269], [38.140153, 55.804288], [38.140752, 55.804808], [38.141103, 55.804958], [38.142014, 55.80504], [38.146492, 55.805286], [38.150476, 55.80572], [38.152969, 55.806035], [38.154404, 55.806324], [38.155024, 55.804533], [38.156939, 55.804685], [38.158827, 55.803956], [38.159822, 55.803277], [38.161348, 55.801721], [38.16151, 55.801084], [38.161811, 55.800906], [38.16353, 55.799897], [38.163949, 55.799092], [38.165291, 55.798161], [38.166322, 55.797943], [38.165677, 55.797659], [38.168967, 55.796824], [38.171669, 55.795824], [38.172679, 55.795568], [38.174765, 55.796086], [38.176421, 55.796068], [38.177411, 55.796139], [38.178514, 55.796446], [38.178674, 55.796602], [38.179031, 55.797199], [38.179212, 55.797235], [38.179307, 55.797026], [38.181876, 55.795756], [38.182986, 55.795192], [38.183407, 55.794685], [38.183508, 55.793431], [38.183278, 55.792953], [38.183138, 55.792327], [38.18328, 55.792034], [38.183711, 55.791665], [38.183756, 55.791209], [38.184427, 55.790612], [38.185952, 55.789983], [38.186832, 55.789006], [38.187655, 55.788002], [38.187605, 55.787057], [38.187855, 55.786418], [38.188613, 55.785038], [38.185225, 55.781056], [38.186073, 55.780142], [38.187336, 55.779288], [38.188279, 55.778648], [38.189898, 55.777549], [38.19219, 55.77598], [38.193348, 55.775181], [38.195654, 55.773603], [38.196604, 55.772953], [38.199161, 55.771216], [38.202276, 55.769106], [38.204175, 55.767827], [38.205593, 55.766949], [38.207138, 55.765955], [38.206837, 55.765446], [38.204704, 55.763768], [38.20404, 55.763], [38.203428, 55.761614], [38.202446, 55.76046], [38.201352, 55.758923], [38.201571, 55.757922], [38.201725, 55.757761], [38.203667, 55.756537], [38.203906, 55.755769], [38.203902, 55.755313], [38.202975, 55.755023], [38.202227, 55.754776], [38.201807, 55.754471], [38.201861, 55.754189], [38.202746, 55.752849], [38.202606, 55.751945], [38.202123, 55.751461], [38.20212, 55.751177], [38.203454, 55.749591], [38.204245, 55.748659], [38.204782, 55.747953], [38.20487, 55.747225], [38.204671, 55.746663], [38.204094, 55.745982], [38.20363, 55.745403], [38.203388, 55.744812], [38.203294, 55.743836], [38.202665, 55.742862], [38.202337, 55.742212], [38.202168, 55.741174], [38.202022, 55.741019], [38.202223, 55.740812], [38.202459, 55.740669], [38.202583, 55.740019], [38.202416, 55.739824], [38.202423, 55.739662], [38.202271, 55.738286], [38.202252, 55.737718], [38.201903, 55.735913], [38.201727, 55.735093], [38.20136, 55.732876], [38.201128, 55.730903], [38.199085, 55.731515], [38.196229, 55.732294], [38.195645, 55.732463], [38.192292, 55.733403], [38.192039, 55.733474], [38.190989, 55.733785], [38.189094, 55.734311], [38.186913, 55.734951], [38.183426, 55.735999], [38.180275, 55.737201], [38.177268, 55.738377], [38.175845, 55.738712], [38.174409, 55.738903], [38.172956, 55.73896], [38.168618, 55.738825], [38.166477, 55.73899], [38.165043, 55.739266], [38.163757, 55.73965], [38.161711, 55.740576], [38.158704, 55.742032], [38.156691, 55.742726], [38.151266, 55.74432], [38.149538, 55.744784], [38.146935, 55.745535], [38.144721, 55.746201], [38.141206, 55.747194], [38.140118, 55.747368], [38.136468, 55.748219], [38.132995, 55.749174], [38.131434, 55.749606], [38.128216, 55.750525], [38.126486, 55.751002], [38.124891, 55.751422], [38.123015, 55.75196], [38.122643, 55.752062], [38.121207, 55.752369], [38.117105, 55.753171], [38.116015, 55.753336], [38.114188, 55.753486], [38.108874, 55.753566], [38.10496, 55.753349], [38.103402, 55.753249], [38.101633, 55.753181], [38.094692, 55.752343], [38.090705, 55.751881], [38.090485, 55.751585], [38.08878, 55.751244], [38.087077, 55.750843], [38.086826, 55.75014], [38.086391, 55.749526], [38.084051, 55.749716], [38.08372, 55.75044], [38.081948, 55.751106], [38.071171, 55.749392], [38.068829, 55.749001], [38.068562, 55.748797], [38.06906, 55.748049], [38.070421, 55.746555], [38.07032, 55.746434], [38.069896, 55.74637], [38.068968, 55.746171], [38.067653, 55.745407], [38.067813, 55.744779], [38.067771, 55.744259], [38.066714, 55.742674], [38.065456, 55.742427], [38.063815, 55.741396], [38.063415, 55.74143], [38.061996, 55.742106], [38.06171, 55.741985], [38.0594, 55.742911], [38.059039, 55.742857], [38.058739, 55.742678], [38.058292, 55.742412], [38.057682, 55.742049], [38.056959, 55.741619], [38.056061, 55.741084], [38.053735, 55.74235], [38.052973, 55.742423], [38.051938, 55.742368], [38.051018, 55.743084], [38.050981, 55.743663], [38.05047, 55.744041], [38.048923, 55.74445], [38.048428, 55.744172], [38.047616, 55.743936], [38.046678, 55.743895], [38.04453, 55.743784], [38.043903, 55.743599], [38.043791, 55.743539], [38.043331, 55.743462], [38.040834, 55.743445], [38.040121, 55.74344], [38.036503, 55.743416], [38.035054, 55.743406], [38.034277, 55.743399], [38.033632, 55.743398], [38.030194, 55.743389], [38.029279, 55.743387], [38.028856, 55.743386], [38.02816, 55.743385], [38.026492, 55.743382], [38.024724, 55.743375], [38.024508, 55.743373], [38.02407, 55.743369], [38.022848, 55.743359], [38.021988, 55.743361], [38.021139, 55.743357], [38.02019, 55.743357], [38.0189, 55.743357], [38.018561, 55.743355], [38.017649, 55.743351], [38.015979, 55.74335], [38.014237, 55.743351], [38.013838, 55.743352], [38.013604, 55.743352], [38.012343, 55.743353], [38.010246, 55.743356], [38.009814, 55.743356], [38.00875, 55.743361], [38.008288, 55.743364], [38.005877, 55.743388], [38.004274, 55.743455], [38.003801, 55.743475], [38.002932, 55.743512], [38.000104, 55.74362], [37.999204, 55.743591], [37.997871, 55.743433], [37.995775, 55.743117], [37.995423, 55.742881], [37.993874, 55.743118], [37.991072, 55.743546], [37.990256, 55.743671], [37.989998, 55.74371], [37.989108, 55.743847], [37.987408, 55.744107], [37.986697, 55.744215], [37.986612, 55.744402], [37.986367, 55.74444], [37.98429, 55.744757], [37.982791, 55.744728], [37.982719, 55.74458], [37.982152, 55.743416], [37.98117, 55.74357], [37.980508, 55.743739], [37.978713, 55.745091], [37.978084, 55.745009], [37.977849, 55.745018], [37.977193, 55.745106], [37.976765, 55.745233], [37.976152, 55.745352], [37.975544, 55.745705], [37.975304, 55.74558], [37.973387, 55.745775], [37.972329, 55.745882], [37.97126, 55.745991], [37.969419, 55.746178], [37.967809, 55.746341], [37.96688, 55.746435], [37.965752, 55.746529], [37.96516, 55.746366], [37.964145, 55.746585], [37.963466, 55.746711], [37.963224, 55.746643], [37.961049, 55.747067], [37.960446, 55.747184], [37.960628, 55.74725], [37.960549, 55.74736], [37.96089, 55.74769], [37.961045, 55.747659], [37.960769, 55.748278], [37.960239, 55.748795], [37.959606, 55.749298], [37.959272, 55.749824], [37.958887, 55.74994], [37.958965, 55.750517], [37.958942, 55.750673], [37.958495, 55.750709], [37.958141, 55.750787], [37.956261, 55.751004], [37.954882, 55.751167], [37.954434, 55.751169], [37.953398, 55.751309], [37.952599, 55.75138], [37.951931, 55.751399], [37.951396, 55.751476], [37.948944, 55.751478], [37.946528, 55.751479], [37.944193, 55.751457], [37.942009, 55.751093], [37.938871, 55.750696], [37.937276, 55.750453], [37.936455, 55.750377], [37.935231, 55.745332], [37.931039, 55.745647], [37.930705, 55.745649], [37.929187, 55.744182], [37.928586, 55.743976], [37.927819, 55.743963], [37.927158, 55.743607], [37.926219, 55.743619], [37.925024, 55.743509], [37.923913, 55.743977], [37.923391, 55.744406], [37.922623, 55.744899], [37.922173, 55.745211], [37.921427, 55.745153], [37.919568, 55.744763], [37.919141, 55.744826], [37.919476, 55.745834], [37.919766, 55.746464], [37.919474, 55.746591], [37.918114, 55.74685], [37.913739, 55.747538], [37.91371, 55.748208], [37.911335, 55.748228], [37.910548, 55.74816], [37.909515, 55.74823], [37.906399, 55.748847], [37.905854, 55.748993], [37.904553, 55.748489], [37.9037, 55.748626], [37.903455, 55.748797], [37.902204, 55.749045], [37.901782, 55.749836], [37.901367, 55.750614], [37.901107, 55.751007], [37.900274, 55.750901], [37.899321, 55.750937], [37.898666, 55.750923], [37.897772, 55.750881], [37.897312, 55.75139], [37.896763, 55.751345], [37.896318, 55.751273], [37.894822, 55.75117], [37.894554, 55.751063], [37.894434, 55.750949], [37.894444, 55.750592], [37.894346, 55.750483], [37.891383, 55.750328], [37.890995, 55.750225], [37.890668, 55.75006], [37.889948, 55.749426], [37.889765, 55.74929], [37.888167, 55.748707], [37.887385, 55.748409], [37.886843, 55.748502], [37.885459, 55.748752], [37.884971, 55.748546], [37.883145, 55.748048], [37.881397, 55.747632], [37.878139, 55.746981], [37.877442, 55.746841], [37.876515, 55.746665], [37.875948, 55.746556], [37.873955, 55.746171], [37.873678, 55.746117], [37.873267, 55.746037], [37.871716, 55.745728], [37.869268, 55.745253], [37.867811, 55.744963], [37.867325, 55.744872], [37.865856, 55.744574], [37.865154, 55.74444], [37.864674, 55.745229], [37.864404, 55.745678], [37.862872, 55.745435], [37.861103, 55.745239], [37.859553, 55.74513], [37.858076, 55.745047], [37.857478, 55.74502], [37.855817, 55.74496], [37.854488, 55.744917], [37.853784, 55.744927], [37.852125, 55.744765], [37.84976, 55.744543], [37.849001, 55.744482], [37.845235, 55.74425], [37.841853, 55.74404], [37.840823, 55.743984], [37.835462, 55.743821], [37.833576, 55.743922], [37.832497, 55.743875], [37.831918, 55.743954], [37.830708, 55.744356], [37.830268, 55.744918], [37.829942, 55.74534], [37.829679, 55.745499], [37.828967, 55.746305], [37.82808, 55.746175], [37.827841, 55.746306], [37.827471, 55.746674], [37.827122, 55.746603], [37.826293, 55.746419], [37.825923, 55.746354], [37.824958, 55.746184], [37.823377, 55.745878], [37.82233, 55.745674], [37.821846, 55.745585], [37.821551, 55.745527], [37.81776, 55.744777], [37.817862, 55.744659], [37.818166, 55.744706]]}}]}