{"type":"FeatureCollection","features":[{"type":"Feature","properties":{"name":"Александровское городище","kind":"heritage","theme":"forest","routeId":"kaluga-trail-ugra-50"},"geometry":{"type":"Point","coordinates":[35.198,54.749]}},{"type":"Feature","properties":{"name":"Колыхмановский мост","kind":"bridge","theme":"forest","routeId":"kaluga-trail-ugra-50"},"geometry":{"type":"Point","coordinates":[35.021,54.671]}},{"type":"Feature","properties":{"name":"Турбаза «Гнездо»","kind":"camp","theme":"forest","routeId":"kaluga-trail-ugra-50"},"geometry":{"type":"Point","coordinates":[34.952,54.638]}}]}