{"type": "FeatureCollection", "features": [{"type": "Feature", "properties": {"name": "Красногорск 01", "source": "/gps/velo/krasnogorsk.01.gpx", "points": 820}, "geometry": {"type": "LineString", "coordinates": [[37.362225, 55.845754], [37.36116, 55.846183], [37.361007, 55.846245], [37.360722, 55.846362], [37.360473, 55.846173], [37.360327, 55.846062], [37.36029, 55.846078], [37.360275, 55.846067], [37.360296, 55.846058], [37.36033, 55.846043], [37.360304, 55.846025], [37.3606, 55.845907], [37.360714, 55.845861], [37.360752, 55.845891], [37.360782, 55.845915], [37.360826, 55.84595], [37.360155, 55.846215], [37.359863, 55.846327], [37.358662, 55.845577], [37.358434, 55.845435], [37.358171, 55.845268], [37.358086, 55.845213], [37.358031, 55.845178], [37.357776, 55.845018], [37.357702, 55.844972], [37.357376, 55.844767], [37.35731, 55.844726], [37.357158, 55.84463], [37.357085, 55.844585], [37.356206, 55.844035], [37.356098, 55.843967], [37.356045, 55.843933], [37.355837, 55.843801], [37.355806, 55.843781], [37.355636, 55.843672], [37.355173, 55.843386], [37.354711, 55.8431], [37.35403, 55.842679], [37.353801, 55.842526], [37.353645, 55.842422], [37.353054, 55.842018], [37.35221, 55.841463], [37.351746, 55.841161], [37.35142, 55.840985], [37.350534, 55.840617], [37.349998, 55.840454], [37.349557, 55.840344], [37.349034, 55.840241], [37.348866, 55.840219], [37.347253, 55.840077], [37.347041, 55.840059], [37.346007, 55.839968], [37.345576, 55.839852], [37.344867, 55.839659], [37.344825, 55.839655], [37.342833, 55.839461], [37.341753, 55.839323], [37.341508, 55.839249], [37.34135, 55.839168], [37.341168, 55.839069], [37.340909, 55.83906], [37.340622, 55.839115], [37.340474, 55.839134], [37.340086, 55.839191], [37.339802, 55.839239], [37.339253, 55.839342], [37.338764, 55.839376], [37.338492, 55.839379], [37.337797, 55.839318], [37.336449, 55.839048], [37.335707, 55.838842], [37.335143, 55.838617], [37.333917, 55.838115], [37.33275, 55.837755], [37.332373, 55.837595], [37.332285, 55.837553], [37.332186, 55.837505], [37.331996, 55.837412], [37.331718, 55.837279], [37.331404, 55.837136], [37.331106, 55.837004], [37.330849, 55.836889], [37.330423, 55.836701], [37.330119, 55.83649], [37.330095, 55.836469], [37.329965, 55.83636], [37.329836, 55.836255], [37.329662, 55.836159], [37.329546, 55.836105], [37.329388, 55.836034], [37.329197, 55.835952], [37.328506, 55.83563], [37.327398, 55.835117], [37.327197, 55.835263], [37.326765, 55.835571], [37.326731, 55.835596], [37.326683, 55.835629], [37.326516, 55.835742], [37.326425, 55.835699], [37.326302, 55.835642], [37.325383, 55.836286], [37.325267, 55.836329], [37.324807, 55.836404], [37.324358, 55.836478], [37.324071, 55.836454], [37.323254, 55.836287], [37.32316, 55.836418], [37.323124, 55.836472], [37.321392, 55.836089], [37.321271, 55.836065], [37.321097, 55.836043], [37.320867, 55.836045], [37.320615, 55.836086], [37.319553, 55.836349], [37.319364, 55.836368], [37.318989, 55.836357], [37.318794, 55.836339], [37.318366, 55.836275], [37.317935, 55.836143], [37.317879, 55.836118], [37.317937, 55.836065], [37.318044, 55.835962], [37.318062, 55.835945], [37.318269, 55.835749], [37.31834, 55.835681], [37.318643, 55.835391], [37.318964, 55.835085], [37.319061, 55.834992], [37.319121, 55.834935], [37.319319, 55.834747], [37.318506, 55.834483], [37.317911, 55.83429], [37.317799, 55.834254], [37.31719, 55.834056], [37.317156, 55.834045], [37.317127, 55.834036], [37.316347, 55.833782], [37.31615, 55.833718], [37.315629, 55.833549], [37.315705, 55.833474], [37.315858, 55.833297], [37.315376, 55.833067], [37.314857, 55.832954], [37.314599, 55.83282], [37.314457, 55.832746], [37.314446, 55.83274], [37.314553, 55.832666], [37.315391, 55.831948], [37.315611, 55.832038], [37.315857, 55.831912], [37.316295, 55.831799], [37.316941, 55.831549], [37.317317, 55.831457], [37.316941, 55.831549], [37.316295, 55.831799], [37.315857, 55.831912], [37.315611, 55.832038], [37.315391, 55.831948], [37.315409, 55.831802], [37.314364, 55.831223], [37.314181, 55.831122], [37.31345, 55.830733], [37.313335, 55.830715], [37.313217, 55.830696], [37.312582, 55.830894], [37.3123, 55.830936], [37.31183, 55.831086], [37.311708, 55.831196], [37.31169, 55.831226], [37.311593, 55.83126], [37.31036, 55.831672], [37.310246, 55.8317], [37.309787, 55.831833], [37.309323, 55.83198], [37.309284, 55.831993], [37.309048, 55.832068], [37.309012, 55.83208], [37.30873, 55.832169], [37.308452, 55.832257], [37.308281, 55.832313], [37.307663, 55.832516], [37.307389, 55.832606], [37.307048, 55.832719], [37.306832, 55.832822], [37.307106, 55.833012], [37.307395, 55.833212], [37.307612, 55.833355], [37.307775, 55.83346], [37.308304, 55.83381], [37.308422, 55.833754], [37.308781, 55.833581], [37.309021, 55.833737], [37.309818, 55.834256], [37.30946, 55.834428], [37.309345, 55.834483], [37.309712, 55.83472], [37.309346, 55.834892], [37.308684, 55.834474], [37.308497, 55.834506], [37.308322, 55.834443], [37.307916, 55.834434], [37.3078, 55.834363], [37.307347, 55.83458], [37.307184, 55.834659], [37.306753, 55.83495], [37.306556, 55.835136], [37.306398, 55.835456], [37.306369, 55.835652], [37.306367, 55.835746], [37.306364, 55.835905], [37.306363, 55.836138], [37.306361, 55.836442], [37.306361, 55.837086], [37.306361, 55.837648], [37.306358, 55.837787], [37.306354, 55.83797], [37.306341, 55.838315], [37.306297, 55.838484], [37.306054, 55.838796], [37.305686, 55.839027], [37.305617, 55.839063], [37.305297, 55.839197], [37.305005, 55.839281], [37.30485, 55.83932], [37.304736, 55.839348], [37.304438, 55.839421], [37.303675, 55.839609], [37.30356, 55.839637], [37.303363, 55.839686], [37.303251, 55.839713], [37.302653, 55.839862], [37.302568, 55.839883], [37.302244, 55.839964], [37.302084, 55.840001], [37.301923, 55.840036], [37.301835, 55.840054], [37.300956, 55.840134], [37.300107, 55.840121], [37.299889, 55.840103], [37.299244, 55.840047], [37.299085, 55.840032], [37.298881, 55.840014], [37.298744, 55.840001], [37.29822, 55.839953], [37.297977, 55.83993], [37.297847, 55.839918], [37.297765, 55.839911], [37.297584, 55.839894], [37.296282, 55.839774], [37.296225, 55.839769], [37.295694, 55.83972], [37.295042, 55.839662], [37.294644, 55.839627], [37.293965, 55.839545], [37.293961, 55.839544], [37.293534, 55.839439], [37.293074, 55.83925], [37.292646, 55.838908], [37.292561, 55.838807], [37.292434, 55.838429], [37.292414, 55.838236], [37.292412, 55.838205], [37.292382, 55.837758], [37.29238, 55.83773], [37.292373, 55.837636], [37.292355, 55.837388], [37.292328, 55.837002], [37.292279, 55.836838], [37.292239, 55.836778], [37.291621, 55.836855], [37.291157, 55.83682], [37.29056, 55.836685], [37.289454, 55.836366], [37.287839, 55.835918], [37.287762, 55.835897], [37.286389, 55.83551], [37.285423, 55.835238], [37.284517, 55.834988], [37.282285, 55.834354], [37.281973, 55.834261], [37.281699, 55.834184], [37.28046, 55.833833], [37.279762, 55.83364], [37.279374, 55.83357], [37.276726, 55.833311], [37.275982, 55.8334], [37.275704, 55.833401], [37.274514, 55.833296], [37.274195, 55.833263], [37.273544, 55.833202], [37.272893, 55.833171], [37.271911, 55.833192], [37.27132, 55.833249], [37.270851, 55.833322], [37.270353, 55.833427], [37.269678, 55.833624], [37.268725, 55.833972], [37.267808, 55.83442], [37.267671, 55.834561], [37.267596, 55.834735], [37.267663, 55.835009], [37.267843, 55.835309], [37.267878, 55.835461], [37.267862, 55.835527], [37.267717, 55.835682], [37.266864, 55.83608], [37.266473, 55.836184], [37.266271, 55.836206], [37.266012, 55.836193], [37.265676, 55.83613], [37.265627, 55.836196], [37.265584, 55.836261], [37.265616, 55.836308], [37.266177, 55.836422], [37.266678, 55.836775], [37.26696, 55.836978], [37.266186, 55.837349], [37.265009, 55.837699], [37.264561, 55.837798], [37.264595, 55.837858], [37.264606, 55.837883], [37.264686, 55.838034], [37.265002, 55.838684], [37.265045, 55.838864], [37.2652, 55.839434], [37.265493, 55.839946], [37.266419, 55.840766], [37.267484, 55.841602], [37.267683, 55.84183], [37.267784, 55.841899], [37.267857, 55.841949], [37.268197, 55.842314], [37.268581, 55.842645], [37.26874, 55.842985], [37.268798, 55.84337], [37.268754, 55.843527], [37.268471, 55.844092], [37.268441, 55.844283], [37.26849, 55.844463], [37.268578, 55.844619], [37.268718, 55.844761], [37.268994, 55.844943], [37.269718, 55.845226], [37.270013, 55.845381], [37.270587, 55.845743], [37.271373, 55.846299], [37.271915, 55.84675], [37.272204, 55.846871], [37.272697, 55.846941], [37.274535, 55.847066], [37.275472, 55.847141], [37.275742, 55.847171], [37.275942, 55.847233], [37.276271, 55.847388], [37.278114, 55.848413], [37.278677, 55.84877], [37.279037, 55.849001], [37.279335, 55.849312], [37.279403, 55.849533], [37.279323, 55.849847], [37.277389, 55.856437], [37.275031, 55.864713], [37.274945, 55.865027], [37.273179, 55.871343], [37.272974, 55.872042], [37.272771, 55.872757], [37.272788, 55.8733], [37.272478, 55.873841], [37.272443, 55.874058], [37.272432, 55.87415], [37.272327, 55.87428], [37.271099, 55.875252], [37.270927, 55.875425], [37.270281, 55.875859], [37.269958, 55.876011], [37.269608, 55.876195], [37.269122, 55.876484], [37.26719, 55.877785], [37.266543, 55.878239], [37.266035, 55.878651], [37.265906, 55.87882], [37.265055, 55.880001], [37.264558, 55.88096], [37.264268, 55.881796], [37.264263, 55.882208], [37.264263, 55.882437], [37.264173, 55.883018], [37.264131, 55.883297], [37.264122, 55.883357], [37.264016, 55.884057], [37.263918, 55.884771], [37.263712, 55.886284], [37.263701, 55.886485], [37.263749, 55.886553], [37.263849, 55.886614], [37.264022, 55.88667], [37.264786, 55.88683], [37.265097, 55.886941], [37.265276, 55.887087], [37.265318, 55.887121], [37.26543, 55.887291], [37.265653, 55.88775], [37.265791, 55.888036], [37.266054, 55.888609], [37.266298, 55.888897], [37.266738, 55.889203], [37.267751, 55.889821], [37.268414, 55.890322], [37.268657, 55.890573], [37.268734, 55.89068], [37.268809, 55.891716], [37.268876, 55.891965], [37.26919, 55.89262], [37.269557, 55.893585], [37.269601, 55.893715], [37.269749, 55.894153], [37.269994, 55.894744], [37.270055, 55.895335], [37.2701, 55.895941], [37.270131, 55.896267], [37.270151, 55.896445], [37.270498, 55.89952], [37.27169, 55.899337], [37.273246, 55.899099], [37.274399, 55.898918], [37.275146, 55.898782], [37.275301, 55.898971], [37.275376, 55.899061], [37.275965, 55.898602], [37.276986, 55.898272], [37.277121, 55.898225], [37.277305, 55.898344], [37.277866, 55.898675], [37.278722, 55.89916], [37.280766, 55.900557], [37.280903, 55.900542], [37.281119, 55.900464], [37.281994, 55.899809], [37.282357, 55.899668], [37.282574, 55.899645], [37.283929, 55.899628], [37.284174, 55.899659], [37.284637, 55.899605], [37.284797, 55.899514], [37.284886, 55.89943], [37.285071, 55.897899], [37.285091, 55.897729], [37.285151, 55.897694], [37.285452, 55.897621], [37.28557, 55.897422], [37.292349, 55.897499], [37.293139, 55.897526], [37.293357, 55.897593], [37.293485, 55.897754], [37.293472, 55.898015], [37.293574, 55.8982], [37.293315, 55.898204], [37.292946, 55.898758], [37.292891, 55.899575], [37.292602, 55.899624], [37.292517, 55.89969], [37.292501, 55.900083], [37.292651, 55.900461], [37.292946, 55.900997], [37.29411, 55.902735], [37.294263, 55.902905], [37.29441, 55.903015], [37.294464, 55.903123], [37.294445, 55.90324], [37.294486, 55.903397], [37.29483, 55.904287], [37.295319, 55.905561], [37.295502, 55.905911], [37.295696, 55.906129], [37.296234, 55.906533], [37.297756, 55.907286], [37.298428, 55.907703], [37.298617, 55.907868], [37.298865, 55.908085], [37.299413, 55.908697], [37.299698, 55.909554], [37.299944, 55.909954], [37.300082, 55.910077], [37.300133, 55.910087], [37.300249, 55.910109], [37.302434, 55.909832], [37.302829, 55.909741], [37.303054, 55.90964], [37.304403, 55.909655], [37.304933, 55.909695], [37.305059, 55.910552], [37.305505, 55.911074], [37.31023, 55.910421], [37.315257, 55.90981], [37.315915, 55.909638], [37.319151, 55.906012], [37.32084, 55.904071], [37.320901, 55.903974], [37.321281, 55.903388], [37.321607, 55.902588], [37.324344, 55.896577], [37.324347, 55.896454], [37.324386, 55.894706], [37.332498, 55.893504], [37.333671, 55.893328], [37.334691, 55.893177], [37.336929, 55.892841], [37.34078, 55.892262], [37.341343, 55.892172], [37.34271, 55.891956], [37.345999, 55.891473], [37.346668, 55.891374], [37.347023, 55.891325], [37.347472, 55.891269], [37.348352, 55.891149], [37.348505, 55.891128], [37.349163, 55.891026], [37.34957, 55.890963], [37.349686, 55.890946], [37.349931, 55.890909], [37.349975, 55.890903], [37.351293, 55.890707], [37.352097, 55.890587], [37.35268, 55.890499], [37.353122, 55.890434], [37.353389, 55.890394], [37.353708, 55.890347], [37.354924, 55.890168], [37.35561, 55.890067], [37.357221, 55.88983], [37.3585, 55.889641], [37.359083, 55.889556], [37.359341, 55.889518], [37.361167, 55.889249], [37.361375, 55.889219], [37.361725, 55.889238], [37.361958, 55.88947], [37.362186, 55.889736], [37.362225, 55.889783], [37.362743, 55.890394], [37.363537, 55.891318], [37.363563, 55.891349], [37.36375, 55.891567], [37.364379, 55.8923], [37.364452, 55.892384], [37.364582, 55.89236], [37.364877, 55.892306], [37.36672, 55.891963], [37.368362, 55.891679], [37.36856, 55.891673], [37.368751, 55.891739], [37.369229, 55.892093], [37.369522, 55.892344], [37.369592, 55.892491], [37.369513, 55.893498], [37.369546, 55.893689], [37.369719, 55.893853], [37.369876, 55.893925], [37.370286, 55.894003], [37.37097, 55.89403], [37.371305, 55.894013], [37.371406, 55.894005], [37.371816, 55.893931], [37.372707, 55.893674], [37.373322, 55.893483], [37.373536, 55.893416], [37.37393, 55.893292], [37.374212, 55.89314], [37.374343, 55.892979], [37.374492, 55.892595], [37.374701, 55.892055], [37.374827, 55.891737], [37.374872, 55.891621], [37.374937, 55.891454], [37.374954, 55.89142], [37.375091, 55.891249], [37.375247, 55.891129], [37.375828, 55.890756], [37.375777, 55.890725], [37.375313, 55.890512], [37.375205, 55.890422], [37.375115, 55.890196], [37.374338, 55.889362], [37.374153, 55.889183], [37.374008, 55.889114], [37.373755, 55.88904], [37.373473, 55.888875], [37.373291, 55.888653], [37.373093, 55.888545], [37.372848, 55.888215], [37.372757, 55.887929], [37.372754, 55.887748], [37.372757, 55.887929], [37.372848, 55.888215], [37.373093, 55.888545], [37.373291, 55.888653], [37.373473, 55.888875], [37.373755, 55.88904], [37.374008, 55.889114], [37.374153, 55.889183], [37.374338, 55.889362], [37.375115, 55.890196], [37.375205, 55.890422], [37.375313, 55.890512], [37.375777, 55.890725], [37.375828, 55.890756], [37.377599, 55.889618], [37.3778, 55.889466], [37.378168, 55.888994], [37.378645, 55.888585], [37.378781, 55.888429], [37.378855, 55.888274], [37.378887, 55.888096], [37.37886, 55.887863], [37.378895, 55.887771], [37.379338, 55.887237], [37.379503, 55.887064], [37.379719, 55.886965], [37.379819, 55.88692], [37.382171, 55.886706], [37.383442, 55.886601], [37.385442, 55.886404], [37.388252, 55.88616], [37.389337, 55.886058], [37.389835, 55.886011], [37.39233, 55.885777], [37.39261, 55.885743], [37.392796, 55.885731], [37.393291, 55.885685], [37.394976, 55.88554], [37.396801, 55.885376], [37.399529, 55.885132], [37.403171, 55.884793], [37.403866, 55.884728], [37.404602, 55.884662], [37.406734, 55.884466], [37.406991, 55.884442], [37.407608, 55.884386], [37.408529, 55.884302], [37.409284, 55.884236], [37.409378, 55.884227], [37.409584, 55.884209], [37.409753, 55.884195], [37.409844, 55.884186], [37.409935, 55.88418], [37.410289, 55.884156], [37.410448, 55.884147], [37.411152, 55.884105], [37.411442, 55.884039], [37.412006, 55.883954], [37.412264, 55.883931], [37.41235, 55.883923], [37.412336, 55.883856], [37.414268, 55.883663], [37.414309, 55.883648], [37.414594, 55.883541], [37.415544, 55.882937], [37.415676, 55.882925], [37.416095, 55.882655], [37.41621, 55.882688], [37.416678, 55.88239], [37.4168, 55.882312], [37.417658, 55.88174], [37.419219, 55.880697], [37.419938, 55.880218], [37.419702, 55.880154], [37.418973, 55.879956], [37.418635, 55.879864], [37.418282, 55.879768], [37.418065, 55.879709], [37.41681, 55.879368], [37.416412, 55.87926], [37.416261, 55.879218], [37.415767, 55.879084], [37.414631, 55.878775], [37.41424, 55.878641], [37.408218, 55.875589], [37.407025, 55.874986], [37.406289, 55.874609], [37.406098, 55.874529], [37.405526, 55.874285], [37.404384, 55.873668], [37.404246, 55.873578], [37.403171, 55.872863], [37.402119, 55.872155], [37.401844, 55.871966], [37.401646, 55.87183], [37.400916, 55.871313], [37.399618, 55.870457], [37.399123, 55.870131], [37.396906, 55.868669], [37.396727, 55.868549], [37.395784, 55.867915], [37.395488, 55.867712], [37.395025, 55.867394], [37.394928, 55.867328], [37.394819, 55.867253], [37.392446, 55.865626], [37.391823, 55.865199], [37.39173, 55.865137], [37.391677, 55.865099], [37.389795, 55.863822], [37.389142, 55.863436], [37.389017, 55.863399], [37.386876, 55.862989], [37.386628, 55.862932], [37.386426, 55.862859], [37.386203, 55.862741], [37.3858, 55.862434], [37.385591, 55.862324], [37.385243, 55.862234], [37.384944, 55.862164], [37.384689, 55.862057], [37.384487, 55.861838], [37.384438, 55.861573], [37.384443, 55.861183], [37.384488, 55.860156], [37.384553, 55.859912], [37.384746, 55.859527], [37.385764, 55.858058], [37.386096, 55.857576], [37.386169, 55.857484], [37.386801, 55.856869], [37.387058, 55.85664], [37.387084, 55.856617], [37.387739, 55.856044], [37.388337, 55.855586], [37.388639, 55.855408], [37.389489, 55.855053], [37.390103, 55.854746], [37.390649, 55.854473], [37.390905, 55.854346], [37.391644, 55.853982], [37.392131, 55.853711], [37.392316, 55.853545], [37.392544, 55.85324], [37.392659, 55.852911], [37.392528, 55.852537], [37.392146, 55.852239], [37.391402, 55.851841], [37.391145, 55.851754], [37.39081, 55.851679], [37.390256, 55.851586], [37.388902, 55.851509], [37.388499, 55.851486], [37.388171, 55.851446], [37.387796, 55.851345], [37.387621, 55.851276], [37.387355, 55.851113], [37.387224, 55.850988], [37.386548, 55.85024], [37.385975, 55.849621], [37.385595, 55.849272], [37.3852, 55.848866], [37.384622, 55.848452], [37.383369, 55.847727], [37.382919, 55.847476], [37.382859, 55.847442], [37.382703, 55.847355], [37.381883, 55.846949], [37.380605, 55.846359], [37.380002, 55.846088], [37.379773, 55.845977], [37.379269, 55.845721], [37.378995, 55.84558], [37.378331, 55.845237], [37.378115, 55.845104], [37.377985, 55.845011], [37.377607, 55.844691], [37.377358, 55.844805], [37.377327, 55.84482], [37.376303, 55.845326], [37.375753, 55.845599], [37.375558, 55.845695], [37.375371, 55.845788], [37.37528, 55.845734], [37.37511, 55.845642], [37.374966, 55.845574], [37.374993, 55.845493], [37.375075, 55.845453], [37.374228, 55.844872], [37.373718, 55.844529], [37.373427, 55.844333], [37.373183, 55.844169], [37.3725, 55.8437], [37.372372, 55.843645], [37.371404, 55.843493], [37.371178, 55.843389], [37.371095, 55.843329], [37.370981, 55.84338], [37.370557, 55.843077], [37.370423, 55.842981], [37.370318, 55.842926], [37.369981, 55.843085], [37.369826, 55.843158], [37.369548, 55.842966], [37.369421, 55.842868], [37.36917, 55.842734], [37.368978, 55.842641], [37.368699, 55.842769], [37.36803, 55.843072], [37.367356, 55.843368], [37.366645, 55.843659], [37.365683, 55.844057], [37.365581, 55.844095], [37.365376, 55.844172], [37.364993, 55.844317], [37.364666, 55.84444], [37.364339, 55.844563], [37.364102, 55.844655], [37.364063, 55.844623], [37.364014, 55.844583], [37.363843, 55.84465], [37.3638, 55.844667], [37.363615, 55.844741], [37.363558, 55.844763], [37.363931, 55.845061], [37.363417, 55.845272], [37.363282, 55.845328], [37.362225, 55.845754]]}}]}