{"type": "FeatureCollection", "features": [{"type": "Feature", "properties": {"name": "Красногорск 02", "source": "/gps/velo/krasnogorsk.02.gpx", "points": 357}, "geometry": {"type": "LineString", "coordinates": [[37.302597, 55.831978], [37.302442, 55.83208], [37.302585, 55.832146], [37.302763, 55.832022], [37.303421, 55.831568], [37.303251, 55.831451], [37.303185, 55.831406], [37.302628, 55.831092], [37.30245, 55.830995], [37.302402, 55.830969], [37.302091, 55.830805], [37.301946, 55.830727], [37.301737, 55.830615], [37.301624, 55.830555], [37.30153, 55.830505], [37.301298, 55.830382], [37.300976, 55.830211], [37.300871, 55.830157], [37.300468, 55.829942], [37.300335, 55.829872], [37.300149, 55.829771], [37.300066, 55.829726], [37.299835, 55.829601], [37.299415, 55.829374], [37.299313, 55.829318], [37.298792, 55.829046], [37.298606, 55.828989], [37.2984, 55.828961], [37.298358, 55.828852], [37.298278, 55.828801], [37.297523, 55.828384], [37.296224, 55.827746], [37.295514, 55.827476], [37.295478, 55.827464], [37.294873, 55.827367], [37.29488, 55.827327], [37.294825, 55.82727], [37.294702, 55.827115], [37.294687, 55.827032], [37.294708, 55.826938], [37.294933, 55.826656], [37.295161, 55.826455], [37.295447, 55.826325], [37.296073, 55.826097], [37.296594, 55.825865], [37.296964, 55.825759], [37.297785, 55.825646], [37.298181, 55.825565], [37.298828, 55.825402], [37.299569, 55.825154], [37.299662, 55.825136], [37.300245, 55.824969], [37.300584, 55.82481], [37.301422, 55.824295], [37.301827, 55.82404], [37.301907, 55.823989], [37.30321, 55.823167], [37.305492, 55.821728], [37.306625, 55.821013], [37.307242, 55.820483], [37.307496, 55.820211], [37.307623, 55.819856], [37.307623, 55.819826], [37.307585, 55.819634], [37.307527, 55.819389], [37.307317, 55.819093], [37.307301, 55.818852], [37.307507, 55.818422], [37.307838, 55.81773], [37.307973, 55.817295], [37.308008, 55.817235], [37.307987, 55.817177], [37.307888, 55.817129], [37.307861, 55.817072], [37.307898, 55.817012], [37.308137, 55.81692], [37.308407, 55.816816], [37.30855, 55.816751], [37.308476, 55.816702], [37.30838, 55.816638], [37.308039, 55.81641], [37.307598, 55.816127], [37.307286, 55.815967], [37.306613, 55.815665], [37.305868, 55.815141], [37.305475, 55.814863], [37.305136, 55.814599], [37.304983, 55.814431], [37.305194, 55.814303], [37.305237, 55.814281], [37.305252, 55.814273], [37.305396, 55.814204], [37.306108, 55.813852], [37.306191, 55.81381], [37.306292, 55.813759], [37.306833, 55.813486], [37.307024, 55.813391], [37.307382, 55.813218], [37.307733, 55.813045], [37.3079, 55.812965], [37.307853, 55.812934], [37.307833, 55.812929], [37.307276, 55.812759], [37.307232, 55.812733], [37.307154, 55.812651], [37.307108, 55.812616], [37.307118, 55.812578], [37.307305, 55.812459], [37.307398, 55.812374], [37.307424, 55.812296], [37.30741, 55.812264], [37.307399, 55.812242], [37.306826, 55.811745], [37.305801, 55.812065], [37.305633, 55.812119], [37.305272, 55.812179], [37.304877, 55.812016], [37.304428, 55.811678], [37.303303, 55.810827], [37.301982, 55.809992], [37.301876, 55.809727], [37.301868, 55.809578], [37.301538, 55.809563], [37.3014, 55.809551], [37.301329, 55.809536], [37.300994, 55.808975], [37.300815, 55.808847], [37.30052, 55.808725], [37.299944, 55.808548], [37.299565, 55.80844], [37.299144, 55.808337], [37.29886, 55.808213], [37.298663, 55.808056], [37.298584, 55.807871], [37.298618, 55.807661], [37.298728, 55.807422], [37.298836, 55.807175], [37.298848, 55.807005], [37.298767, 55.806632], [37.298697, 55.806312], [37.298458, 55.805212], [37.298395, 55.805095], [37.2983, 55.80501], [37.297976, 55.804844], [37.297268, 55.804711], [37.297075, 55.804682], [37.293543, 55.80406], [37.293378, 55.804029], [37.292376, 55.803844], [37.291336, 55.803513], [37.290628, 55.803366], [37.290599, 55.803348], [37.290009, 55.803038], [37.289314, 55.803376], [37.288553, 55.803687], [37.287356, 55.804142], [37.286979, 55.804339], [37.286811, 55.804471], [37.286562, 55.804792], [37.286499, 55.804893], [37.286236, 55.805133], [37.285961, 55.805291], [37.285093, 55.805677], [37.284008, 55.805328], [37.28382, 55.805226], [37.283395, 55.804916], [37.283197, 55.804822], [37.283054, 55.804779], [37.277259, 55.804183], [37.276229, 55.804179], [37.275902, 55.804137], [37.275318, 55.80401], [37.274671, 55.803915], [37.270102, 55.80341], [37.269835, 55.803361], [37.269639, 55.803297], [37.269477, 55.803447], [37.268952, 55.803681], [37.268645, 55.803764], [37.268449, 55.803786], [37.268175, 55.80378], [37.267762, 55.803722], [37.265877, 55.803303], [37.265294, 55.80327], [37.264795, 55.803315], [37.264232, 55.803427], [37.261206, 55.804268], [37.2607, 55.804459], [37.260292, 55.804708], [37.259903, 55.80497], [37.259588, 55.805141], [37.259029, 55.805344], [37.249347, 55.807988], [37.245298, 55.809096], [37.244873, 55.809208], [37.241977, 55.809998], [37.241756, 55.809881], [37.241549, 55.809848], [37.241319, 55.80989], [37.238062, 55.810766], [37.236913, 55.811089], [37.234222, 55.811824], [37.231375, 55.812616], [37.224921, 55.814371], [37.223756, 55.814692], [37.217402, 55.816453], [37.21685, 55.816607], [37.214548, 55.817247], [37.214366, 55.817273], [37.214548, 55.817247], [37.21685, 55.816607], [37.217402, 55.816453], [37.223756, 55.814692], [37.224921, 55.814371], [37.231375, 55.812616], [37.234222, 55.811824], [37.236913, 55.811089], [37.238062, 55.810766], [37.241319, 55.80989], [37.241549, 55.809848], [37.241756, 55.809881], [37.241977, 55.809998], [37.241713, 55.810137], [37.24166, 55.81019], [37.241542, 55.810308], [37.241465, 55.810631], [37.241486, 55.810799], [37.241536, 55.810946], [37.241648, 55.811075], [37.241862, 55.811212], [37.242093, 55.811324], [37.242545, 55.811472], [37.242593, 55.811563], [37.244147, 55.811819], [37.244382, 55.811858], [37.244818, 55.81193], [37.245444, 55.812033], [37.245828, 55.812085], [37.245875, 55.812134], [37.246222, 55.812808], [37.246278, 55.812914], [37.246411, 55.813182], [37.246432, 55.813223], [37.246806, 55.813926], [37.247146, 55.814578], [37.24726, 55.814787], [37.247402, 55.815078], [37.24758, 55.815177], [37.248014, 55.815747], [37.248336, 55.816323], [37.248466, 55.816608], [37.248802, 55.817296], [37.248951, 55.817599], [37.249082, 55.817881], [37.249149, 55.81815], [37.249032, 55.818493], [37.248932, 55.818848], [37.249048, 55.819437], [37.249114, 55.819736], [37.249285, 55.820399], [37.249361, 55.820694], [37.249547, 55.821489], [37.249586, 55.821646], [37.249811, 55.821621], [37.25026, 55.821571], [37.251418, 55.82142], [37.25197, 55.82135], [37.252212, 55.82191], [37.252301, 55.822154], [37.252328, 55.822289], [37.253102, 55.82203], [37.254456, 55.821584], [37.254572, 55.82156], [37.254819, 55.821553], [37.255164, 55.821607], [37.25588, 55.821772], [37.256604, 55.82194], [37.257559, 55.822162], [37.258353, 55.822346], [37.259959, 55.82273], [37.26, 55.82274], [37.260665, 55.822894], [37.260854, 55.822938], [37.262074, 55.82322], [37.262455, 55.823309], [37.262577, 55.823336], [37.263356, 55.823518], [37.263823, 55.823626], [37.264111, 55.823698], [37.264339, 55.823765], [37.265154, 55.824009], [37.265193, 55.824021], [37.266619, 55.824502], [37.267287, 55.824722], [37.267839, 55.824906], [37.268474, 55.825115], [37.270061, 55.825641], [37.270337, 55.825739], [37.270655, 55.825874], [37.272525, 55.826759], [37.274597, 55.827573], [37.275384, 55.827825], [37.277337, 55.828339], [37.278182, 55.828587], [37.278873, 55.82883], [37.279309, 55.829036], [37.279483, 55.829163], [37.279598, 55.829318], [37.279641, 55.829461], [37.279816, 55.830205], [37.279938, 55.830752], [37.279977, 55.830935], [37.280066, 55.831341], [37.280139, 55.831658], [37.28025, 55.832221], [37.280285, 55.832372], [37.280331, 55.832566], [37.280364, 55.832714], [37.280528, 55.833442], [37.280582, 55.833683], [37.280541, 55.833742], [37.281179, 55.833935], [37.282038, 55.83419], [37.28231, 55.834267], [37.282351, 55.834282], [37.283957, 55.834734], [37.285499, 55.835153], [37.28789, 55.835863], [37.290822, 55.836683], [37.291495, 55.836787], [37.291888, 55.836765], [37.292194, 55.836709], [37.29306, 55.836544], [37.293103, 55.83661], [37.292998, 55.83663], [37.293052, 55.836721], [37.292713, 55.836783], [37.292521, 55.836819], [37.292525, 55.836882], [37.292521, 55.836819], [37.292713, 55.836783], [37.293052, 55.836721], [37.29316, 55.836701], [37.293125, 55.836645], [37.293103, 55.83661], [37.29306, 55.836544], [37.294015, 55.83636], [37.296201, 55.835915], [37.296899, 55.835715], [37.297415, 55.835528], [37.297658, 55.835417], [37.29818, 55.835111], [37.298941, 55.834601], [37.300698, 55.833423], [37.302585, 55.832146], [37.302442, 55.83208], [37.302597, 55.831978]]}}]}