{"type": "FeatureCollection", "features": [{"type": "Feature", "properties": {"name": "Мытищи 01", "source": "/gps/velo/mytishchi.01.gpx", "points": 661}, "geometry": {"type": "LineString", "coordinates": [[37.742433, 55.900794], [37.7425, 55.900841], [37.7423, 55.900931], [37.742225, 55.900967], [37.742397, 55.901082], [37.742573, 55.901201], [37.742545, 55.901213], [37.742457, 55.90126], [37.74286, 55.901513], [37.742821, 55.901536], [37.742907, 55.901618], [37.742893, 55.901711], [37.743045, 55.901753], [37.743185, 55.901824], [37.743956, 55.902357], [37.744028, 55.902405], [37.74479, 55.902933], [37.74604, 55.903776], [37.746539, 55.904143], [37.7466, 55.904188], [37.74739, 55.904722], [37.747481, 55.904783], [37.746127, 55.905724], [37.745917, 55.905767], [37.745706, 55.905732], [37.745488, 55.905665], [37.745348, 55.905651], [37.74516, 55.905676], [37.744839, 55.905786], [37.744148, 55.906128], [37.743979, 55.906212], [37.743807, 55.906302], [37.743283, 55.906588], [37.742946, 55.906768], [37.741691, 55.907483], [37.740821, 55.907978], [37.740544, 55.908133], [37.740422, 55.908203], [37.73977, 55.908578], [37.73876, 55.909148], [37.737759, 55.909717], [37.737628, 55.909792], [37.73658, 55.910377], [37.736431, 55.91048], [37.736286, 55.910584], [37.735737, 55.910895], [37.735367, 55.911105], [37.734911, 55.911363], [37.733842, 55.911976], [37.732818, 55.912557], [37.732661, 55.912646], [37.732546, 55.912712], [37.730211, 55.914049], [37.730103, 55.914111], [37.729984, 55.914179], [37.727139, 55.915787], [37.727002, 55.915865], [37.726949, 55.915895], [37.726152, 55.916346], [37.726011, 55.916428], [37.725836, 55.916577], [37.725783, 55.916664], [37.725768, 55.916957], [37.725733, 55.917115], [37.725592, 55.917254], [37.725324, 55.917362], [37.725094, 55.917394], [37.72473, 55.91748], [37.724606, 55.917533], [37.72337, 55.918224], [37.723173, 55.918332], [37.721368, 55.919348], [37.720746, 55.919697], [37.717838, 55.921333], [37.71707, 55.921661], [37.716661, 55.921809], [37.715795, 55.922033], [37.715561, 55.922083], [37.715221, 55.922147], [37.714937, 55.922184], [37.714375, 55.922247], [37.714273, 55.922257], [37.713457, 55.922287], [37.712602, 55.922265], [37.711681, 55.922199], [37.7114, 55.922214], [37.711298, 55.92225], [37.711089, 55.922254], [37.71094, 55.922222], [37.710825, 55.922146], [37.71061, 55.922088], [37.710195, 55.922026], [37.709175, 55.92192], [37.708113, 55.921861], [37.707396, 55.921865], [37.707218, 55.9219], [37.706997, 55.922053], [37.707254, 55.922177], [37.707716, 55.922404], [37.707599, 55.922483], [37.707465, 55.922564], [37.707355, 55.922684], [37.707337, 55.922735], [37.707122, 55.922874], [37.707016, 55.922856], [37.706748, 55.92272], [37.706657, 55.922704], [37.705977, 55.922738], [37.705327, 55.922486], [37.705228, 55.922469], [37.704441, 55.922364], [37.704133, 55.922436], [37.704047, 55.922471], [37.704133, 55.922436], [37.704441, 55.922364], [37.704404, 55.92228], [37.70425, 55.922191], [37.70413, 55.922149], [37.703651, 55.922055], [37.703208, 55.922016], [37.702714, 55.921971], [37.702081, 55.921837], [37.701891, 55.921752], [37.701779, 55.921665], [37.701456, 55.921645], [37.700588, 55.921569], [37.698052, 55.921289], [37.696422, 55.921136], [37.69375, 55.920897], [37.690986, 55.920651], [37.690664, 55.920621], [37.689511, 55.920524], [37.687179, 55.920377], [37.686485, 55.920337], [37.685722, 55.920259], [37.68501, 55.920141], [37.684361, 55.919989], [37.683853, 55.919841], [37.683154, 55.919581], [37.682542, 55.919284], [37.681861, 55.91885], [37.681068, 55.918221], [37.680249, 55.917493], [37.679819, 55.917111], [37.678681, 55.916099], [37.677927, 55.915429], [37.677705, 55.915232], [37.676952, 55.914563], [37.676593, 55.914498], [37.676204, 55.914459], [37.675598, 55.91471], [37.674791, 55.914293], [37.674651, 55.914223], [37.674437, 55.914112], [37.67422, 55.914003], [37.674008, 55.913897], [37.673809, 55.913798], [37.67363, 55.913677], [37.673422, 55.913518], [37.673098, 55.913452], [37.672886, 55.913475], [37.672751, 55.913549], [37.67259, 55.913718], [37.672472, 55.913858], [37.672314, 55.913978], [37.672134, 55.9141], [37.671945, 55.914236], [37.67182, 55.914357], [37.671665, 55.914507], [37.671508, 55.914619], [37.671338, 55.914732], [37.67117, 55.914847], [37.671, 55.914961], [37.670783, 55.915107], [37.670603, 55.915229], [37.670443, 55.915336], [37.670258, 55.915461], [37.670052, 55.915601], [37.669912, 55.915696], [37.669863, 55.915802], [37.669759, 55.915999], [37.66956, 55.916103], [37.669424, 55.91622], [37.669399, 55.916241], [37.66934, 55.916374], [37.669389, 55.916556], [37.669449, 55.916631], [37.670257, 55.917011], [37.669593, 55.917495], [37.668429, 55.917039], [37.668149, 55.916942], [37.667656, 55.916897], [37.667398, 55.91697], [37.667291, 55.917048], [37.667093, 55.917326], [37.664036, 55.921605], [37.663206, 55.922763], [37.662911, 55.923172], [37.662313, 55.924082], [37.661977, 55.924695], [37.661665, 55.925293], [37.661518, 55.925585], [37.661432, 55.92575], [37.660977, 55.926499], [37.66062, 55.92699], [37.660253, 55.927542], [37.659494, 55.928661], [37.659174, 55.929256], [37.6591, 55.929392], [37.658936, 55.929715], [37.658713, 55.930227], [37.658464, 55.931196], [37.6582, 55.932643], [37.657915, 55.93371], [37.65633, 55.937852], [37.656234, 55.938101], [37.655719, 55.939394], [37.654729, 55.942245], [37.654655, 55.942717], [37.654584, 55.944346], [37.654543, 55.945692], [37.654539, 55.94584], [37.654367, 55.945861], [37.65398, 55.945957], [37.653801, 55.948068], [37.65375, 55.948884], [37.653289, 55.949929], [37.652825, 55.950482], [37.652774, 55.950637], [37.652806, 55.950702], [37.65289, 55.950751], [37.653063, 55.950631], [37.65322, 55.950509], [37.653643, 55.950074], [37.653908, 55.949701], [37.654103, 55.949346], [37.654227, 55.948558], [37.654292, 55.947311], [37.654358, 55.946035], [37.654529, 55.946035], [37.654396, 55.948581], [37.65424, 55.949357], [37.654138, 55.950158], [37.65395, 55.950747], [37.653006, 55.952999], [37.652807, 55.95363], [37.652721, 55.954258], [37.652743, 55.954858], [37.652915, 55.955285], [37.653151, 55.95557], [37.653467, 55.955824], [37.653828, 55.956047], [37.65476, 55.956342], [37.659856, 55.957273], [37.660832, 55.957429], [37.665346, 55.95815], [37.665874, 55.958235], [37.666546, 55.958346], [37.665805, 55.958711], [37.66301, 55.959919], [37.662839, 55.960087], [37.662823, 55.960225], [37.662925, 55.960366], [37.663043, 55.960495], [37.663059, 55.960651], [37.662892, 55.960837], [37.662624, 55.96102], [37.662377, 55.961084], [37.662029, 55.961093], [37.661731, 55.961037], [37.662073, 55.961179], [37.661997, 55.961237], [37.663136, 55.961713], [37.664585, 55.962319], [37.664682, 55.962257], [37.664868, 55.962333], [37.6652, 55.962471], [37.665884, 55.96275], [37.666771, 55.963112], [37.66806, 55.963639], [37.669716, 55.964328], [37.671291, 55.964986], [37.672837, 55.965632], [37.673126, 55.965753], [37.673561, 55.965943], [37.673999, 55.96613], [37.674867, 55.966501], [37.675287, 55.966727], [37.675582, 55.966935], [37.675786, 55.967144], [37.675871, 55.967133], [37.676122, 55.9671], [37.676392, 55.967115], [37.677358, 55.967217], [37.677623, 55.967272], [37.677588, 55.96747], [37.677518, 55.96799], [37.677499, 55.968134], [37.677447, 55.968398], [37.677425, 55.968462], [37.677368, 55.968588], [37.677248, 55.969719], [37.677267, 55.971168], [37.677291, 55.971277], [37.677547, 55.972115], [37.67728, 55.972161], [37.677125, 55.972219], [37.677076, 55.972263], [37.677116, 55.97248], [37.677076, 55.972263], [37.677125, 55.972219], [37.67728, 55.972161], [37.677547, 55.972115], [37.678972, 55.972027], [37.679951, 55.972003], [37.679639, 55.970875], [37.679771, 55.970735], [37.68023, 55.970673], [37.68045, 55.970597], [37.680424, 55.970295], [37.680512, 55.970101], [37.680677, 55.969912], [37.680813, 55.96968], [37.680991, 55.968944], [37.681025, 55.968769], [37.683567, 55.96898], [37.685837, 55.969175], [37.68597, 55.969186], [37.68932, 55.96947], [37.689433, 55.96948], [37.689801, 55.969513], [37.690633, 55.969587], [37.691972, 55.969706], [37.696001, 55.970037], [37.696905, 55.970114], [37.697852, 55.970185], [37.698736, 55.970204], [37.702086, 55.970023], [37.706569, 55.969768], [37.708917, 55.969629], [37.710653, 55.969526], [37.711917, 55.969474], [37.712013, 55.969473], [37.712182, 55.969409], [37.712225, 55.969378], [37.712384, 55.969354], [37.712493, 55.969389], [37.712537, 55.969471], [37.712717, 55.969614], [37.712875, 55.969681], [37.71378, 55.970061], [37.714205, 55.970274], [37.714475, 55.97049], [37.714588, 55.970638], [37.71462, 55.970722], [37.715021, 55.971809], [37.715212, 55.97223], [37.715474, 55.972489], [37.715734, 55.97261], [37.716148, 55.972689], [37.716435, 55.972696], [37.716688, 55.972684], [37.717109, 55.972656], [37.719423, 55.972546], [37.719838, 55.972549], [37.720313, 55.972608], [37.720655, 55.972694], [37.721282, 55.972998], [37.721479, 55.973148], [37.721529, 55.973207], [37.721684, 55.973426], [37.721722, 55.973478], [37.721914, 55.973708], [37.722642, 55.974365], [37.722774, 55.974478], [37.723027, 55.97444], [37.727706, 55.97372], [37.72848, 55.973604], [37.728678, 55.973575], [37.728764, 55.973562], [37.729398, 55.973467], [37.732364, 55.973021], [37.735182, 55.972595], [37.735253, 55.972585], [37.735633, 55.972527], [37.735443, 55.972152], [37.736838, 55.971954], [37.737138, 55.971904], [37.738684, 55.971693], [37.740191, 55.971479], [37.739862, 55.970643], [37.739848, 55.970607], [37.740943, 55.970463], [37.74156, 55.970382], [37.741342, 55.970099], [37.74114, 55.969848], [37.74102, 55.969702], [37.740772, 55.969393], [37.740622, 55.969153], [37.740519, 55.968771], [37.740584, 55.96827], [37.740719, 55.967707], [37.740811, 55.967521], [37.741055, 55.96727], [37.741819, 55.966606], [37.742041, 55.966413], [37.742509, 55.966006], [37.742996, 55.965563], [37.743351, 55.965223], [37.74347, 55.965102], [37.743834, 55.964686], [37.74422, 55.964212], [37.74452, 55.96384], [37.745508, 55.962634], [37.74689, 55.960939], [37.747211, 55.960546], [37.747241, 55.960508], [37.747781, 55.959817], [37.748044, 55.959346], [37.748226, 55.958566], [37.748264, 55.958417], [37.748492, 55.957965], [37.749307, 55.956615], [37.749383, 55.956489], [37.74942, 55.956429], [37.749793, 55.955954], [37.750595, 55.955108], [37.750643, 55.95497], [37.750624, 55.954854], [37.750539, 55.954721], [37.750391, 55.954601], [37.750128, 55.954456], [37.749894, 55.954298], [37.749735, 55.954007], [37.749705, 55.953716], [37.749745, 55.953138], [37.749886, 55.952872], [37.750145, 55.95269], [37.750748, 55.952309], [37.750866, 55.952179], [37.751096, 55.951816], [37.751125, 55.951461], [37.751466, 55.949792], [37.751746, 55.947985], [37.751947, 55.945957], [37.752045, 55.944911], [37.752051, 55.944856], [37.752194, 55.943244], [37.75207, 55.943119], [37.751888, 55.943051], [37.751537, 55.943059], [37.751585, 55.942574], [37.751744, 55.942507], [37.751813, 55.942442], [37.751829, 55.942312], [37.751834, 55.942237], [37.751281, 55.94188], [37.751328, 55.941637], [37.750118, 55.94085], [37.748972, 55.940106], [37.747348, 55.939017], [37.746285, 55.938335], [37.745364, 55.937683], [37.743012, 55.936228], [37.742683, 55.936025], [37.742425, 55.935888], [37.742055, 55.935756], [37.741899, 55.935746], [37.741814, 55.935872], [37.741871, 55.936044], [37.742071, 55.940114], [37.746998, 55.940106], [37.747614, 55.940109], [37.74817, 55.940271], [37.748502, 55.940278], [37.748972, 55.940106], [37.750118, 55.94085], [37.751328, 55.941637], [37.751281, 55.94188], [37.751647, 55.942116], [37.751834, 55.942237], [37.751829, 55.942312], [37.751813, 55.942442], [37.751744, 55.942507], [37.751585, 55.942574], [37.751537, 55.943059], [37.751888, 55.943051], [37.752066, 55.943006], [37.752223, 55.942881], [37.752263, 55.94245], [37.752282, 55.942281], [37.752339, 55.941561], [37.752462, 55.940619], [37.752471, 55.939942], [37.752468, 55.939746], [37.752384, 55.939452], [37.752388, 55.939103], [37.752396, 55.93755], [37.752409, 55.936735], [37.752399, 55.934483], [37.752401, 55.934405], [37.752411, 55.933637], [37.75242, 55.933053], [37.752383, 55.932842], [37.752159, 55.932688], [37.751942, 55.932595], [37.75166, 55.932481], [37.751215, 55.932393], [37.750132, 55.932393], [37.749465, 55.932413], [37.748685, 55.932493], [37.747839, 55.932621], [37.746796, 55.932842], [37.746008, 55.933068], [37.744168, 55.933744], [37.743622, 55.933902], [37.742754, 55.934099], [37.742081, 55.934225], [37.742041, 55.934232], [37.741652, 55.934282], [37.741555, 55.934294], [37.740361, 55.934402], [37.73937, 55.934444], [37.737722, 55.934433], [37.736528, 55.934399], [37.734925, 55.934304], [37.73214, 55.934036], [37.729355, 55.933768], [37.728571, 55.933677], [37.727971, 55.933575], [37.727409, 55.933463], [37.726551, 55.933231], [37.726077, 55.933072], [37.725582, 55.932871], [37.725021, 55.932606], [37.724342, 55.932215], [37.723976, 55.931967], [37.723665, 55.931712], [37.723433, 55.931469], [37.722725, 55.930642], [37.722012, 55.929837], [37.721538, 55.929419], [37.720645, 55.928815], [37.720097, 55.928509], [37.719509, 55.928222], [37.716771, 55.926924], [37.714453, 55.92585], [37.713656, 55.925478], [37.711908, 55.924649], [37.711591, 55.924499], [37.711747, 55.924397], [37.711931, 55.924275], [37.712512, 55.923882], [37.713295, 55.92336], [37.713528, 55.923207], [37.713818, 55.923027], [37.714408, 55.92273], [37.714627, 55.922624], [37.714747, 55.922603], [37.71487, 55.922618], [37.715002, 55.922692], [37.715155, 55.922781], [37.715297, 55.922863], [37.715431, 55.922936], [37.715978, 55.923256], [37.717202, 55.92394], [37.717255, 55.923966], [37.717537, 55.924101], [37.717686, 55.924012], [37.718232, 55.923695], [37.718243, 55.923688], [37.718629, 55.923477], [37.718908, 55.923335], [37.71922, 55.923201], [37.719368, 55.92314], [37.719822, 55.922954], [37.720608, 55.92263], [37.720956, 55.922479], [37.721319, 55.922331], [37.722228, 55.921956], [37.722724, 55.921743], [37.722814, 55.921705], [37.723419, 55.92145], [37.723756, 55.921306], [37.723875, 55.921255], [37.72412, 55.921154], [37.724452, 55.921016], [37.724672, 55.920924], [37.724726, 55.920904], [37.726216, 55.920258], [37.727461, 55.919699], [37.72781, 55.919543], [37.728282, 55.919336], [37.728342, 55.919312], [37.728524, 55.919248], [37.729619, 55.918882], [37.730027, 55.918732], [37.730312, 55.91863], [37.730576, 55.918521], [37.731052, 55.918316], [37.731631, 55.917957], [37.731716, 55.917903], [37.73187, 55.917812], [37.732463, 55.917463], [37.732824, 55.917249], [37.733891, 55.916622], [37.734145, 55.916476], [37.734268, 55.916406], [37.734036, 55.916282], [37.733079, 55.915772], [37.733218, 55.915717], [37.735622, 55.914342], [37.734703, 55.913816], [37.734176, 55.913514], [37.733086, 55.91289], [37.732818, 55.912736], [37.732661, 55.912646], [37.732818, 55.912557], [37.733842, 55.911976], [37.734911, 55.911363], [37.735367, 55.911105], [37.735737, 55.910895], [37.736286, 55.910584], [37.736431, 55.91048], [37.73658, 55.910377], [37.737628, 55.909792], [37.737759, 55.909717], [37.73876, 55.909148], [37.73977, 55.908578], [37.740422, 55.908203], [37.740544, 55.908133], [37.740821, 55.907978], [37.741691, 55.907483], [37.742946, 55.906768], [37.743283, 55.906588], [37.743807, 55.906302], [37.744029, 55.90604], [37.744346, 55.905465], [37.744654, 55.905148], [37.744913, 55.904988], [37.745765, 55.904536], [37.7466, 55.904188], [37.746539, 55.904143], [37.74604, 55.903776], [37.74479, 55.902933], [37.744028, 55.902405], [37.743956, 55.902357], [37.743185, 55.901824], [37.743045, 55.901753], [37.742893, 55.901711], [37.742907, 55.901618], [37.742821, 55.901536], [37.74286, 55.901513], [37.742457, 55.90126], [37.742545, 55.901213], [37.742573, 55.901201], [37.742397, 55.901082], [37.742225, 55.900967], [37.7423, 55.900931], [37.7425, 55.900841], [37.742433, 55.900794]]}}]}