{"type": "FeatureCollection", "features": [{"type": "Feature", "properties": {"name": "Мытищи 02", "source": "/gps/velo/mytishchi.02.gpx", "points": 824}, "geometry": {"type": "LineString", "coordinates": [[37.724788, 55.8891], [37.726216, 55.890037], [37.72618, 55.890054], [37.72638, 55.890196], [37.726412, 55.890218], [37.726592, 55.890128], [37.72687, 55.890307], [37.727004, 55.890257], [37.727324, 55.890462], [37.728553, 55.890485], [37.728983, 55.890799], [37.729778, 55.891367], [37.730201, 55.89176], [37.730313, 55.891736], [37.730584, 55.891707], [37.73155, 55.89162], [37.732465, 55.891575], [37.733834, 55.891495], [37.73408, 55.891431], [37.734121, 55.891445], [37.734624, 55.891619], [37.735308, 55.891927], [37.735864, 55.892171], [37.737026, 55.891468], [37.736912, 55.891278], [37.736942, 55.891228], [37.73974, 55.889774], [37.739578, 55.889667], [37.73937, 55.88954], [37.739325, 55.889534], [37.739058, 55.889375], [37.740009, 55.888848], [37.739758, 55.888707], [37.739708, 55.88868], [37.739742, 55.888658], [37.739763, 55.888645], [37.739823, 55.888607], [37.740904, 55.889133], [37.742463, 55.888006], [37.74255, 55.888049], [37.744599, 55.889092], [37.746269, 55.889907], [37.746988, 55.890257], [37.748458, 55.889182], [37.748904, 55.889344], [37.749343, 55.889471], [37.749333, 55.889677], [37.749343, 55.889471], [37.751773, 55.887671], [37.751918, 55.887599], [37.75233, 55.888487], [37.754219, 55.888265], [37.755571, 55.88853], [37.756109, 55.888633], [37.756797, 55.888735], [37.757043, 55.888773], [37.757327, 55.888835], [37.757765, 55.888869], [37.758433, 55.888816], [37.761824, 55.888498], [37.761893, 55.888567], [37.76257, 55.888748], [37.762545, 55.888818], [37.762373, 55.889297], [37.762324, 55.889436], [37.76213, 55.890026], [37.762038, 55.89031], [37.764584, 55.890642], [37.764474, 55.891584], [37.764459, 55.891981], [37.76434, 55.892685], [37.765963, 55.892868], [37.766061, 55.892951], [37.766013, 55.893255], [37.765669, 55.893465], [37.76543, 55.894004], [37.765526, 55.894143], [37.76793, 55.894385], [37.768349, 55.894529], [37.768795, 55.894563], [37.770971, 55.894749], [37.771891, 55.894828], [37.772047, 55.89484], [37.772118, 55.894846], [37.772861, 55.89491], [37.77616, 55.895191], [37.776975, 55.895403], [37.777001, 55.895584], [37.777008, 55.895628], [37.776462, 55.896389], [37.776445, 55.896454], [37.77654, 55.896521], [37.777307, 55.896736], [37.777133, 55.897003], [37.776975, 55.897339], [37.776963, 55.897512], [37.777295, 55.897708], [37.778273, 55.898154], [37.779765, 55.898846], [37.77989, 55.898937], [37.781342, 55.900735], [37.785951, 55.899572], [37.78746, 55.899241], [37.789715, 55.898746], [37.792274, 55.898102], [37.792603, 55.898015], [37.792801, 55.897916], [37.793543, 55.897547], [37.794056, 55.897324], [37.794476, 55.897889], [37.796519, 55.89774], [37.801388, 55.897385], [37.80165, 55.897324], [37.801759, 55.897322], [37.805613, 55.897365], [37.80992, 55.897346], [37.813303, 55.89736], [37.818173, 55.897353], [37.818217, 55.897533], [37.818192, 55.898418], [37.818134, 55.902121], [37.818483, 55.902122], [37.82121, 55.902128], [37.826381, 55.902144], [37.834917, 55.902113], [37.837191, 55.902085], [37.840224, 55.90211], [37.842005, 55.902088], [37.842233, 55.902194], [37.842651, 55.902082], [37.842732, 55.902242], [37.842928, 55.902399], [37.843302, 55.90254], [37.845342, 55.902192], [37.845945, 55.902092], [37.850925, 55.901257], [37.857075, 55.900256], [37.857351, 55.900258], [37.857659, 55.900321], [37.857865, 55.90032], [37.858133, 55.900421], [37.858232, 55.900398], [37.858347, 55.900331], [37.858362, 55.900125], [37.859317, 55.89998], [37.861444, 55.899659], [37.870069, 55.898205], [37.871128, 55.898029], [37.872759, 55.89776], [37.87335, 55.897948], [37.874225, 55.897974], [37.875006, 55.897687], [37.875535, 55.897305], [37.882366, 55.896178], [37.885372, 55.895663], [37.885955, 55.895562], [37.889997, 55.894928], [37.890807, 55.894853], [37.89406, 55.894324], [37.89585, 55.893947], [37.897419, 55.893345], [37.89752, 55.893298], [37.898311, 55.892926], [37.901023, 55.891679], [37.902412, 55.891037], [37.904299, 55.890164], [37.905732, 55.889374], [37.906586, 55.888727], [37.907229, 55.88807], [37.907616, 55.887461], [37.907713, 55.887177], [37.907859, 55.886751], [37.907953, 55.886052], [37.907912, 55.885761], [37.907635, 55.885083], [37.907095, 55.881664], [37.906743, 55.881103], [37.90585, 55.880053], [37.904799, 55.879262], [37.903051, 55.879955], [37.901891, 55.880037], [37.901577, 55.880015], [37.901224, 55.879886], [37.900705, 55.879628], [37.897908, 55.877702], [37.897226, 55.877338], [37.896364, 55.877015], [37.895687, 55.876599], [37.895408, 55.876497], [37.894807, 55.87635], [37.893736, 55.876155], [37.893301, 55.876026], [37.892017, 55.8758], [37.891366, 55.87566], [37.891051, 55.87573], [37.890356, 55.876227], [37.890143, 55.876259], [37.889913, 55.876206], [37.888919, 55.875851], [37.888064, 55.875646], [37.887371, 55.875423], [37.886766, 55.875166], [37.886194, 55.875073], [37.885496, 55.874926], [37.884297, 55.874569], [37.883562, 55.874416], [37.882009, 55.874022], [37.881731, 55.873936], [37.881523, 55.873836], [37.879858, 55.873444], [37.878774, 55.873191], [37.876219, 55.872648], [37.875854, 55.872634], [37.874976, 55.872477], [37.874073, 55.872205], [37.87215, 55.871837], [37.871737, 55.871798], [37.871295, 55.871722], [37.870916, 55.871632], [37.870614, 55.871549], [37.870257, 55.871334], [37.870026, 55.871246], [37.869492, 55.87112], [37.869157, 55.871128], [37.868561, 55.87098], [37.868411, 55.870881], [37.867961, 55.870793], [37.867888, 55.870781], [37.8676, 55.870711], [37.867557, 55.870475], [37.867311, 55.870159], [37.867198, 55.869803], [37.867269, 55.86962], [37.867458, 55.869392], [37.867517, 55.869241], [37.867711, 55.869038], [37.867786, 55.868818], [37.867717, 55.868531], [37.867783, 55.868419], [37.867934, 55.868339], [37.868031, 55.868207], [37.868601, 55.867822], [37.86878, 55.86764], [37.868963, 55.867513], [37.869208, 55.867347], [37.869391, 55.866934], [37.869664, 55.866155], [37.869872, 55.865794], [37.870924, 55.864292], [37.871321, 55.863724], [37.871331, 55.86342], [37.871653, 55.863239], [37.871967, 55.862752], [37.872755, 55.861666], [37.873012, 55.861373], [37.873187, 55.861236], [37.873208, 55.861208], [37.873246, 55.861077], [37.873291, 55.861041], [37.873747, 55.860796], [37.874899, 55.860432], [37.875345, 55.860231], [37.876557, 55.859812], [37.876991, 55.859742], [37.876838, 55.859558], [37.877031, 55.859372], [37.876977, 55.859275], [37.875486, 55.858089], [37.874806, 55.857495], [37.875063, 55.857358], [37.875159, 55.857083], [37.875141, 55.856899], [37.874894, 55.856723], [37.874489, 55.856548], [37.874381, 55.856453], [37.874119, 55.855939], [37.874024, 55.855835], [37.873845, 55.855712], [37.871833, 55.854037], [37.871573, 55.853734], [37.870827, 55.853203], [37.87027, 55.852998], [37.869371, 55.852117], [37.868594, 55.851684], [37.868086, 55.851275], [37.867213, 55.850371], [37.866817, 55.850188], [37.866371, 55.849865], [37.866246, 55.849613], [37.865966, 55.849336], [37.865229, 55.848856], [37.864971, 55.848772], [37.86377, 55.848015], [37.863187, 55.847733], [37.862859, 55.847625], [37.862156, 55.847468], [37.861013, 55.847328], [37.860609, 55.847243], [37.860355, 55.84724], [37.859949, 55.846864], [37.859596, 55.846286], [37.858833, 55.845957], [37.857908, 55.845492], [37.857079, 55.845305], [37.856742, 55.845155], [37.856403, 55.844979], [37.856057, 55.844889], [37.855783, 55.844776], [37.855341, 55.844445], [37.855115, 55.844116], [37.855003, 55.844021], [37.854823, 55.84391], [37.854673, 55.843841], [37.854029, 55.843634], [37.853753, 55.843564], [37.853099, 55.843255], [37.852795, 55.843065], [37.85238, 55.842947], [37.849996, 55.842021], [37.849833, 55.841882], [37.849644, 55.841625], [37.849359, 55.841438], [37.849145, 55.841255], [37.849137, 55.841071], [37.849035, 55.840905], [37.84848, 55.840317], [37.848297, 55.839934], [37.848077, 55.839606], [37.847707, 55.839416], [37.84705, 55.838767], [37.846961, 55.83858], [37.846797, 55.838441], [37.846597, 55.838288], [37.84614, 55.838102], [37.845861, 55.837936], [37.845615, 55.837952], [37.845091, 55.837691], [37.842952, 55.836376], [37.841847, 55.83575], [37.841704, 55.835639], [37.841505, 55.835483], [37.840434, 55.834922], [37.837534, 55.833352], [37.836594, 55.832903], [37.83571, 55.832546], [37.835074, 55.832293], [37.832337, 55.83134], [37.830514, 55.830661], [37.830362, 55.830604], [37.830096, 55.830508], [37.829848, 55.830412], [37.829205, 55.83009], [37.828878, 55.829906], [37.828198, 55.829498], [37.82767, 55.829198], [37.827536, 55.829157], [37.82739, 55.829147], [37.827195, 55.829164], [37.827047, 55.82921], [37.826457, 55.829491], [37.82607, 55.829635], [37.825865, 55.829666], [37.825681, 55.829667], [37.825528, 55.82964], [37.825395, 55.829582], [37.825026, 55.829378], [37.824828, 55.829269], [37.824677, 55.829196], [37.824626, 55.829098], [37.82464, 55.828798], [37.82403, 55.828789], [37.823826, 55.828785], [37.823532, 55.82878], [37.823018, 55.82877], [37.822624, 55.828763], [37.821624, 55.828743], [37.821534, 55.828741], [37.820929, 55.82873], [37.819688, 55.828702], [37.819199, 55.828691], [37.8189, 55.828686], [37.818303, 55.828671], [37.818155, 55.828666], [37.817678, 55.828654], [37.816666, 55.828624], [37.81653, 55.828621], [37.816358, 55.828617], [37.815803, 55.828606], [37.815251, 55.828594], [37.812921, 55.828547], [37.81213, 55.828519], [37.811889, 55.828485], [37.811307, 55.828355], [37.810949, 55.828222], [37.810688, 55.828074], [37.81018, 55.827794], [37.810035, 55.827867], [37.809945, 55.827912], [37.809734, 55.828021], [37.80894, 55.827574], [37.808816, 55.827507], [37.808712, 55.827446], [37.80864, 55.827408], [37.807895, 55.826971], [37.806849, 55.826382], [37.806095, 55.825957], [37.805895, 55.825845], [37.80483, 55.825244], [37.80422, 55.824981], [37.804135, 55.824949], [37.803225, 55.824574], [37.803058, 55.82446], [37.802984, 55.824358], [37.802593, 55.824416], [37.802547, 55.824424], [37.801789, 55.824618], [37.80165, 55.824715], [37.80144, 55.824694], [37.801186, 55.824693], [37.800847, 55.824679], [37.800231, 55.824701], [37.799905, 55.824691], [37.799779, 55.824722], [37.799703, 55.824787], [37.799552, 55.825794], [37.799244, 55.827742], [37.798937, 55.829693], [37.798929, 55.829743], [37.797945, 55.835487], [37.789017, 55.83502], [37.780055, 55.834533], [37.773433, 55.8342], [37.772886, 55.834173], [37.771887, 55.834118], [37.76549, 55.833804], [37.765136, 55.833785], [37.765032, 55.833777], [37.764304, 55.833752], [37.763965, 55.835674], [37.763491, 55.838368], [37.76315, 55.840022], [37.762917, 55.841669], [37.762908, 55.841965], [37.762778, 55.842714], [37.762714, 55.842903], [37.762488, 55.842931], [37.755676, 55.842864], [37.754946, 55.842857], [37.748349, 55.842727], [37.747462, 55.842728], [37.74603, 55.84268], [37.744316, 55.842646], [37.739517, 55.842579], [37.738901, 55.84257], [37.738153, 55.842561], [37.736005, 55.842539], [37.735905, 55.842536], [37.726669, 55.842411], [37.726629, 55.842674], [37.726608, 55.842853], [37.726384, 55.844805], [37.726266, 55.845912], [37.726147, 55.846819], [37.725919, 55.848721], [37.725558, 55.851334], [37.725535, 55.851527], [37.724937, 55.856008], [37.724725, 55.857597], [37.724341, 55.860963], [37.72388, 55.865605], [37.723682, 55.865595], [37.722233, 55.865523], [37.719424, 55.865398], [37.714739, 55.865188], [37.710599, 55.865003], [37.708328, 55.864901], [37.707824, 55.865325], [37.707628, 55.865483], [37.707559, 55.865534], [37.707427, 55.865633], [37.706583, 55.866248], [37.706162, 55.866551], [37.705949, 55.866711], [37.705757, 55.866844], [37.705668, 55.866908], [37.706413, 55.867236], [37.706344, 55.867277], [37.70629, 55.867308], [37.70624, 55.867338], [37.706216, 55.867325], [37.70611, 55.867274], [37.706066, 55.867253], [37.70576, 55.867454], [37.705705, 55.867428], [37.705566, 55.867365], [37.705495, 55.867328], [37.70536, 55.867411], [37.705094, 55.867287], [37.704409, 55.866961], [37.702712, 55.866179], [37.702602, 55.86613], [37.701417, 55.865576], [37.700982, 55.865377], [37.70011, 55.864972], [37.699264, 55.864582], [37.698403, 55.864175], [37.697941, 55.863954], [37.696748, 55.86341], [37.694538, 55.862342], [37.694388, 55.862409], [37.69396, 55.862627], [37.692716, 55.863226], [37.692587, 55.863284], [37.691587, 55.863782], [37.691135, 55.864011], [37.690904, 55.864125], [37.690806, 55.864175], [37.690267, 55.864435], [37.690098, 55.86446], [37.689937, 55.864415], [37.689317, 55.863947], [37.688462, 55.863355], [37.68748, 55.862675], [37.687221, 55.862496], [37.687162, 55.862459], [37.686944, 55.862674], [37.686809, 55.86274], [37.685684, 55.863287], [37.684988, 55.863626], [37.684787, 55.863724], [37.684639, 55.863796], [37.684749, 55.863867], [37.684634, 55.863923], [37.684504, 55.863984], [37.684733, 55.864136], [37.684324, 55.864334], [37.684373, 55.864365], [37.683492, 55.864377], [37.683375, 55.864449], [37.682049, 55.865093], [37.681511, 55.86534], [37.681427, 55.86538], [37.681241, 55.865468], [37.680845, 55.865668], [37.680427, 55.865875], [37.67964, 55.866256], [37.679533, 55.866308], [37.677732, 55.867186], [37.677233, 55.867429], [37.677102, 55.867494], [37.676936, 55.867577], [37.676471, 55.867699], [37.675567, 55.867916], [37.675315, 55.867969], [37.675088, 55.868017], [37.674686, 55.868087], [37.674619, 55.868098], [37.674375, 55.868135], [37.674011, 55.868191], [37.673555, 55.86826], [37.673269, 55.868304], [37.673008, 55.868344], [37.672527, 55.868418], [37.672381, 55.86844], [37.672086, 55.868486], [37.671903, 55.868513], [37.670356, 55.868753], [37.670237, 55.868772], [37.669871, 55.868829], [37.669728, 55.86885], [37.669615, 55.868868], [37.667614, 55.869192], [37.66746, 55.869217], [37.667153, 55.869264], [37.665814, 55.86947], [37.665251, 55.869557], [37.664999, 55.869597], [37.664944, 55.869605], [37.664642, 55.869714], [37.665318, 55.871094], [37.665873, 55.872225], [37.666424, 55.873325], [37.666791, 55.874046], [37.667136, 55.874722], [37.667185, 55.87483], [37.667218, 55.874905], [37.667632, 55.875666], [37.668028, 55.876395], [37.669044, 55.878265], [37.669283, 55.878705], [37.669855, 55.879683], [37.669888, 55.879738], [37.670363, 55.880544], [37.670632, 55.88064], [37.672069, 55.88111], [37.673691, 55.881798], [37.674191, 55.8821], [37.674754, 55.882329], [37.674986, 55.882424], [37.675322, 55.882559], [37.675503, 55.882631], [37.675657, 55.882703], [37.675801, 55.882764], [37.675776, 55.882784], [37.675341, 55.883116], [37.675224, 55.883243], [37.675121, 55.883509], [37.675125, 55.883679], [37.675127, 55.883853], [37.67512, 55.883922], [37.675106, 55.884066], [37.675098, 55.884121], [37.67517, 55.884124], [37.675687, 55.884134], [37.67588, 55.884172], [37.676028, 55.884234], [37.67627, 55.884398], [37.676506, 55.8845], [37.677237, 55.884614], [37.677404, 55.884672], [37.677695, 55.884948], [37.678124, 55.885064], [37.678506, 55.88534], [37.678612, 55.885433], [37.679052, 55.885614], [37.679482, 55.886053], [37.67956, 55.886244], [37.679595, 55.886331], [37.679511, 55.887034], [37.679557, 55.887066], [37.679572, 55.88713], [37.679596, 55.887235], [37.679581, 55.887274], [37.679616, 55.887443], [37.680069, 55.887608], [37.680249, 55.888054], [37.680363, 55.888683], [37.680472, 55.889572], [37.68051, 55.88971], [37.680521, 55.889754], [37.680591, 55.890087], [37.680726, 55.890248], [37.681109, 55.890636], [37.681227, 55.890751], [37.68144, 55.89103], [37.6816, 55.891273], [37.68174, 55.891445], [37.681805, 55.8915], [37.682005, 55.891564], [37.682297, 55.891576], [37.682828, 55.891472], [37.683604, 55.891462], [37.683911, 55.89141], [37.684529, 55.891255], [37.684676, 55.891473], [37.684901, 55.892128], [37.685038, 55.893266], [37.685081, 55.894008], [37.685059, 55.894131], [37.68501, 55.894406], [37.684987, 55.894553], [37.685048, 55.894622], [37.685086, 55.895156], [37.685291, 55.895611], [37.685289, 55.895748], [37.685219, 55.895772], [37.685271, 55.896058], [37.685268, 55.896333], [37.685252, 55.89654], [37.685169, 55.896799], [37.685808, 55.897235], [37.685943, 55.89733], [37.686073, 55.897415], [37.686097, 55.897423], [37.686418, 55.897474], [37.686545, 55.897488], [37.687442, 55.897587], [37.689935, 55.89794], [37.690712, 55.898094], [37.691218, 55.89816], [37.691455, 55.898152], [37.691904, 55.898101], [37.692903, 55.89811], [37.693009, 55.898179], [37.69307, 55.898341], [37.69318, 55.898396], [37.693301, 55.898649], [37.693763, 55.899806], [37.69436, 55.900396], [37.694575, 55.900751], [37.694641, 55.900894], [37.694642, 55.900978], [37.694587, 55.901085], [37.69461, 55.901146], [37.694733, 55.901112], [37.694729, 55.901062], [37.694733, 55.901112], [37.69461, 55.901146], [37.694675, 55.901227], [37.694796, 55.90138], [37.694858, 55.901364], [37.694924, 55.90135], [37.695205, 55.901794], [37.695515, 55.902131], [37.695953, 55.90251], [37.696444, 55.902831], [37.696601, 55.902915], [37.697, 55.903036], [37.69702, 55.903018], [37.697286, 55.903088], [37.697595, 55.903102], [37.698043, 55.903007], [37.698563, 55.902868], [37.699081, 55.902649], [37.700099, 55.902207], [37.700463, 55.902043], [37.700711, 55.901962], [37.700945, 55.901923], [37.701249, 55.901855], [37.701725, 55.901672], [37.70214, 55.901641], [37.702805, 55.901498], [37.702866, 55.901459], [37.702875, 55.90137], [37.702912, 55.901359], [37.702972, 55.90134], [37.70303, 55.901296], [37.703062, 55.901225], [37.70307, 55.901207], [37.703871, 55.901323], [37.704035, 55.901333], [37.704538, 55.901293], [37.704708, 55.901281], [37.705356, 55.901195], [37.705418, 55.901209], [37.705727, 55.901197], [37.709247, 55.900961], [37.709341, 55.900931], [37.710475, 55.899476], [37.710668, 55.899312], [37.710711, 55.899316], [37.710739, 55.8993], [37.710732, 55.899268], [37.710843, 55.899204], [37.711217, 55.899028], [37.711706, 55.89894], [37.711792, 55.89894], [37.712012, 55.89894], [37.712367, 55.899017], [37.712474, 55.899017], [37.712643, 55.898955], [37.712673, 55.898833], [37.712649, 55.898554], [37.712536, 55.898316], [37.712603, 55.898251], [37.712713, 55.898232], [37.713116, 55.898228], [37.714205, 55.898218], [37.714705, 55.898252], [37.715792, 55.898337], [37.716181, 55.898349], [37.716786, 55.898351], [37.717109, 55.898365], [37.717165, 55.898327], [37.717581, 55.898241], [37.717924, 55.898214], [37.717987, 55.898214], [37.718539, 55.898246], [37.718885, 55.898315], [37.718948, 55.898285], [37.719218, 55.898115], [37.71937, 55.898034], [37.719504, 55.897968], [37.719873, 55.897849], [37.721288, 55.897423], [37.722124, 55.897274], [37.723179, 55.897077], [37.723614, 55.897038], [37.723716, 55.897039], [37.72378, 55.896783], [37.723795, 55.896566], [37.723778, 55.896395], [37.72377, 55.896364], [37.72375, 55.89628], [37.723623, 55.896047], [37.723568, 55.895979], [37.723468, 55.895849], [37.722934, 55.895195], [37.722861, 55.895103], [37.722157, 55.894194], [37.722003, 55.894003], [37.721934, 55.893905], [37.72188, 55.893837], [37.722015, 55.893804], [37.722825, 55.893609], [37.723207, 55.893511], [37.723816, 55.893329], [37.723945, 55.893284], [37.725265, 55.892788], [37.725383, 55.89274], [37.725316, 55.892688], [37.725173, 55.892579], [37.725297, 55.89253], [37.725395, 55.892491], [37.726359, 55.892108], [37.726353, 55.891985], [37.726331, 55.89172], [37.725964, 55.891464], [37.726014, 55.891439], [37.726112, 55.891387], [37.726506, 55.891196], [37.726877, 55.891017], [37.726662, 55.890871], [37.726475, 55.890744], [37.72593, 55.890383], [37.725802, 55.890301], [37.725751, 55.890271], [37.725893, 55.890206], [37.726087, 55.890335], [37.726158, 55.890303], [37.72638, 55.890196], [37.72618, 55.890054], [37.726216, 55.890037], [37.724788, 55.8891]]}}]}