{"type": "FeatureCollection", "features": [{"type": "Feature", "properties": {"name": "Подольск 01", "source": "/gps/velo/podolsk.01.gpx", "points": 486}, "geometry": {"type": "LineString", "coordinates": [[37.480922, 55.419291], [37.481177, 55.419649], [37.481295, 55.419631], [37.481377, 55.41973], [37.481582, 55.41998], [37.481703, 55.420115], [37.482721, 55.42078], [37.483776, 55.421482], [37.484947, 55.421992], [37.484829, 55.422092], [37.484761, 55.42215], [37.485666, 55.422463], [37.486499, 55.422755], [37.486623, 55.422799], [37.486998, 55.422927], [37.487095, 55.422957], [37.488636, 55.423442], [37.489499, 55.423714], [37.489766, 55.423798], [37.490049, 55.423883], [37.491351, 55.424272], [37.492243, 55.424538], [37.492633, 55.424655], [37.492882, 55.424729], [37.493826, 55.425011], [37.4951, 55.425404], [37.495714, 55.425594], [37.497478, 55.426138], [37.498626, 55.426492], [37.49895, 55.426592], [37.499144, 55.426652], [37.500032, 55.426925], [37.499934, 55.427029], [37.499637, 55.427343], [37.499572, 55.427413], [37.499803, 55.427487], [37.500213, 55.427618], [37.501119, 55.427907], [37.500692, 55.428365], [37.501086, 55.429505], [37.501372, 55.430329], [37.501534, 55.430798], [37.500778, 55.430887], [37.501224, 55.43227], [37.50212, 55.432164], [37.502159, 55.432248], [37.502523, 55.433292], [37.502494, 55.433585], [37.502783, 55.434319], [37.50302, 55.43459], [37.503055, 55.434716], [37.503088, 55.434836], [37.502791, 55.434869], [37.502584, 55.434892], [37.502563, 55.435036], [37.502262, 55.435703], [37.502165, 55.435825], [37.501989, 55.435957], [37.501908, 55.436006], [37.501108, 55.436488], [37.500979, 55.436564], [37.499564, 55.437483], [37.498966, 55.438382], [37.498576, 55.439018], [37.498487, 55.439074], [37.498383, 55.43914], [37.498122, 55.439176], [37.497852, 55.439168], [37.496229, 55.438829], [37.495818, 55.438774], [37.495603, 55.438779], [37.495387, 55.438815], [37.495207, 55.438882], [37.495049, 55.438959], [37.4948, 55.43917], [37.493739, 55.440128], [37.493707, 55.440151], [37.493597, 55.440205], [37.49348, 55.440224], [37.493421, 55.440354], [37.493524, 55.440528], [37.49356, 55.440577], [37.493763, 55.44091], [37.493789, 55.440952], [37.493871, 55.440985], [37.493789, 55.440952], [37.493763, 55.44091], [37.49356, 55.440577], [37.493524, 55.440528], [37.493421, 55.440354], [37.49348, 55.440224], [37.493347, 55.440211], [37.493164, 55.440124], [37.49261, 55.439674], [37.492232, 55.439367], [37.492111, 55.439252], [37.492043, 55.439184], [37.491896, 55.439036], [37.491629, 55.438753], [37.491552, 55.438653], [37.491342, 55.438379], [37.491224, 55.43822], [37.490969, 55.437873], [37.490869, 55.437755], [37.490755, 55.437654], [37.490617, 55.437555], [37.49048, 55.43747], [37.490306, 55.437382], [37.490132, 55.437311], [37.489334, 55.436984], [37.489056, 55.436874], [37.488101, 55.436499], [37.486207, 55.435793], [37.48595, 55.435768], [37.485644, 55.435789], [37.484581, 55.435887], [37.483759, 55.435963], [37.482829, 55.436044], [37.482506, 55.436078], [37.482284, 55.436138], [37.482154, 55.436217], [37.481671, 55.436649], [37.481603, 55.436711], [37.481398, 55.4369], [37.480839, 55.437261], [37.479814, 55.437736], [37.478987, 55.438005], [37.477924, 55.438182], [37.476494, 55.438263], [37.475273, 55.438341], [37.475091, 55.438379], [37.474747, 55.438452], [37.474422, 55.438569], [37.47433, 55.438607], [37.474206, 55.438725], [37.474173, 55.438756], [37.474159, 55.43917], [37.475287, 55.44154], [37.476118, 55.442718], [37.476974, 55.444042], [37.477547, 55.445007], [37.478743, 55.446773], [37.479144, 55.447383], [37.478952, 55.447525], [37.477862, 55.448157], [37.475464, 55.449511], [37.474976, 55.449843], [37.474433, 55.450029], [37.472965, 55.450392], [37.472695, 55.450423], [37.471562, 55.450553], [37.469369, 55.451222], [37.466073, 55.45167], [37.463725, 55.452099], [37.460401, 55.45259], [37.453825, 55.452996], [37.453462, 55.45303], [37.453203, 55.453078], [37.448746, 55.453991], [37.444924, 55.454808], [37.442721, 55.45528], [37.44266, 55.455293], [37.442611, 55.455642], [37.44265, 55.456053], [37.443668, 55.460559], [37.44363, 55.460813], [37.443539, 55.460945], [37.443022, 55.46169], [37.442662, 55.462409], [37.441339, 55.464498], [37.440942, 55.464983], [37.440902, 55.465032], [37.440786, 55.465258], [37.440724, 55.46538], [37.440672, 55.467088], [37.440542, 55.471942], [37.44063, 55.472016], [37.440764, 55.472038], [37.451357, 55.47246], [37.452022, 55.472489], [37.453168, 55.472551], [37.453874, 55.472589], [37.455274, 55.472601], [37.457282, 55.472534], [37.457919, 55.472486], [37.461505, 55.471638], [37.462356, 55.471469], [37.46266, 55.471438], [37.464206, 55.471433], [37.464643, 55.471467], [37.465462, 55.471734], [37.465813, 55.471804], [37.466644, 55.471881], [37.467151, 55.471878], [37.467525, 55.471762], [37.467576, 55.471685], [37.467865, 55.471503], [37.470695, 55.469544], [37.471338, 55.469189], [37.471818, 55.469004], [37.476418, 55.467592], [37.47832, 55.467061], [37.481867, 55.466185], [37.482691, 55.466202], [37.483796, 55.466401], [37.487218, 55.466962], [37.48765, 55.466932], [37.488243, 55.46679], [37.488495, 55.466784], [37.489921, 55.466926], [37.491593, 55.467107], [37.493249, 55.467299], [37.493841, 55.467363], [37.494479, 55.467432], [37.49484, 55.467471], [37.495109, 55.467474], [37.495293, 55.467366], [37.495421, 55.467192], [37.495611, 55.466796], [37.495681, 55.466649], [37.495837, 55.466323], [37.496001, 55.465981], [37.496215, 55.465533], [37.496381, 55.465176], [37.496462, 55.465012], [37.496597, 55.464738], [37.496618, 55.464695], [37.496783, 55.464305], [37.496966, 55.463231], [37.497052, 55.463051], [37.497155, 55.462871], [37.498063, 55.46186], [37.498381, 55.461608], [37.498465, 55.461574], [37.498659, 55.461551], [37.501285, 55.461576], [37.501587, 55.461511], [37.501973, 55.461357], [37.502514, 55.46128], [37.503465, 55.461239], [37.503877, 55.461173], [37.504949, 55.460982], [37.506435, 55.460704], [37.506768, 55.460563], [37.507016, 55.460414], [37.507141, 55.460288], [37.507196, 55.460174], [37.507147, 55.459917], [37.506498, 55.459126], [37.506278, 55.458694], [37.506132, 55.45816], [37.506041, 55.457453], [37.506042, 55.45698], [37.506127, 55.456677], [37.506348, 55.456544], [37.506682, 55.456418], [37.507575, 55.456262], [37.508688, 55.456098], [37.509107, 55.456093], [37.509667, 55.456133], [37.510421, 55.456193], [37.511407, 55.45627], [37.51181, 55.456264], [37.512834, 55.455961], [37.513988, 55.455606], [37.514073, 55.455579], [37.514351, 55.45549], [37.516889, 55.454683], [37.523612, 55.452571], [37.524117, 55.452392], [37.524352, 55.452266], [37.524825, 55.451839], [37.525364, 55.451254], [37.526233, 55.450207], [37.526529, 55.449795], [37.527193, 55.449776], [37.527598, 55.449763], [37.528435, 55.449738], [37.528692, 55.44973], [37.530702, 55.44967], [37.532029, 55.449678], [37.532787, 55.449679], [37.534797, 55.44968], [37.534996, 55.449683], [37.536564, 55.449703], [37.536796, 55.449706], [37.537109, 55.449706], [37.539095, 55.449708], [37.539892, 55.449714], [37.540527, 55.449709], [37.540666, 55.449709], [37.541603, 55.44971], [37.54167, 55.44971], [37.542065, 55.449711], [37.542108, 55.449711], [37.542285, 55.449711], [37.54316, 55.449712], [37.544075, 55.449712], [37.544713, 55.449713], [37.546027, 55.449714], [37.546532, 55.449714], [37.546729, 55.449715], [37.546835, 55.449715], [37.549071, 55.449717], [37.550641, 55.449703], [37.551906, 55.449693], [37.552185, 55.449691], [37.552155, 55.449207], [37.552037, 55.447525], [37.551948, 55.446251], [37.551845, 55.444706], [37.551905, 55.444387], [37.552059, 55.444135], [37.552094, 55.444077], [37.552636, 55.443528], [37.554555, 55.441604], [37.556172, 55.439971], [37.556562, 55.439531], [37.556686, 55.439131], [37.556627, 55.438858], [37.556494, 55.438693], [37.556272, 55.438527], [37.55478, 55.437701], [37.554656, 55.437628], [37.553622, 55.437022], [37.550797, 55.435387], [37.550511, 55.435163], [37.5503, 55.434915], [37.549721, 55.434461], [37.549571, 55.434342], [37.548744, 55.433683], [37.548619, 55.433583], [37.548504, 55.433497], [37.548028, 55.433112], [37.547503, 55.432687], [37.547253, 55.432486], [37.546107, 55.431562], [37.54596, 55.431442], [37.545598, 55.431139], [37.545104, 55.430939], [37.544019, 55.430592], [37.543141, 55.430323], [37.542401, 55.430096], [37.541432, 55.429809], [37.541263, 55.429758], [37.53967, 55.42928], [37.538338, 55.42888], [37.537621, 55.42866], [37.536907, 55.428451], [37.536071, 55.428192], [37.536047, 55.428185], [37.535245, 55.427937], [37.53312, 55.427281], [37.532624, 55.427126], [37.532247, 55.427009], [37.530933, 55.426602], [37.528858, 55.42596], [37.526776, 55.425315], [37.52657, 55.425252], [37.526351, 55.425184], [37.522771, 55.424075], [37.522672, 55.424177], [37.52015, 55.423399], [37.519018, 55.42305], [37.519105, 55.422956], [37.518963, 55.422913], [37.51808, 55.422643], [37.517712, 55.422531], [37.516786, 55.422248], [37.516658, 55.422209], [37.516537, 55.422172], [37.516241, 55.42208], [37.515379, 55.421811], [37.513798, 55.421318], [37.511438, 55.420598], [37.509893, 55.420126], [37.509634, 55.420404], [37.50911, 55.420969], [37.509031, 55.421054], [37.508614, 55.421506], [37.507077, 55.423168], [37.506706, 55.423572], [37.505817, 55.424551], [37.505562, 55.424979], [37.505496, 55.425171], [37.505408, 55.425744], [37.505427, 55.42615], [37.505534, 55.426527], [37.505717, 55.42708], [37.505815, 55.427337], [37.505907, 55.42758], [37.506002, 55.427829], [37.506073, 55.427972], [37.506148, 55.428065], [37.506332, 55.428155], [37.506492, 55.428246], [37.50658, 55.428392], [37.506573, 55.428485], [37.50649, 55.428598], [37.506425, 55.428689], [37.5064, 55.428835], [37.506434, 55.429042], [37.506721, 55.42987], [37.50685, 55.430244], [37.506943, 55.430512], [37.507042, 55.430799], [37.507324, 55.431613], [37.507437, 55.431939], [37.507516, 55.432167], [37.507551, 55.432268], [37.507725, 55.43277], [37.507387, 55.432809], [37.506887, 55.432859], [37.506743, 55.432873], [37.506312, 55.432916], [37.505953, 55.432951], [37.505355, 55.433011], [37.505135, 55.433033], [37.504578, 55.433088], [37.503849, 55.43316], [37.502523, 55.433292], [37.500597, 55.433506], [37.500261, 55.433543], [37.499834, 55.433591], [37.499541, 55.433623], [37.499218, 55.433659], [37.498941, 55.43369], [37.49824, 55.433786], [37.497599, 55.433912], [37.497389, 55.434083], [37.49762, 55.434825], [37.49771, 55.435116], [37.497744, 55.435226], [37.497431, 55.435168], [37.496629, 55.43495], [37.496337, 55.434802], [37.496045, 55.434654], [37.495707, 55.434298], [37.495573, 55.434128], [37.495477, 55.433913], [37.495237, 55.433277], [37.495216, 55.43322], [37.494956, 55.432507], [37.494797, 55.43204], [37.494778, 55.431975], [37.494712, 55.43179], [37.494619, 55.431435], [37.494559, 55.431191], [37.494492, 55.430935], [37.494392, 55.430577], [37.494043, 55.430469], [37.491921, 55.429818], [37.491498, 55.429688], [37.490804, 55.429475], [37.490295, 55.429319], [37.489609, 55.429108], [37.488386, 55.428733], [37.486865, 55.428266], [37.486074, 55.428023], [37.486006, 55.427973], [37.48597, 55.427873], [37.486139, 55.427655], [37.486354, 55.427422], [37.487347, 55.426351], [37.487468, 55.426226], [37.488085, 55.425585], [37.488851, 55.424789], [37.489661, 55.423911], [37.489766, 55.423798], [37.489499, 55.423714], [37.488636, 55.423442], [37.487095, 55.422957], [37.486998, 55.422927], [37.486623, 55.422799], [37.48674, 55.422704], [37.486865, 55.422597], [37.486775, 55.422569], [37.484947, 55.421992], [37.483776, 55.421482], [37.482721, 55.42078], [37.481703, 55.420115], [37.481582, 55.41998], [37.481377, 55.41973], [37.481295, 55.419631], [37.481177, 55.419649], [37.480922, 55.419291]]}}]}