{"type": "FeatureCollection", "features": [{"type": "Feature", "properties": {"name": "Подольск 02", "source": "/gps/velo/podolsk.02.gpx", "points": 667}, "geometry": {"type": "LineString", "coordinates": [[37.526814, 55.356685], [37.526688, 55.356089], [37.526938, 55.35607], [37.52699, 55.356299], [37.527021, 55.35645], [37.527027, 55.356485], [37.52729, 55.356464], [37.527031, 55.355427], [37.526943, 55.354872], [37.526651, 55.354329], [37.526625, 55.354036], [37.526834, 55.35378], [37.52666, 55.353329], [37.526575, 55.353245], [37.5265, 55.352733], [37.526535, 55.352563], [37.52674, 55.352178], [37.526472, 55.350883], [37.52618, 55.348959], [37.526517, 55.348915], [37.528342, 55.348627], [37.528499, 55.348602], [37.528287, 55.348087], [37.528184, 55.3478], [37.52811, 55.346954], [37.528133, 55.344391], [37.528133, 55.343273], [37.528143, 55.342825], [37.528146, 55.342074], [37.528182, 55.340842], [37.528195, 55.340028], [37.528242, 55.338237], [37.528319, 55.335807], [37.528323, 55.334467], [37.528357, 55.333085], [37.528402, 55.332816], [37.528399, 55.332516], [37.52841, 55.331916], [37.528425, 55.330624], [37.528438, 55.330124], [37.528451, 55.329228], [37.528452, 55.329137], [37.528471, 55.328365], [37.528482, 55.327685], [37.528573, 55.324057], [37.528585, 55.32379], [37.528593, 55.32336], [37.528607, 55.322476], [37.528607, 55.32101], [37.528621, 55.320048], [37.528651, 55.318362], [37.528661, 55.317645], [37.528689, 55.316741], [37.528704, 55.316244], [37.528717, 55.315819], [37.528724, 55.315584], [37.528722, 55.312614], [37.528723, 55.312495], [37.528802, 55.309505], [37.528825, 55.309027], [37.528824, 55.308042], [37.528824, 55.30753], [37.528824, 55.307361], [37.528868, 55.305068], [37.52888, 55.302919], [37.528817, 55.302644], [37.526471, 55.300113], [37.522717, 55.296091], [37.521164, 55.294436], [37.520887, 55.294118], [37.520473, 55.293666], [37.519623, 55.292765], [37.518427, 55.291499], [37.518074, 55.291169], [37.517832, 55.29086], [37.517501, 55.290531], [37.516004, 55.288913], [37.515586, 55.288513], [37.51479, 55.287666], [37.513562, 55.286357], [37.512589, 55.285331], [37.51154, 55.284224], [37.511094, 55.283652], [37.510952, 55.283292], [37.510808, 55.282676], [37.510752, 55.282254], [37.510661, 55.281815], [37.510558, 55.281242], [37.510538, 55.281115], [37.510272, 55.2794], [37.510247, 55.279275], [37.510236, 55.279189], [37.509941, 55.277239], [37.509876, 55.276612], [37.509887, 55.275918], [37.509951, 55.275616], [37.51007, 55.275245], [37.510141, 55.274906], [37.51019, 55.274709], [37.510375, 55.273953], [37.510464, 55.273995], [37.5105, 55.274012], [37.510628, 55.274021], [37.510874, 55.27402], [37.511337, 55.273868], [37.511434, 55.273866], [37.511539, 55.273831], [37.512138, 55.271715], [37.511414, 55.271712], [37.51094, 55.271697], [37.511316, 55.269881], [37.51132, 55.269835], [37.511401, 55.269277], [37.511325, 55.268645], [37.511083, 55.26767], [37.511042, 55.267517], [37.51098, 55.26728], [37.510834, 55.266624], [37.510678, 55.265841], [37.510664, 55.265775], [37.510528, 55.265185], [37.510502, 55.265103], [37.510388, 55.264579], [37.510346, 55.264394], [37.510293, 55.264151], [37.510148, 55.263551], [37.509909, 55.263567], [37.509734, 55.262888], [37.509375, 55.261308], [37.509626, 55.261291], [37.509225, 55.259815], [37.508669, 55.257471], [37.508623, 55.257248], [37.503928, 55.257882], [37.503526, 55.257924], [37.503295, 55.257949], [37.502155, 55.258059], [37.501321, 55.258142], [37.500542, 55.258232], [37.500096, 55.258296], [37.499791, 55.258391], [37.49964, 55.258549], [37.498585, 55.25967], [37.498194, 55.259907], [37.497643, 55.260005], [37.497296, 55.260039], [37.497113, 55.260018], [37.496924, 55.25988], [37.496595, 55.259076], [37.496431, 55.258597], [37.496229, 55.258393], [37.495945, 55.258169], [37.495734, 55.257553], [37.49527, 55.256104], [37.494996, 55.255339], [37.494733, 55.254604], [37.494647, 55.2545], [37.494489, 55.254344], [37.493795, 55.253816], [37.493696, 55.253686], [37.493682, 55.253566], [37.493706, 55.253085], [37.493651, 55.252921], [37.493384, 55.252117], [37.493275, 55.252126], [37.491329, 55.25234], [37.489857, 55.252465], [37.488712, 55.252495], [37.487275, 55.252593], [37.487052, 55.252013], [37.486923, 55.251658], [37.486908, 55.251592], [37.485615, 55.25054], [37.48543, 55.250452], [37.485227, 55.25045], [37.483729, 55.251073], [37.483345, 55.251173], [37.483197, 55.251157], [37.482991, 55.251075], [37.481498, 55.248097], [37.481311, 55.247779], [37.481213, 55.24749], [37.48113, 55.246771], [37.481042, 55.246552], [37.4809, 55.246431], [37.480693, 55.246321], [37.480263, 55.24625], [37.477874, 55.245918], [37.477138, 55.245826], [37.474215, 55.24512], [37.472243, 55.244643], [37.467258, 55.243491], [37.466727, 55.243433], [37.465607, 55.244126], [37.464568, 55.244753], [37.463992, 55.24505], [37.462708, 55.245841], [37.462295, 55.24618], [37.461103, 55.247612], [37.46042, 55.248432], [37.460314, 55.248659], [37.46033, 55.248934], [37.460865, 55.250148], [37.461102, 55.25094], [37.461016, 55.251023], [37.460909, 55.25107], [37.460776, 55.251081], [37.457085, 55.250089], [37.454182, 55.2493], [37.4533, 55.249058], [37.452324, 55.248792], [37.451513, 55.24872], [37.449128, 55.248515], [37.448411, 55.248452], [37.447902, 55.248369], [37.444401, 55.247173], [37.443344, 55.246913], [37.441792, 55.246579], [37.437328, 55.245932], [37.435013, 55.245602], [37.432614, 55.245176], [37.431177, 55.244869], [37.428565, 55.244309], [37.425046, 55.243588], [37.423282, 55.243215], [37.423079, 55.243174], [37.422545, 55.244369], [37.421985, 55.245233], [37.421984, 55.245489], [37.421605, 55.246091], [37.421224, 55.246549], [37.421035, 55.247047], [37.420546, 55.247137], [37.41921, 55.248059], [37.417547, 55.249624], [37.416495, 55.250335], [37.415225, 55.250858], [37.413807, 55.251125], [37.412278, 55.251295], [37.409121, 55.25091], [37.405282, 55.250599], [37.40272, 55.250401], [37.402681, 55.250397], [37.401516, 55.250285], [37.400366, 55.250177], [37.399185, 55.249945], [37.398125, 55.249695], [37.397689, 55.249598], [37.396307, 55.249298], [37.394363, 55.248875], [37.393403, 55.248658], [37.39056, 55.248015], [37.385122, 55.246808], [37.3838, 55.246518], [37.374297, 55.244368], [37.37174, 55.243736], [37.369208, 55.24308], [37.368956, 55.243038], [37.368697, 55.242949], [37.363768, 55.241816], [37.361106, 55.241178], [37.359039, 55.24061], [37.358859, 55.240566], [37.355564, 55.239749], [37.355099, 55.239601], [37.354423, 55.239437], [37.35134, 55.238781], [37.3507, 55.238736], [37.344732, 55.23838], [37.338884, 55.238074], [37.338547, 55.238452], [37.338458, 55.238745], [37.338306, 55.238983], [37.338172, 55.239291], [37.338088, 55.23959], [37.338121, 55.239893], [37.337819, 55.240678], [37.337642, 55.241313], [37.337404, 55.241707], [37.337291, 55.242075], [37.337197, 55.242659], [37.3372, 55.243159], [37.337119, 55.243281], [37.336976, 55.243422], [37.336062, 55.243944], [37.335313, 55.244253], [37.331781, 55.245711], [37.330291, 55.246386], [37.329402, 55.246367], [37.326896, 55.246365], [37.324014, 55.246314], [37.323819, 55.246332], [37.323602, 55.246445], [37.322564, 55.24731], [37.322427, 55.247457], [37.322407, 55.247607], [37.322487, 55.2477], [37.322635, 55.24776], [37.327495, 55.247823], [37.327891, 55.247902], [37.329365, 55.248205], [37.329927, 55.248341], [37.331252, 55.248476], [37.331582, 55.248571], [37.332024, 55.248766], [37.332281, 55.248976], [37.332366, 55.249232], [37.332317, 55.250352], [37.332307, 55.250713], [37.332396, 55.251071], [37.332742, 55.251683], [37.332827, 55.251837], [37.332975, 55.252108], [37.333211, 55.252535], [37.333733, 55.253476], [37.334106, 55.253859], [37.334566, 55.254915], [37.334363, 55.255086], [37.340536, 55.255874], [37.343436, 55.256558], [37.345282, 55.256994], [37.347749, 55.257639], [37.350002, 55.258229], [37.350554, 55.258411], [37.351028, 55.258525], [37.351444, 55.258565], [37.352024, 55.258548], [37.352297, 55.258541], [37.35271, 55.258592], [37.353003, 55.258693], [37.353514, 55.259083], [37.353831, 55.259385], [37.354685, 55.259804], [37.355115, 55.260124], [37.355563, 55.260534], [37.356559, 55.262001], [37.356729, 55.262181], [37.360866, 55.264734], [37.36151, 55.265027], [37.362293, 55.265197], [37.363136, 55.265261], [37.364767, 55.265274], [37.365398, 55.265325], [37.366676, 55.265592], [37.367436, 55.265775], [37.367802, 55.265927], [37.369299, 55.266686], [37.369761, 55.266921], [37.373487, 55.268819], [37.374466, 55.26925], [37.376222, 55.269836], [37.375888, 55.270106], [37.375729, 55.2703], [37.37567, 55.270456], [37.375782, 55.270593], [37.376377, 55.270885], [37.37649, 55.270986], [37.376897, 55.271236], [37.377232, 55.27136], [37.377704, 55.271436], [37.378048, 55.271532], [37.378591, 55.271746], [37.379735, 55.272024], [37.380388, 55.272229], [37.380723, 55.272387], [37.381304, 55.272576], [37.382695, 55.273211], [37.383513, 55.273527], [37.383912, 55.273771], [37.385132, 55.274483], [37.385755, 55.274733], [37.38662, 55.275516], [37.386879, 55.275834], [37.387642, 55.277052], [37.388813, 55.278364], [37.389711, 55.280064], [37.390109, 55.281241], [37.390233, 55.281411], [37.390425, 55.281564], [37.390849, 55.281808], [37.391842, 55.28232], [37.391929, 55.282388], [37.391967, 55.282464], [37.391932, 55.282522], [37.393581, 55.281762], [37.393868, 55.281621], [37.394218, 55.28145], [37.394379, 55.281433], [37.394579, 55.281457], [37.394989, 55.281619], [37.39563, 55.28194], [37.395806, 55.281983], [37.395959, 55.282019], [37.396161, 55.28202], [37.396449, 55.281926], [37.396729, 55.281822], [37.396969, 55.281757], [37.397467, 55.281702], [37.397492, 55.281618], [37.397919, 55.281306], [37.398188, 55.281061], [37.399019, 55.280501], [37.399155, 55.280357], [37.399241, 55.280161], [37.399321, 55.28009], [37.399747, 55.279977], [37.400211, 55.279673], [37.400379, 55.279515], [37.400824, 55.279252], [37.401009, 55.279196], [37.401149, 55.279096], [37.40131, 55.278862], [37.402095, 55.278458], [37.402341, 55.278124], [37.402443, 55.278068], [37.40267, 55.27804], [37.402894, 55.277984], [37.403243, 55.277745], [37.403503, 55.277522], [37.403625, 55.277184], [37.403808, 55.27705], [37.404058, 55.276972], [37.40468, 55.277077], [37.405301, 55.277153], [37.406346, 55.277528], [37.407557, 55.277665], [37.408128, 55.27769], [37.408544, 55.277786], [37.408738, 55.277854], [37.409346, 55.277946], [37.409677, 55.278105], [37.409695, 55.278114], [37.409881, 55.278264], [37.409938, 55.278424], [37.409981, 55.278777], [37.409867, 55.27935], [37.409715, 55.279836], [37.409699, 55.280093], [37.410043, 55.281219], [37.410064, 55.281462], [37.410014, 55.281762], [37.410364, 55.281786], [37.410751, 55.281846], [37.411926, 55.282182], [37.41236, 55.282255], [37.412658, 55.282403], [37.412905, 55.282643], [37.413208, 55.283028], [37.413544, 55.283352], [37.413935, 55.283836], [37.413989, 55.283969], [37.414052, 55.285297], [37.414433, 55.286468], [37.414881, 55.287324], [37.414968, 55.287709], [37.415136, 55.288355], [37.415119, 55.288541], [37.415053, 55.288715], [37.414841, 55.288904], [37.41462, 55.289033], [37.41376, 55.289626], [37.413506, 55.289691], [37.413505, 55.289811], [37.41487, 55.290304], [37.415193, 55.290444], [37.41587, 55.290557], [37.41698, 55.290876], [37.417254, 55.290983], [37.41754, 55.291133], [37.417625, 55.291218], [37.417801, 55.291196], [37.417912, 55.291215], [37.418079, 55.2913], [37.418146, 55.2914], [37.418473, 55.291381], [37.418774, 55.291459], [37.419326, 55.291691], [37.419837, 55.291973], [37.420182, 55.292111], [37.420432, 55.292145], [37.420702, 55.292136], [37.420933, 55.2922], [37.421177, 55.292326], [37.421377, 55.292377], [37.421614, 55.292536], [37.421832, 55.292628], [37.42194, 55.292708], [37.422245, 55.292785], [37.423278, 55.292972], [37.423575, 55.292933], [37.423944, 55.293483], [37.425044, 55.293839], [37.425629, 55.29412], [37.426763, 55.294683], [37.428772, 55.295828], [37.43104, 55.297035], [37.432055, 55.297706], [37.432477, 55.297912], [37.433153, 55.298167], [37.434894, 55.29864], [37.435258, 55.298858], [37.435284, 55.299062], [37.435144, 55.299646], [37.435947, 55.300414], [37.436737, 55.301719], [37.437361, 55.302431], [37.438306, 55.304395], [37.438534, 55.304982], [37.438435, 55.305918], [37.438548, 55.306574], [37.438854, 55.30757], [37.439651, 55.308797], [37.440147, 55.310172], [37.441437, 55.31147], [37.44217, 55.313035], [37.442198, 55.313153], [37.442309, 55.313563], [37.442483, 55.314529], [37.443926, 55.324254], [37.443939, 55.324834], [37.4435, 55.325612], [37.443593, 55.326067], [37.443982, 55.326418], [37.444745, 55.33112], [37.444884, 55.331987], [37.445489, 55.332437], [37.447017, 55.334669], [37.447596, 55.335411], [37.447877, 55.33564], [37.448514, 55.335833], [37.45299, 55.336488], [37.453663, 55.336586], [37.454091, 55.336726], [37.455796, 55.33787], [37.456283, 55.338144], [37.456768, 55.338367], [37.457537, 55.338608], [37.457896, 55.338614], [37.458286, 55.338486], [37.459037, 55.338107], [37.459721, 55.337759], [37.460343, 55.337438], [37.46056, 55.337325], [37.460938, 55.337557], [37.464243, 55.339849], [37.462877, 55.340716], [37.462612, 55.340896], [37.462999, 55.34132], [37.463065, 55.341379], [37.463635, 55.342506], [37.463887, 55.343081], [37.464016, 55.343218], [37.464154, 55.343616], [37.464261, 55.343683], [37.464555, 55.343756], [37.464774, 55.343756], [37.465381, 55.34362], [37.465404, 55.343658], [37.465365, 55.343669], [37.464931, 55.343766], [37.465353, 55.344316], [37.46586, 55.344205], [37.465884, 55.344227], [37.465748, 55.344253], [37.465823, 55.344481], [37.466129, 55.344569], [37.466418, 55.344734], [37.469166, 55.34633], [37.470025, 55.346886], [37.470911, 55.347354], [37.470957, 55.347433], [37.470901, 55.347896], [37.471017, 55.347994], [37.471172, 55.348056], [37.473487, 55.348285], [37.474438, 55.348385], [37.474505, 55.34843], [37.474439, 55.348976], [37.474301, 55.349987], [37.474141, 55.350076], [37.474241, 55.350143], [37.474409, 55.350123], [37.47456, 55.350154], [37.475208, 55.35037], [37.476044, 55.350546], [37.476725, 55.35074], [37.477238, 55.350938], [37.477919, 55.351056], [37.478744, 55.351085], [37.480172, 55.351021], [37.480536, 55.35105], [37.480802, 55.351025], [37.481241, 55.35103], [37.481738, 55.351091], [37.482164, 55.350988], [37.482337, 55.351028], [37.48262, 55.351032], [37.482952, 55.351031], [37.483156, 55.351064], [37.483347, 55.351171], [37.483935, 55.351239], [37.484509, 55.351365], [37.485775, 55.351429], [37.487297, 55.351695], [37.487625, 55.351734], [37.487771, 55.35179], [37.487789, 55.351872], [37.487749, 55.351961], [37.48779, 55.35204], [37.487974, 55.352112], [37.49001, 55.352415], [37.490219, 55.352486], [37.49109, 55.352777], [37.491864, 55.353101], [37.492656, 55.353343], [37.493063, 55.353523], [37.493479, 55.353653], [37.493672, 55.353623], [37.493989, 55.353694], [37.49433, 55.353853], [37.494609, 55.354098], [37.495259, 55.354494], [37.495657, 55.35481], [37.496146, 55.354918], [37.497303, 55.355101], [37.496834, 55.355332], [37.496716, 55.355455], [37.49654, 55.355754], [37.496569, 55.355956], [37.496645, 55.356096], [37.501801, 55.355795], [37.501899, 55.356012], [37.50484, 55.355413], [37.505874, 55.355186], [37.508362, 55.354668], [37.509683, 55.354377], [37.510546, 55.354228], [37.5114, 55.35409], [37.51226, 55.354264], [37.512359, 55.354273], [37.51329, 55.354252], [37.51463, 55.354943], [37.515235, 55.355183], [37.515742, 55.355275], [37.515934, 55.355453], [37.516066, 55.355529], [37.516197, 55.355566], [37.516591, 55.355561], [37.517351, 55.355516], [37.517249, 55.354901], [37.517053, 55.353708], [37.518877, 55.353599], [37.520787, 55.353497], [37.522735, 55.3534], [37.524131, 55.353335], [37.524462, 55.353452], [37.524764, 55.353919], [37.524349, 55.354236], [37.524451, 55.354937], [37.524672, 55.355928], [37.52527, 55.35588], [37.525227, 55.355699], [37.526111, 55.355633], [37.526193, 55.356033], [37.526211, 55.35612], [37.526688, 55.356089], [37.526814, 55.356685]]}}]}