{"type": "FeatureCollection", "features": [{"type": "Feature", "properties": {"name": "Сергиев Посад 02", "source": "/gps/velo/sergposad.02.gpx", "points": 633}, "geometry": {"type": "LineString", "coordinates": [[36.854614, 55.729542], [36.85507, 55.72949], [36.85516, 55.729483], [36.854507, 55.72783], [36.853955, 55.727937], [36.853614, 55.728084], [36.85218, 55.729001], [36.852148, 55.729022], [36.852288, 55.729228], [36.852195, 55.729247], [36.85203, 55.7292], [36.852072, 55.729087], [36.851891, 55.728837], [36.851762, 55.72876], [36.851478, 55.728645], [36.850315, 55.728163], [36.849279, 55.727733], [36.848827, 55.727544], [36.847599, 55.727049], [36.847127, 55.726926], [36.846646, 55.726843], [36.845557, 55.726713], [36.845387, 55.726695], [36.845176, 55.726674], [36.843792, 55.726524], [36.843064, 55.726389], [36.842581, 55.726267], [36.842047, 55.726059], [36.841407, 55.725701], [36.841215, 55.72558], [36.839847, 55.724732], [36.839628, 55.72463], [36.839495, 55.724607], [36.83926, 55.724656], [36.838724, 55.724965], [36.838188, 55.725235], [36.838011, 55.725329], [36.836298, 55.72612], [36.834848, 55.726748], [36.832232, 55.724999], [36.830086, 55.726383], [36.830663, 55.726734], [36.830456, 55.726952], [36.829789, 55.726482], [36.829016, 55.726059], [36.827407, 55.724887], [36.82672, 55.724645], [36.825476, 55.723944], [36.825264, 55.723879], [36.82435, 55.723616], [36.824, 55.723515], [36.823201, 55.723316], [36.820705, 55.722452], [36.820635, 55.722427], [36.820244, 55.72247], [36.819768, 55.722397], [36.818759, 55.722101], [36.817751, 55.721805], [36.815534, 55.720841], [36.8153, 55.720693], [36.815091, 55.720491], [36.814974, 55.720378], [36.814595, 55.720142], [36.81396, 55.719829], [36.813384, 55.719473], [36.811003, 55.717666], [36.810505, 55.717245], [36.809412, 55.71617], [36.808741, 55.715708], [36.808254, 55.715012], [36.807845, 55.714514], [36.806751, 55.713051], [36.806536, 55.7126], [36.806381, 55.712233], [36.805851, 55.711658], [36.805404, 55.711338], [36.804715, 55.7109], [36.803221, 55.710202], [36.802636, 55.709884], [36.802302, 55.709666], [36.802029, 55.709404], [36.801819, 55.709083], [36.801725, 55.708781], [36.801694, 55.70846], [36.801159, 55.708403], [36.800781, 55.708253], [36.800626, 55.708231], [36.800565, 55.708186], [36.800118, 55.708082], [36.799945, 55.708099], [36.799844, 55.708141], [36.799702, 55.708291], [36.799892, 55.708589], [36.799994, 55.708805], [36.799957, 55.709085], [36.799718, 55.709447], [36.799138, 55.709576], [36.797538, 55.709827], [36.797272, 55.70984], [36.797113, 55.709848], [36.792444, 55.710073], [36.790859, 55.71019], [36.790586, 55.710236], [36.790469, 55.710292], [36.790312, 55.710398], [36.790273, 55.710517], [36.790135, 55.710892], [36.790002, 55.711023], [36.789747, 55.711073], [36.789436, 55.711117], [36.789236, 55.71121], [36.788297, 55.711386], [36.787322, 55.711578], [36.786164, 55.71199], [36.785797, 55.71226], [36.785077, 55.712282], [36.784838, 55.712316], [36.783267, 55.712913], [36.782626, 55.71323], [36.781971, 55.713512], [36.780859, 55.714073], [36.780349, 55.714438], [36.779215, 55.715093], [36.777826, 55.715829], [36.777232, 55.715943], [36.776968, 55.716313], [36.775886, 55.717147], [36.775184, 55.717605], [36.7747, 55.717844], [36.774246, 55.717967], [36.773869, 55.717983], [36.773817, 55.718005], [36.773617, 55.718091], [36.773523, 55.718334], [36.773135, 55.718744], [36.772673, 55.718966], [36.771758, 55.719345], [36.770751, 55.719759], [36.769803, 55.720113], [36.768729, 55.720465], [36.768121, 55.720621], [36.76616, 55.721034], [36.764209, 55.721379], [36.764036, 55.72141], [36.762891, 55.721783], [36.762631, 55.721918], [36.762299, 55.722152], [36.762048, 55.722242], [36.761695, 55.722286], [36.761339, 55.722267], [36.761, 55.72221], [36.760661, 55.722091], [36.760071, 55.721815], [36.759785, 55.721644], [36.759261, 55.721191], [36.75905, 55.720959], [36.758918, 55.720731], [36.758794, 55.720518], [36.758679, 55.719966], [36.758675, 55.719603], [36.758506, 55.71904], [36.758501, 55.718826], [36.758571, 55.718387], [36.758551, 55.718121], [36.758601, 55.717855], [36.758755, 55.717464], [36.758751, 55.717252], [36.758651, 55.716947], [36.758614, 55.716672], [36.758664, 55.716564], [36.75909, 55.71615], [36.759278, 55.715844], [36.759524, 55.715667], [36.7598, 55.71554], [36.760072, 55.715482], [36.760339, 55.71542], [36.760791, 55.715243], [36.761722, 55.715013], [36.762059, 55.714841], [36.762256, 55.714709], [36.762789, 55.714165], [36.763774, 55.713287], [36.763936, 55.713029], [36.764193, 55.712463], [36.764281, 55.711997], [36.764192, 55.711802], [36.764165, 55.711505], [36.764007, 55.711246], [36.763943, 55.711202], [36.763897, 55.710861], [36.763833, 55.710689], [36.763552, 55.710392], [36.762702, 55.709571], [36.762438, 55.709313], [36.761714, 55.708877], [36.760003, 55.708097], [36.758908, 55.707648], [36.758452, 55.7075], [36.758205, 55.707393], [36.757926, 55.70731], [36.757352, 55.707187], [36.756225, 55.706998], [36.755743, 55.706881], [36.754697, 55.70672], [36.753886, 55.706634], [36.752512, 55.70643], [36.751221, 55.706233], [36.7483, 55.705911], [36.747337, 55.70577], [36.746248, 55.705675], [36.746264, 55.705705], [36.745224, 55.705483], [36.744531, 55.705431], [36.743415, 55.705252], [36.742586, 55.705156], [36.742473, 55.705059], [36.742432, 55.704966], [36.742129, 55.704863], [36.741789, 55.704846], [36.741503, 55.704892], [36.740926, 55.704737], [36.738955, 55.704454], [36.73318, 55.703685], [36.730499, 55.703449], [36.73, 55.703377], [36.729375, 55.703221], [36.729045, 55.703097], [36.72891, 55.703085], [36.728377, 55.703139], [36.72822, 55.703119], [36.725228, 55.702326], [36.722896, 55.70173], [36.722348, 55.701569], [36.721887, 55.701372], [36.721605, 55.701311], [36.720323, 55.700789], [36.720151, 55.700722], [36.718065, 55.69994], [36.716704, 55.699522], [36.716009, 55.699343], [36.715312, 55.699197], [36.715056, 55.699062], [36.71475, 55.69896], [36.713364, 55.698617], [36.711952, 55.698335], [36.71173, 55.698308], [36.711294, 55.698349], [36.710904, 55.69839], [36.710355, 55.698506], [36.708891, 55.698877], [36.707648, 55.699073], [36.707009, 55.699295], [36.706481, 55.699525], [36.705856, 55.699717], [36.705262, 55.700034], [36.704903, 55.700302], [36.704677, 55.70051], [36.704328, 55.700705], [36.704087, 55.700764], [36.703803, 55.700802], [36.703514, 55.700891], [36.703352, 55.700973], [36.702729, 55.701407], [36.701932, 55.701882], [36.700862, 55.70252], [36.700769, 55.702567], [36.700474, 55.702608], [36.700281, 55.702682], [36.700227, 55.702734], [36.69985, 55.7031], [36.699772, 55.70345], [36.699618, 55.703733], [36.69891, 55.704095], [36.698435, 55.704242], [36.69772, 55.704769], [36.697386, 55.704861], [36.696745, 55.704972], [36.694582, 55.705305], [36.693359, 55.705354], [36.692908, 55.705358], [36.691778, 55.7053], [36.691219, 55.705246], [36.690887, 55.705163], [36.69057, 55.70516], [36.690237, 55.705108], [36.689806, 55.70516], [36.689703, 55.7052], [36.689283, 55.705224], [36.689116, 55.705301], [36.688742, 55.705948], [36.689116, 55.705301], [36.689283, 55.705224], [36.689703, 55.7052], [36.689711, 55.70525], [36.690093, 55.705298], [36.690262, 55.705276], [36.690295, 55.705272], [36.690422, 55.705196], [36.69057, 55.70516], [36.690887, 55.705163], [36.691219, 55.705246], [36.691778, 55.7053], [36.692908, 55.705358], [36.693359, 55.705354], [36.694582, 55.705305], [36.696745, 55.704972], [36.697386, 55.704861], [36.69772, 55.704769], [36.698435, 55.704242], [36.69891, 55.704095], [36.699618, 55.703733], [36.699772, 55.70345], [36.69985, 55.7031], [36.700227, 55.702734], [36.700281, 55.702682], [36.700474, 55.702608], [36.700769, 55.702567], [36.700862, 55.70252], [36.702729, 55.701407], [36.703352, 55.700973], [36.703514, 55.700891], [36.703803, 55.700802], [36.704087, 55.700764], [36.704328, 55.700705], [36.704677, 55.70051], [36.704903, 55.700302], [36.705262, 55.700034], [36.705856, 55.699717], [36.706481, 55.699525], [36.707009, 55.699295], [36.707648, 55.699073], [36.708891, 55.698877], [36.710355, 55.698506], [36.710904, 55.69839], [36.711294, 55.698349], [36.71173, 55.698308], [36.711952, 55.698335], [36.713364, 55.698617], [36.71475, 55.69896], [36.715056, 55.699062], [36.715312, 55.699197], [36.716009, 55.699343], [36.716704, 55.699522], [36.718065, 55.69994], [36.720151, 55.700722], [36.720323, 55.700789], [36.721605, 55.701311], [36.721887, 55.701372], [36.722348, 55.701569], [36.722896, 55.70173], [36.723229, 55.701815], [36.725228, 55.702326], [36.72822, 55.703119], [36.728377, 55.703139], [36.72891, 55.703085], [36.729045, 55.703097], [36.729375, 55.703221], [36.73, 55.703377], [36.730499, 55.703449], [36.73318, 55.703685], [36.738955, 55.704454], [36.740926, 55.704737], [36.741503, 55.704892], [36.741789, 55.704846], [36.742129, 55.704863], [36.742432, 55.704966], [36.742473, 55.705059], [36.742586, 55.705156], [36.743415, 55.705252], [36.744531, 55.705431], [36.745224, 55.705483], [36.746264, 55.705705], [36.746248, 55.705675], [36.747337, 55.70577], [36.7483, 55.705911], [36.751221, 55.706233], [36.752512, 55.70643], [36.753886, 55.706634], [36.754697, 55.70672], [36.755743, 55.706881], [36.756225, 55.706998], [36.757352, 55.707187], [36.757926, 55.70731], [36.758205, 55.707393], [36.758452, 55.7075], [36.758908, 55.707648], [36.759506, 55.707893], [36.760003, 55.708097], [36.761714, 55.708877], [36.762438, 55.709313], [36.762702, 55.709571], [36.763552, 55.710392], [36.763833, 55.710689], [36.763897, 55.710861], [36.763943, 55.711202], [36.764007, 55.711246], [36.764165, 55.711505], [36.764192, 55.711802], [36.764281, 55.711997], [36.764193, 55.712463], [36.763936, 55.713029], [36.763774, 55.713287], [36.762789, 55.714165], [36.762256, 55.714709], [36.762059, 55.714841], [36.761722, 55.715013], [36.760791, 55.715243], [36.760339, 55.71542], [36.760072, 55.715482], [36.7598, 55.71554], [36.759524, 55.715667], [36.759278, 55.715844], [36.75909, 55.71615], [36.758664, 55.716564], [36.758614, 55.716672], [36.758651, 55.716947], [36.758751, 55.717252], [36.758755, 55.717464], [36.758601, 55.717855], [36.758551, 55.718121], [36.758571, 55.718387], [36.758501, 55.718826], [36.758506, 55.71904], [36.758675, 55.719603], [36.758679, 55.719966], [36.758794, 55.720518], [36.758918, 55.720731], [36.75905, 55.720959], [36.759261, 55.721191], [36.759785, 55.721644], [36.760071, 55.721815], [36.760661, 55.722091], [36.761, 55.72221], [36.761339, 55.722267], [36.761695, 55.722286], [36.762048, 55.722242], [36.762299, 55.722152], [36.762631, 55.721918], [36.762891, 55.721783], [36.764036, 55.72141], [36.764209, 55.721379], [36.76616, 55.721034], [36.768121, 55.720621], [36.768729, 55.720465], [36.769803, 55.720113], [36.770751, 55.719759], [36.771758, 55.719345], [36.772673, 55.718966], [36.773135, 55.718744], [36.773523, 55.718334], [36.773617, 55.718091], [36.773817, 55.718005], [36.773869, 55.717983], [36.774246, 55.717967], [36.7747, 55.717844], [36.775184, 55.717605], [36.775886, 55.717147], [36.776968, 55.716313], [36.777232, 55.715943], [36.777826, 55.715829], [36.779215, 55.715093], [36.780349, 55.714438], [36.780859, 55.714073], [36.781971, 55.713512], [36.782626, 55.71323], [36.783267, 55.712913], [36.784838, 55.712316], [36.785077, 55.712282], [36.785797, 55.71226], [36.786164, 55.71199], [36.787322, 55.711578], [36.788297, 55.711386], [36.789236, 55.71121], [36.789436, 55.711117], [36.789747, 55.711073], [36.790002, 55.711023], [36.790135, 55.710892], [36.790273, 55.710517], [36.790312, 55.710398], [36.790469, 55.710292], [36.790586, 55.710236], [36.790859, 55.71019], [36.792444, 55.710073], [36.797113, 55.709848], [36.797272, 55.70984], [36.797538, 55.709827], [36.799138, 55.709576], [36.799718, 55.709447], [36.799957, 55.709085], [36.799994, 55.708805], [36.799892, 55.708589], [36.799702, 55.708291], [36.799844, 55.708141], [36.799945, 55.708099], [36.800118, 55.708082], [36.800565, 55.708186], [36.800626, 55.708231], [36.800781, 55.708253], [36.801159, 55.708403], [36.801694, 55.70846], [36.801725, 55.708781], [36.801819, 55.709083], [36.802029, 55.709404], [36.802302, 55.709666], [36.802636, 55.709884], [36.803221, 55.710202], [36.804715, 55.7109], [36.805404, 55.711338], [36.805851, 55.711658], [36.806381, 55.712233], [36.806536, 55.7126], [36.806751, 55.713051], [36.807845, 55.714514], [36.808254, 55.715012], [36.808741, 55.715708], [36.809412, 55.71617], [36.810505, 55.717245], [36.811003, 55.717666], [36.813384, 55.719473], [36.81396, 55.719829], [36.814595, 55.720142], [36.814974, 55.720378], [36.815091, 55.720491], [36.8153, 55.720693], [36.815534, 55.720841], [36.817751, 55.721805], [36.819768, 55.722397], [36.820244, 55.72247], [36.820635, 55.722427], [36.820705, 55.722452], [36.823201, 55.723316], [36.824, 55.723515], [36.82435, 55.723616], [36.825264, 55.723879], [36.825476, 55.723944], [36.82672, 55.724645], [36.827407, 55.724887], [36.829016, 55.726059], [36.829789, 55.726482], [36.830456, 55.726952], [36.830663, 55.726734], [36.830086, 55.726383], [36.832232, 55.724999], [36.834848, 55.726748], [36.836298, 55.72612], [36.838011, 55.725329], [36.838188, 55.725235], [36.838724, 55.724965], [36.83926, 55.724656], [36.839495, 55.724607], [36.839628, 55.72463], [36.839847, 55.724732], [36.841215, 55.72558], [36.841407, 55.725701], [36.842047, 55.726059], [36.842581, 55.726267], [36.843064, 55.726389], [36.843792, 55.726524], [36.845176, 55.726674], [36.845387, 55.726695], [36.845557, 55.726713], [36.846646, 55.726843], [36.847127, 55.726926], [36.847599, 55.727049], [36.848827, 55.727544], [36.849279, 55.727733], [36.851478, 55.728645], [36.851762, 55.72876], [36.851891, 55.728837], [36.852148, 55.729022], [36.852288, 55.729228], [36.852429, 55.729436], [36.85251, 55.729629], [36.852541, 55.729703], [36.852743, 55.730292], [36.85278, 55.7304], [36.852541, 55.730432], [36.851865, 55.730524], [36.851222, 55.730591], [36.850892, 55.730578], [36.850102, 55.730361], [36.849943, 55.730262], [36.849899, 55.730173], [36.850718, 55.729793], [36.851821, 55.729344], [36.852147, 55.729331], [36.852429, 55.729436], [36.85251, 55.729629], [36.852541, 55.729703], [36.852796, 55.729799], [36.85295, 55.729804], [36.854195, 55.729647], [36.855084, 55.729543], [36.855179, 55.729533], [36.856363, 55.729379], [36.857799, 55.729193], [36.857849, 55.729186], [36.858319, 55.729124], [36.858504, 55.729101], [36.858611, 55.729087], [36.859857, 55.728922], [36.860253, 55.728867], [36.860415, 55.728865], [36.860569, 55.728899], [36.860613, 55.729006], [36.860636, 55.729009], [36.860606, 55.729055], [36.860397, 55.729251], [36.860108, 55.729351], [36.860155, 55.729414], [36.860185, 55.729451], [36.860155, 55.729414], [36.860108, 55.729351], [36.859599, 55.729513], [36.858865, 55.729647], [36.858894, 55.729714], [36.858773, 55.729728], [36.858747, 55.729663], [36.858529, 55.72969], [36.857969, 55.729759], [36.857621, 55.729802], [36.85753, 55.729814], [36.857164, 55.729859], [36.855674, 55.730043], [36.855577, 55.730055], [36.85536, 55.730072], [36.855207, 55.730085], [36.855178, 55.730017], [36.855233, 55.729993], [36.855166, 55.729782], [36.855084, 55.729543], [36.85507, 55.72949], [36.854614, 55.729542]]}}]}