{"type": "FeatureCollection", "features": [{"type": "Feature", "properties": {"name": "Сергиев Посад 01", "source": "/gps/velo/sergposad.01.gpx", "points": 218}, "geometry": {"type": "LineString", "coordinates": [[36.860629, 55.740667], [36.860527, 55.740405], [36.8612, 55.740322], [36.86131, 55.740563], [36.861582, 55.741157], [36.861821, 55.74168], [36.861922, 55.741774], [36.862088, 55.741929], [36.862148, 55.741985], [36.862507, 55.742725], [36.86248, 55.742859], [36.863494, 55.743025], [36.863764, 55.743069], [36.863588, 55.743415], [36.863721, 55.743434], [36.863675, 55.743535], [36.863356, 55.744233], [36.865238, 55.744712], [36.865662, 55.74483], [36.866474, 55.745057], [36.868191, 55.745538], [36.870059, 55.745854], [36.870931, 55.745969], [36.870673, 55.746246], [36.871916, 55.746512], [36.871235, 55.747376], [36.870577, 55.748211], [36.873325, 55.748945], [36.872583, 55.749945], [36.871415, 55.751517], [36.87111, 55.752058], [36.871129, 55.752275], [36.871027, 55.752353], [36.870805, 55.752816], [36.870687, 55.753076], [36.870607, 55.753259], [36.870388, 55.753756], [36.870206, 55.754166], [36.870039, 55.754512], [36.86997, 55.754665], [36.869817, 55.755005], [36.869652, 55.75537], [36.869332, 55.756035], [36.869311, 55.75608], [36.868146, 55.758612], [36.86732, 55.760469], [36.86669, 55.761806], [36.866531, 55.762144], [36.866349, 55.76225], [36.866118, 55.762292], [36.864812, 55.76233], [36.864125, 55.762384], [36.863527, 55.762489], [36.862693, 55.762692], [36.860718, 55.763274], [36.859591, 55.763581], [36.859152, 55.763671], [36.858755, 55.763706], [36.858759, 55.765106], [36.858871, 55.765424], [36.859217, 55.765903], [36.859756, 55.766535], [36.859868, 55.76675], [36.859899, 55.767162], [36.859725, 55.767639], [36.85946, 55.768152], [36.859006, 55.76893], [36.858814, 55.769268], [36.858748, 55.769256], [36.858674, 55.769401], [36.858748, 55.769256], [36.858814, 55.769268], [36.858708, 55.769477], [36.858568, 55.769787], [36.858413, 55.770139], [36.858088, 55.770879], [36.858048, 55.770968], [36.857355, 55.772053], [36.857318, 55.772109], [36.856807, 55.772887], [36.856769, 55.772943], [36.856479, 55.773367], [36.85596, 55.774128], [36.855703, 55.774505], [36.855656, 55.774573], [36.85413, 55.776843], [36.853233, 55.77806], [36.852902, 55.778372], [36.85107, 55.77986], [36.850204, 55.780598], [36.849888, 55.781028], [36.846836, 55.786985], [36.846737, 55.787286], [36.846705, 55.787552], [36.846715, 55.787716], [36.846875, 55.788084], [36.846892, 55.788114], [36.847495, 55.788743], [36.847615, 55.788857], [36.848695, 55.789831], [36.848875, 55.790004], [36.849797, 55.790893], [36.851776, 55.792771], [36.852878, 55.79386], [36.855935, 55.797368], [36.855995, 55.797442], [36.856349, 55.797924], [36.856397, 55.798044], [36.861087, 55.797969], [36.863086, 55.797951], [36.864425, 55.797971], [36.865251, 55.79802], [36.865963, 55.79817], [36.876632, 55.803398], [36.876868, 55.803517], [36.87881, 55.804478], [36.8805, 55.805315], [36.888526, 55.809288], [36.889796, 55.809886], [36.892767, 55.811394], [36.893016, 55.811489], [36.893213, 55.81152], [36.893463, 55.811495], [36.894512, 55.811309], [36.895815, 55.811168], [36.899475, 55.810855], [36.903716, 55.810446], [36.906061, 55.810246], [36.907239, 55.810259], [36.911139, 55.810451], [36.912767, 55.810643], [36.914284, 55.811049], [36.917509, 55.812025], [36.917762, 55.812066], [36.91814, 55.81208], [36.918467, 55.812032], [36.9186, 55.811949], [36.920375, 55.801316], [36.920423, 55.801022], [36.920509, 55.800518], [36.920721, 55.799284], [36.920899, 55.798194], [36.921767, 55.79307], [36.92185, 55.792471], [36.921881, 55.7919], [36.921887, 55.791167], [36.921846, 55.790779], [36.921625, 55.789999], [36.921323, 55.789279], [36.921003, 55.788733], [36.92052, 55.788068], [36.896842, 55.760377], [36.893401, 55.756277], [36.888392, 55.750449], [36.887648, 55.749663], [36.885768, 55.747679], [36.884977, 55.746844], [36.881548, 55.746309], [36.881136, 55.746312], [36.880864, 55.74642], [36.880677, 55.746466], [36.880472, 55.746471], [36.880195, 55.7464], [36.880065, 55.746311], [36.880001, 55.746202], [36.880045, 55.746032], [36.880162, 55.745938], [36.880331, 55.745873], [36.880633, 55.745851], [36.880851, 55.745897], [36.880932, 55.745803], [36.882172, 55.744615], [36.882036, 55.744575], [36.881911, 55.744701], [36.881843, 55.744684], [36.881804, 55.744675], [36.881729, 55.744656], [36.881483, 55.744593], [36.881544, 55.744419], [36.88153, 55.744362], [36.881122, 55.743929], [36.880735, 55.743517], [36.880688, 55.743472], [36.880638, 55.743477], [36.880425, 55.743388], [36.880164, 55.743344], [36.878664, 55.743094], [36.878505, 55.74309], [36.878263, 55.743164], [36.87778, 55.743324], [36.877576, 55.743439], [36.876989, 55.74352], [36.876227, 55.743483], [36.875549, 55.743363], [36.875007, 55.743259], [36.874814, 55.743213], [36.873103, 55.742327], [36.872848, 55.742239], [36.8727, 55.74224], [36.872577, 55.742261], [36.867996, 55.741504], [36.867497, 55.741425], [36.868113, 55.74015], [36.867792, 55.740198], [36.867356, 55.740262], [36.86692, 55.740327], [36.866815, 55.740117], [36.866836, 55.740016], [36.866638, 55.739594], [36.866563, 55.739604], [36.865607, 55.739725], [36.862961, 55.740062], [36.862263, 55.740153], [36.861496, 55.740252], [36.861185, 55.740292], [36.8612, 55.740322], [36.860527, 55.740405], [36.860629, 55.740667]]}}]}