{"type": "FeatureCollection", "features": [{"type": "Feature", "properties": {"id": "koptevo-hook", "title": "Крюк к МЦК Коптево", "description": "Старый заезд к Коптево. Не входит в официальное Зелёное кольцо — можно проехать как альтернативу.", "kind": "alternative", "optional": true, "km": 3.35}, "geometry": {"type": "LineString", "coordinates": [[37.505245, 55.837844], [37.50513225, 55.83807475], [37.5050195, 55.8383055], [37.504906749999996, 55.83853625], [37.504794, 55.838767], [37.50500875, 55.83899225], [37.5052235, 55.839217500000004], [37.50543825, 55.83944275], [37.505653, 55.839668], [37.50611066666667, 55.839682333333336], [37.506568333333334, 55.83969666666667], [37.507026, 55.839711], [37.507511, 55.8397668], [37.507996, 55.8398226], [37.508481, 55.8398784], [37.508966, 55.8399342], [37.509451, 55.83999], [37.50955833333333, 55.840219], [37.50966566666667, 55.840448], [37.51021825, 55.8405805], [37.5106635, 55.840484000000004], [37.51110875, 55.8403875], [37.511554, 55.840291], [37.512015, 55.8403335], [37.512476, 55.840376], [37.512934, 55.84049066666667], [37.513391999999996, 55.84060533333333], [37.51385, 55.84072], [37.514272, 55.84092033333333], [37.514694, 55.84112066666667], [37.515116, 55.841321], [37.515384, 55.841514000000004], [37.515652, 55.841707], [37.51592, 55.841899999999995], [37.516188, 55.842093], [37.516167, 55.842265], [37.5157594, 55.842397999999996], [37.5153518, 55.842531], [37.5149442, 55.842664], [37.5145366, 55.842797000000004], [37.514129, 55.84293], [37.514129, 55.843134000000006], [37.514129, 55.843338], [37.513978, 55.843552], [37.513656, 55.843745], [37.51321266666667, 55.843781], [37.51276933333333, 55.843817], [37.512326, 55.843853], [37.51201483333333, 55.84405683333333], [37.51170366666667, 55.84426066666667], [37.5113925, 55.8444645], [37.51108133333333, 55.84466833333333], [37.51077016666667, 55.84487216666667], [37.510459, 55.845076], [37.510373, 55.845269], [37.51054475, 55.84548875], [37.5107165, 55.8457085], [37.51088825, 55.84592825], [37.51106, 55.846148], [37.511382, 55.846363], [37.511725, 55.846535], [37.5121435, 55.84661], [37.512562, 55.846685], [37.5129805, 55.846695499999996], [37.513399, 55.846706], [37.5138605, 55.846588], [37.514322, 55.84647], [37.514701, 55.84624833333333], [37.51508, 55.84602666666667], [37.515459, 55.845805], [37.51553766666667, 55.845562], [37.515616333333334, 55.845318999999996], [37.515695, 55.845076], [37.515852333333335, 55.84477533333333], [37.51600966666667, 55.84447466666667], [37.516167, 55.844174], [37.516403, 55.843917], [37.516831999999994, 55.8437345], [37.517261, 55.843552], [37.5171645, 55.843359], [37.517068, 55.843166], [37.51724, 55.842994], [37.517605, 55.842908], [37.518077, 55.842951], [37.5185618, 55.8428394], [37.5190466, 55.8427278], [37.5195314, 55.8426162], [37.5200162, 55.8425046], [37.520501, 55.842393], [37.5204045, 55.8422325], [37.520308, 55.842072], [37.520115000000004, 55.8418355], [37.519922, 55.841599], [37.519493, 55.841578], [37.519386, 55.841514], [37.518946, 55.8414065], [37.518506, 55.841299], [37.518592, 55.841192], [37.518763, 55.841235], [37.518914, 55.841084], [37.5193645, 55.841095], [37.519815, 55.841106], [37.5202335, 55.8410415], [37.520652, 55.840977], [37.520981, 55.840766], [37.52131, 55.840555], [37.521639, 55.840344], [37.521968, 55.840133], [37.522297, 55.839922], [37.522626, 55.839711], [37.52254, 55.839432], [37.52224, 55.839368], [37.522111, 55.839282], [37.5220145, 55.839110500000004], [37.521918, 55.838939], [37.521939, 55.838788], [37.522111, 55.838595], [37.522433, 55.838338], [37.522285857142855, 55.838056], [37.52213871428572, 55.837774]]}}]}